id_inst,name,unit,address,post,city,municipality,lat,lon
0,"0.4, ZOBOZDRAVSTVENE STORITVE D.O.O.",OE LJUBLJANA,Polhov Gradec 13,1355 Polhov Gradec,Polhov Gradec,Dobrova-Polhov Gradec,46.06521,14.31457
1,1A-DENT ZOBJE ZOBOZDRAVSTVENA DEJAVNOST D.O.O.,IZPOSTAVA RADLJE OB DRAVI,Podgorje 64A,2381 Podgorje pri Slovenj Gradcu,Podgorje,Slovenj Gradec,46.48078,15.07995
2,2LEVA DENTALNA MEDICINA IN MEDIJI D.O.O.,OE KRANJ,Vrečkova ulica 3,4000 Kranj,Kranj,Kranj,46.23503,14.36105
3,32 D.O.O. ZDRAVSTVO IN ZOBOZDRAVSTVO,IZPOSTAVA GROSUPLJE,Ulica bratov Babnik 10,1000 Ljubljana,Ljubljana,Ljubljana,46.07645,14.466
4,"32BISEROV, D.O.O., ZOBNA AMBULANTA ALENKA GRAHEK MIHOVEC, DR. DENT. MED.",OE LJUBLJANA,Gorenja vas - Reteče 58B,1215 Medvode,Gorenja vas - Reteče,Škofja Loka,46.15128,14.38319
5,"A DENT, TRGOVINA IN STORITVE, D.O.O.",IZPOSTAVA SEŽANA,Partizanska cesta 63,6210 Sežana,Sežana,Sežana,45.70583,13.86426
6,A-DENS ZOBOZDRAVSTVENE STORITVE D.O.O.,OE NOVO MESTO,Trg 27,8216 Mirna Peč,Mirna Peč,Mirna Peč,45.85842,15.08385
7,"A. MLINAR, ZOBOZDRAVSTVO, PROJEKTIRANJE IN DRUGE STORITVE D.O.O.",OE KOPER,Frenkova ulica 7,6280 Ankaran - Ancarano,Ankaran,Ankaran,45.58296,13.73466
8,"A.S. LINEA, TRGOVINA, STORITVE, D.O.O.",IZPOSTAVA RADOVLJICA,Pot na Lisice 4,4260 Bled,Bled,Bled,46.36823,14.1308
9,"AERODENT, ZOBOZDRAVSTVO, D.O.O.",IZPOSTAVA VRHNIKA,Brigadirska cesta 16,1360 Vrhnika,Verd,Vrhnika,45.96273,14.30258
10,AHLIN DRAGOTIN - SPLOŠNA AMBULANTA,IZPOSTAVA KAMNIK,Novi trg 26A,1241 Kamnik,Kamnik,Kamnik,46.22082,14.61321
11,AL MAHDAWI FUAD - SPECIALIST SPLOŠNE MEDICINE,IZPOSTAVA ŠMARJE PRI JELŠAH,Celjska cesta 7,3250 Rogaška Slatina,Rogaška Slatina,Rogaška Slatina,46.23915,15.63321
12,ALENKA IVANČIČ DR. DENT. MED. ZASEBNA ZOBNA ORDINACIJA,OE LJUBLJANA,Komenskega ulica 19,1000 Ljubljana,Ljubljana,Ljubljana,46.05341,14.51253
13,"ALENKA NADLER ŽAGAR, DR. MED. SPLOŠNA MEDICINA",IZPOSTAVA RIBNICA,Majnikova ulica 1,1310 Ribnica,Ribnica,Ribnica,45.74238,14.72596
14,AMBROŽ MIHELČIČ MAJDA - ZASEBNA ZDRAVNICA,IZPOSTAVA KAMNIK,Novi trg 26,1241 Kamnik,Kamnik,Kamnik,46.22139,14.61328
15,AMBROŽIČ - KOROŠEC ANDREJA - DEJAVNOST ZOBOZDRAVSTVA ODRASLIH,IZPOSTAVA VELENJE,Cesta bratov Mravljakov 13,3320 Velenje,Velenje,Velenje,46.36272,15.11965
16,AMBROŽIČ SELINA - ZASEBNA ZOBNA ORDINACIJA,IZPOSTAVA AJDOVŠČINA,Tovarniška cesta 2B,5270 Ajdovščina,Ajdovščina,Ajdovščina,45.88681,13.90359
17,AMBULANTA DEMŠAR D.O.O.,IZPOSTAVA ŠKOFJA LOKA,Visoko pri Poljanah 5,4220 Škofja Loka,Visoko pri Poljanah,Škofja Loka,46.12637,14.21316
18,"AMBULANTA DOLENC, DRUŽBA ZA ZDRAVSTVENE STORITVE, IZOBRAŽEVANJE IN SVETOVANJE, D.O.O.",IZPOSTAVA ŠKOFJA LOKA,Stara cesta 10,4220 Škofja Loka,Škofja Loka,Škofja Loka,46.16618,14.31281
19,AMBULANTA DRUŽINSKE MEDICINE EMIR ČOLIĆ DR.MED.SPEC.,OE LJUBLJANA,Litijska cesta 161,1000 Ljubljana,Ljubljana,Ljubljana,46.04539,14.56288
20,"AMBULANTA DRUŽINSKE MEDICINE JANA GOLUB, DR. MED.",IZPOSTAVA SLOVENSKA BISTRICA,Partizanska ulica 30,2310 Slovenska Bistrica,Slovenska Bistrica,Slovenska Bistrica,46.39552,15.56233
21,AMBULANTA DRUŽINSKE MEDICINE NELI GROSEK,OE LJUBLJANA,Ulica Vladimirja Dolničarja 11,1356 Dobrova,Dobrova,Dobrova-Polhov Gradec,46.05355,14.41726
22,AMBULANTA DRUŽINSKE MEDICINE SAŠO ŽITNIK,OE MARIBOR,Knafelčeva ulica 31,2000 Maribor,Maribor,Maribor,46.53891,15.63321
23,AMBULANTA DRUŽINSKE MEDICINE URŠKA FERK,OE MARIBOR,Sladki Vrh 5,2214 Sladki Vrh,Sladki Vrh,Šentilj,46.69756,15.7368
24,"AMBULANTA DRUŽINSKE MEDICINE, ADM MARN VODOVNIK D.O.O.",IZPOSTAVA ŠKOFJA LOKA,Sv. Duh 162,4220 Škofja Loka,Sv. Duh,Škofja Loka,46.18482,14.32198
25,"AMBULANTA DRUŽINSKE MEDICINE, NINA MILEUSNIĆ DR. MED. SPEC. DRUŽ. MED.",IZPOSTAVA PTUJ,Dornava 135A,2252 Dornava,Dornava,Dornava,46.43405,15.95139
26,"AMBULANTA IGOR MIHAJLOVIĆ, ZDRAVSTVENE IN DRUGE STORITVE, D.O.O.",IZPOSTAVA RADLJE OB DRAVI,Partizanska ulica 38,2360 Radlje ob Dravi,Radlje ob Dravi,Radlje ob Dravi,46.61458,15.22869
27,"AMBULANTA JERKOVIĆ, ZDRAVSTVENE STORITVE IN SVETOVANJE, D.O.O.",IZPOSTAVA PTUJ,Osojnikova cesta 9,2250 Ptuj,Ptuj,Ptuj,46.42061,15.87558
28,AMBULANTA KOŠIR D.O.O.,IZPOSTAVA ŠKOFJA LOKA,Podlubnik 307,4220 Škofja Loka,Škofja Loka,Škofja Loka,46.17254,14.29175
29,"AMBULANTA KUS, AMBULANTA DRUŽINSKE MEDICINE, D.O.O.",OE LJUBLJANA,Prijateljeva ulica 2,1000 Ljubljana,Ljubljana,Ljubljana,46.04409,14.5084
30,"AMBULANTA LAH, D.O.O., AMBULANTA SPLOŠNE IN DRUŽINSKE MEDICINE",IZPOSTAVA ŠKOFJA LOKA,Bizantova cesta 14,1215 Medvode,Medvode,Medvode,46.13248,14.41437
31,"AMBULANTA POLHEK, PEDIATRIČNA AMBULANTA, D.O.O.",IZPOSTAVA ŠKOFJA LOKA,Praproče 3,1355 Polhov Gradec,Praproče,Dobrova-Polhov Gradec,46.05929,14.295
32,"AMBULANTA POLJČANE, AMBULANTA SPLOŠNE IN DRUŽINSKE MEDICINE, D.O.O.",IZPOSTAVA SLOVENSKA BISTRICA,Bistriška cesta 62,2319 Poljčane,Poljčane,Poljčane,46.3129,15.57823
33,"AMBULANTA ROSIČ, ZDRAVSTVENE STORITVE IN SVETOVANJE, D.O.O.",IZPOSTAVA PTUJ,Pot v toplice 9,2250 Ptuj,Ptuj,Ptuj,46.42154,15.85575
34,"AMBULANTA SPLOŠNE IN DRUŽINSKE MEDICINE DAMIJANA ŠINIGOJ, DR.MED., SPEC. SPLOŠNE MEDICINE",OE NOVA GORICA,Rejčeva ulica 4,5000 Nova Gorica,Nova Gorica,Nova Gorica,45.95794,13.64553
35,"AMBULANTA SPLOŠNE IN DRUŽINSKE MEDICINE PRIM. MAJA PAVLIN KLEMENC, DR.MED.,SPEC. SPLOŠNE MEDICINE",OE NOVA GORICA,Rejčeva ulica 4,5000 Nova Gorica,Nova Gorica,Nova Gorica,45.95794,13.64553
36,"AMBULANTA SPLOŠNE MEDICINE ALENKA ALEKSEJEV, DR. MED., SPEC. SPL. MED.",OE MARIBOR,Knafelčeva ulica 31,2000 Maribor,Maribor,Maribor,46.53891,15.63321
37,"AMBULANTA SPLOŠNE MEDICINE EVA MEJAČ DR. MED., SPEC. SPLOŠNE MEDICINE",IZPOSTAVA SLOVENSKA BISTRICA,Mladinska ulica 12,2314 Zgornja Polskava,Zgornja Polskava,Slovenska Bistrica,46.42702,15.61079
38,"AMBULANTA SPLOŠNE MEDICINE JURE BIĆANIĆ, DR. MED., SPEC. SPL. MED.",IZPOSTAVA SLOVENSKE KONJICE,Kovaška cesta 22,3214 Zreče,Zreče,Zreče,46.37959,15.38343
39,"AMBULANTA SPLOŠNE MEDICINE MAGDA ČEČ DOLES DR. MED, SPEC. SPL. MED.",IZPOSTAVA POSTOJNA,Prečna ulica 2,6230 Postojna,Postojna,Postojna,45.77205,14.21042
40,"AMBULANTA SPLOŠNE MEDICINE MARTA TETIČKOVIČ RANFL, DR. MED. SPEC.",IZPOSTAVA ORMOŽ,Ulica dr. Hrovata 4,2270 Ormož,Ormož,Ormož,46.40724,16.14333
41,"AMBULANTA SPLOŠNE MEDICINE MATEJA GUŠTIN, DR. MED., SPEC. SPL. MED.",OE NOVO MESTO,Trg 27,8216 Mirna Peč,Mirna Peč,Mirna Peč,45.85842,15.08385
42,"AMBULANTA SPLOŠNE MEDICINE TIBOR IBRIŠIMOVIĆ DR. MED., SPEC.",IZPOSTAVA ORMOŽ,Ulica dr. Hrovata 4,2270 Ormož,Ormož,Ormož,46.40724,16.14333
43,"AMBULANTA SPLOŠNE MEDICINE, ALENKA SIMONIČ S.P.",IZPOSTAVA ORMOŽ,Ulica dr. Hrovata 4,2270 Ormož,Ormož,Ormož,46.40724,16.14333
44,"AMBULANTA STRAŽA, SPLOŠNA ZDRAVSTVENA DEJAVNOST, D.O.O.",OE NOVO MESTO,Ulica talcev 17,8351 Straža pri Novem mestu,Straža,Straža,45.78181,15.07112
45,"AMBULANTA TOMINC, ZDRAVSTVENA DEJAVNOST, D.O.O.",IZPOSTAVA PTUJ,Pot v toplice 9,2250 Ptuj,Ptuj,Ptuj,46.42154,15.85575
46,"AMBULANTA VITA, DRUŽINSKA MEDICINA, D.O.O.",IZPOSTAVA TRŽIČ,Blejska cesta 10,4290 Tržič,Tržič,Tržič,46.36361,14.30654
47,"AMBULANTA ZA OTROKE IN ŠOLARJE PEDENJPED, ZDRAVSTVENE IN DRUGE STORITVE,D.O.O.",IZPOSTAVA LENART,Maistrova ulica 22,2230 Lenart v Slov. goricah,Lenart v Slov. goricah,Lenart,46.57734,15.82896
48,"AMBULANTA ZA OTROKE IN ŠOLARJE ŽIVŽAV, D.O.O.",OE MURSKA SOBOTA,Kocljeva ulica 10,9000 Murska Sobota,Murska Sobota,Murska Sobota,46.66002,16.16316
49,"AMBULANTA ZA VSE GENERACIJE, ZDRAVSTVENE STORITVE IN SVETOVANJE, D.O.O.",IZPOSTAVA PTUJ,Potrčeva cesta 15,2250 Ptuj,Ptuj,Ptuj,46.42472,15.87653
50,"AMBULANTA ŠUBIC, ZASEBNA ZDRAVSTVENA DEJAVNOST, D.O.O.",IZPOSTAVA ŠKOFJA LOKA,Stara cesta 10,4220 Škofja Loka,Škofja Loka,Škofja Loka,46.16618,14.31281
51,"AMIGDALA, DRUŽBA ZA ZDRAVSTVENE, DRUGE STORITVE IN SVETOVANJE, D.O.O.",IZPOSTAVA LENART,Radehova 5C,2230 Lenart v Slov. goricah,Radehova,Lenart,46.56767,15.84591
52,ANDERLE ALOJZIJA - ZASEBNA ORDINACIJA ZA GINEKOLGIJO IN PORODNIŠTVO,IZPOSTAVA RADOVLJICA,Kopališka cesta 7,4240 Radovljica,Radovljica,Radovljica,46.34702,14.17201
53,ANDREJ DERNIKOVIČ - DOKTOR MEDICINE,IZPOSTAVA IZOLA,Ulica oktobrske revolucije 11,6310 Izola - Isola,Izola,Izola,45.53464,13.66078
54,ANDREJA BORINC BEDEN - ZASEBNA ZDRAVSTVENA DELAVKA,IZPOSTAVA DOMŽALE,Zoranina ulica 3,1234 Mengeš,Mengeš,Mengeš,46.16207,14.571
55,"ANDROMEDA, RAČUNALNIŠKI INŽENIRING IN TRGOVINA, D.O.O.",OE CELJE,Cesta v Zadobrovo 12,3000 Celje,Trnovlje pri Celju,Celje,46.25725,15.29632
56,"ANJA TROBEC, DR.DENT.MED. - ZASEBNA ZOBNA AMBULANTA",IZPOSTAVA ŠENTJUR PRI CELJU,Cesta Leona Dobrotinška 5,3230 Šentjur,Šentjur,Šentjur,46.21421,15.39394
57,ANKA PERPAR - BELI DENT ZOBNA ORDINACIJA,IZPOSTAVA GROSUPLJE,Sokolska ulica 5,1295 Ivančna Gorica,Ivančna Gorica,Ivančna Gorica,45.93826,14.8047
58,"APEKS, KARDIOLOGIJA IN ZOBOZDRAVSTVO, D.O.O.",IZPOSTAVA RADOVLJICA,Gorenjska cesta 8,4240 Radovljica,Radovljica,Radovljica,46.34202,14.17349
59,"APEX-T.A ZOBOZDRAVSTVO, STORITVE IN TRGOVINA D.O.O.",IZPOSTAVA HRASTNIK,Novi dom 11,1430 Hrastnik,Hrastnik,Hrastnik,46.1403,15.08513
60,"ARISTOTEL, ZDRAVSTVENI CENTER D.O.O.",OE KRŠKO,Ulica Ilije Gregoriča 18A,8270 Krško,Krško,Krško,45.9589,15.50201
61,"AS.MED, DRUŽBA ZA ZDRAVO ŽIVLJENJE D.O.O.",OE MURSKA SOBOTA,Kocljeva ulica 10,9000 Murska Sobota,Murska Sobota,Murska Sobota,46.66002,16.16316
62,"ATELJE D, ZOBOZDRAVSTVO, STORITVE IN SVETOVANJE, D.O.O.",OE MARIBOR,Koroška cesta 113C,2000 Maribor,Maribor,Maribor,46.56093,15.62844
63,BABIT ZOBOZDRAVSTVENI CENTER D.O.O.,OE LJUBLJANA,Kolezijska ulica 25,1000 Ljubljana,Ljubljana,Ljubljana,46.04145,14.4975
64,BAKLAN BRIGITA - ZASEBNA AMBULANTA SPLOŠNE MEDICINE,IZPOSTAVA PTUJ,Markovci 43,2281 Markovci,Markovci,Markovci,46.3943,15.93041
65,BAN-FRIŠČIČ GORDANA - DOKTOR STOMATOLOGIJE,IZPOSTAVA IDRIJA,Ulica Otona Župančiča 3,5280 Idrija,Idrija,Idrija,46.0022,14.03036
66,BANKO MILAN - ZASEBNA SPLOŠNA AMBULANTA,IZPOSTAVA DOMŽALE,Mestni trg 2,1230 Domžale,Domžale,Domžale,46.13975,14.59617
67,"BARSOS-MC, ZDRAVSTVENE STORITVE D.O.O.",OE LJUBLJANA,Gregorčičeva ulica 11,1000 Ljubljana,Ljubljana,Ljubljana,46.04822,14.50041
68,BARTOLIĆ-MARTINEZ ŽELJKA - ZASEBNA ZOBNA AMBULANTA,IZPOSTAVA PTUJ,Cirkulane 28,2282 Cirkulane,Cirkulane,Cirkulane,46.34593,15.99901
69,BEIGOT FRANC - DEJAVNOST SPLOŠNE MEDICINE,OE MARIBOR,Slovenski trg 4,2352 Selnica ob Dravi,Selnica ob Dravi,Selnica ob Dravi,46.5515,15.49303
70,BENEDIČIČ NIKOLAJ - ORDINACIJA SPLOŠNE MEDICINE,IZPOSTAVA LITIJA,Partizanska pot 8A,1270 Litija,Litija,Litija,46.05389,14.83656
71,BERANIČ STANISLAV - DOKTOR STOMATOLOGIJE,IZPOSTAVA SLOVENSKE KONJICE,Na vasi 11,3205 Vitanje,Vitanje,Vitanje,46.38261,15.29604
72,BERNOT MARTINA - ZASEBNA AMBULANTA ZA OTROKE IN MLADINO,IZPOSTAVA KAMNIK,Novi trg 26,1241 Kamnik,Kamnik,Kamnik,46.22139,14.61328
73,BH AJA DRUŽBA ZA STORITVE IN SVETOVANJE D.O.O.,IZPOSTAVA SLOVENSKA BISTRICA,Trg svobode 26,2310 Slovenska Bistrica,Slovenska Bistrica,Slovenska Bistrica,46.39244,15.57267
74,"BIOZOBOZDRAVSTVO, ZOBOZDRAVSTVENE STORITVE D.O.O.",IZPOSTAVA RADOVLJICA,Prešernova ulica 8,4240 Radovljica,Radovljica,Radovljica,46.34525,14.17034
75,BLAHA JASNA - ORDINACIJA SPLOŠNE MEDICINE,OE LJUBLJANA,Tbilisijska ulica 59,1000 Ljubljana,Ljubljana,Ljubljana,46.03762,14.47887
76,"BLAŽ KALAN, DR. DENT. MED., ZASEBNA ZOBNA ORDINACIJA",OE KRANJ,Gosposvetska ulica 10A,4000 Kranj,Kranj,Kranj,46.24862,14.35322
77,"BLAŽ KNEZ, DR. DENT. MED., ZOBNA ORDINACIJA",IZPOSTAVA POSTOJNA,Prečna ulica 2,6230 Postojna,Postojna,Postojna,45.77205,14.21042
78,"BLIMED D.O.O., ZDRAVSTVENE STORITVE, SVETOVANJE IN IZOBRAŽEVANJE",IZPOSTAVA MOZIRJE,Podvrh 24,3330 Mozirje,Mozirje,Mozirje,46.33896,14.95551
79,"BOBNAR MOJCA DR. DENT. MED., ZASEBNA ZOBOZDRAVSTVENA ORDINACIJA",IZPOSTAVA ŠKOFJA LOKA,Frankovo naselje 51,4220 Škofja Loka,Škofja Loka,Škofja Loka,46.16964,14.32918
80,"BODENT, ZOBOZDRAVSTVENE IN DRUGE STORITVE D.O.O.",OE MURSKA SOBOTA,Ulica ob igrišču 3,9226 Moravske Toplice,Moravske Toplice,Moravske Toplice,46.68736,16.21683
81,BOKADENT ZOBOZDRAVSTVO IN ZOBOTEHNIŠTVO D.O.O.,OE RAVNE NA KOROŠKEM,Trg 58A,2391 Prevalje,Prevalje,Prevalje,46.54639,14.91692
82,BOLDAN JOŽICA - AMBULANTA SPLOŠNE MEDICINE,IZPOSTAVA KOČEVJE,Ljubljanska cesta 1A,1330 Kočevje,Kočevje,Kočevje,45.63986,14.85913
83,BOLJKA DUŠA - ZOBNA ORDINACIJA,OE LJUBLJANA,Litijska cesta 43,1000 Ljubljana,Ljubljana,Ljubljana,46.04812,14.54356
84,BOLNIŠNICA ZA GINEKOLOGIJO IN PORODNIŠTVO KRANJ,OE KRANJ,Kidričeva cesta 38A,4000 Kranj,Kranj,Kranj,46.24863,14.35402
85,BOLNIŠNICA ZA ŽENSKE BOLEZNI IN PORODNIŠTVO POSTOJNA,IZPOSTAVA POSTOJNA,Prečna ulica 4,6230 Postojna,Postojna,Postojna,45.77151,14.2102
86,BOŠNIK - JURHAR FRANČIŠKA - DOKTOR STOMATOLOGIJE,IZPOSTAVA SLOVENJ GRADEC,Partizanska pot 16,2380 Slovenj Gradec,Slovenj Gradec,Slovenj Gradec,46.50693,15.08202
87,BP ZOBOZDRAVSTVENA IN ZDRAVSTVENA DEJAVNOST D.O.O.,IZPOSTAVA GORNJA RADGONA,Police 96,9250 Gornja Radgona,Police,Gornja Radgona,46.66371,15.96145
88,BRANČURNIK DENT DENTALNO MEDICINSKI CENTER D.O.O.,OE RAVNE NA KOROŠKEM,Pri Brančurniku 10,2391 Prevalje,Prevalje,Prevalje,46.54492,14.93243
89,BUDNA MAJDA - DOKTOR STOMATOLOGIJE,IZPOSTAVA VELENJE,Vodnikova cesta 1,3320 Velenje,Velenje,Velenje,46.36151,15.11636
90,"CASERMAN, ZASEBNA PEDIATRIČNA AMBULANTA, D.O.O.",IZPOSTAVA VRHNIKA,Cesta 6. maja 11,1360 Vrhnika,Vrhnika,Vrhnika,45.96278,14.29358
91,"CENTER ZA IZOBRAŽEVANJE, REHABILITACIJO IN USPOSABLJANJE KAMNIK",IZPOSTAVA KAMNIK,Novi trg 43A,1241 Kamnik,Kamnik,Kamnik,46.21914,14.61117
92,CHUM - ZIERER VESNA - ZOBNA AMBULANTA,OE MARIBOR,Vrbanska cesta 97,2351 Kamnica,Kamnica,Maribor,46.57321,15.61582
93,CIGLER MARIJA - DOKTOR STOMATOLOGIJE,IZPOSTAVA SLOVENJ GRADEC,Partizanska pot 16,2380 Slovenj Gradec,Slovenj Gradec,Slovenj Gradec,46.50693,15.08202
94,CIMAN ROBERT - ZOBNA ORDINACIJA,OE NOVA GORICA,Ulica Gradnikove brigade 7,5000 Nova Gorica,Nova Gorica,Nova Gorica,45.95843,13.64623
95,COLARIĆ MARJAN - ZDRAVNIK SPLOŠNE MEDICINE,IZPOSTAVA SLOVENSKA BISTRICA,Bistriška cesta 62,2319 Poljčane,Poljčane,Poljčane,46.3129,15.57823
96,COLJA LOVŠIN BRANKA - ZASEBNA GINEKOLOŠKA ORDINACIJA,OE LJUBLJANA,Linhartova cesta 5,1000 Ljubljana,Ljubljana,Ljubljana,46.06405,14.50981
97,"CORONA DENTIS ZOBOZDRAVSTVENA DEJAVNOST, ZOBOTEHNIČNA DEJAVNOST IN TRGOVINA D.O.O.",OE MARIBOR,Pesnica pri Mariboru 42C,2211 Pesnica pri Mariboru,Pesnica pri Mariboru,Pesnica,46.60846,15.67654
98,"CUSPIS ZOBOZDRAVSTVO, TRGOVINA IN OSTALE STORITVE D.O.O.",IZPOSTAVA PTUJ,Podgorci 48,2273 Podgorci,Podgorci,Ormož,46.42049,16.04944
99,CVELBAR JUDITA - ZASEBNA ZOBOZDRAVSTVENA ORDINACIJA,IZPOSTAVA VRHNIKA,Cesta 6. maja 11,1360 Vrhnika,Vrhnika,Vrhnika,45.96278,14.29358
100,CYCLOPET RADIOFARMAKI IN DIAGNOSTIKA D.O.O.,OE LJUBLJANA,Martinčeva ulica 30,1000 Ljubljana,Ljubljana,Ljubljana,46.07876,14.46871
101,DAVOR ŠTANFEL DR.DENT.MED.-ZASEBNA STOMATOLOŠKA ORDINACIJA,OE KOPER,Obrtniška ulica 30,6000 Koper - Capodistria,Koper,Koper,45.53069,13.73563
102,DEBELAK SIMONA - ZOBOZDRAVSTVENA ORDINACIJA,OE KRANJ,Tekstilna ulica 17,4000 Kranj,Kranj,Kranj,46.24628,14.36588
103,DEJAN EBENŠPANGER - ZOBNA ORDINACIJA,OE MURSKA SOBOTA,Lendavska ulica 18,9000 Murska Sobota,Murska Sobota,Murska Sobota,46.6641,16.16828
104,"DEJAN STOJANOV, DR.DENT.MED. ZASEBNI ZOBOZDRAVNIK",OE LJUBLJANA,Jezero 1,1352 Preserje,Jezero,Brezovica,45.97634,14.41959
105,DENIS AČKO JARKOVIČ DR.DENT.MED. ZOBNA AMBULANTA,OE KOPER,Dellavallejeva ulica 3,6000 Koper - Capodistria,Koper,Koper,45.5487,13.73094
106,"DENIS DŽANKOVIĆ, DR.DENT.MED., ZASEBNA ZOBOZDRAVSTVENA ORDINACIJA",OE NOVO MESTO,Pod Cvingerjem 33,8350 Dolenjske Toplice,Dolenjske Toplice,Dolenjske Toplice,45.75434,15.05436
107,DENS BARLIČ ZOBOZDRAVSTVO D.O.O.,IZPOSTAVA BREŽICE,Pleteršnikova ulica 1,8250 Brežice,Brežice,Brežice,45.90908,15.59631
108,"DENTA B, ZOBOZDRAVSTVENA DEJAVNOST IN OSTALE STORITVE, D.O.O.",IZPOSTAVA ŠKOFJA LOKA,Podlubnik 341,4220 Škofja Loka,Škofja Loka,Škofja Loka,46.17432,14.29072
109,"DENTAL B, ZOBOZDRAVSTVENE, ZDRAVSTVENE IN DRUGE STORITVE, D.O.O.",OE MARIBOR,Cesta Osvobodilne fronte 44,2000 Maribor,Maribor,Maribor,46.54946,15.66849
110,"DENTAL CENTER ZOBOZDRAVSTVO, TRGOVINA IN STORITVE D.O.O.",OE MARIBOR,Cankarjeva ulica 23A,2000 Maribor,Maribor,Maribor,46.56374,15.65253
111,"DENTAL DESIGN, ZOBOZDRAVSTVENE IN ZOBOTEHNIČNE STORITVE, SVETOVANJE, UVOZ IN IZVOZ, D.O.O.",OE LJUBLJANA,Javorškova ulica 9,1315 Velike Lašče,Velike Lašče,Velike Lašče,45.83502,14.63767
112,DENTALCARE PREVENTIVNA IN OTROŠKA ZOBOZDRAVSTVENA DEJAVNOST D.O.O.,OE KRŠKO,Cesta krških žrtev 132C,8270 Krško,Krško,Krško,45.94307,15.48349
113,"DENTALEN - TERJAK, DRUŽBA ZA ZOBOZDRAVSTVENO DEJAVNOST D.O.O.",OE MARIBOR,Spodnji Slemen 11,2352 Selnica ob Dravi,Spodnji Slemen,Selnica ob Dravi,46.56018,15.52055
114,"DENTALNI ATELJE MATIJA BRVAR, DR. DENT. MED.",OE MARIBOR,Tomšičeva ulica 23,2000 Maribor,Maribor,Maribor,46.56585,15.65337
115,DENTALNI CENTER DR. LAH KRAVANJA D.O.O.,IZPOSTAVA TOLMIN,Mala vas 56,5230 Bovec,Bovec,Bovec,46.34016,13.55752
116,DENTALNI CENTER TATALOVIČ ZOBOZDRAVSTVO D.O.O.,OE KRŠKO,Cesta krških žrtev 112,8270 Krško,Krško,Krško,45.95115,15.48664
117,"DENTALNI IN ESTETSKI STUDIO VB, ZOBOZDRAVSTVENE IN DRUGE ZDRAVSTVENE DEJAVNOSTI, D.O.O.",OE MARIBOR,Jezdarska ulica 7,2000 Maribor,Maribor,Maribor,46.55122,15.64209
118,DENTALNI STUDIO BARBARA ŠKRLJ GOLOB,IZPOSTAVA DOMŽALE,Ulica Ivana Pengova 20,1230 Domžale,Domžale,Domžale,46.14446,14.59689
119,"DENTALNI STUDIO MB, ZOBOZDRAVSTVENA AMBULANTA IN STORITVE MIHAELA BENKO, DR. DENT. MED., D.O.O.",OE MARIBOR,Gregorčičeva ulica 1,2230 Lenart v Slov. goricah,Lenart v Slov. goricah,Lenart,46.57373,15.83203
120,"DENTAMEDICA, TRGOVINA, ZOBOZDRAVSTVENE IN DRUGE STORITVE, D.O.O.",IZPOSTAVA SLOVENSKA BISTRICA,Ljubljanska cesta 80,2310 Slovenska Bistrica,Slovenska Bistrica,Slovenska Bistrica,46.38414,15.56447
121,"DENTART D.O.O., ZOBOZDRAVSTVENA DEJAVNOST",OE LJUBLJANA,Petkovškovo nabrežje 57,1000 Ljubljana,Ljubljana,Ljubljana,46.05204,14.51312
122,"DENTEC - ZDRAVSTVENE STORITVE, D.O.O. KOPER",OE KOPER,Dolinska cesta 17C,6000 Koper - Capodistria,Koper,Koper,45.52901,13.73041
123,"DENTEX, ZOBOZDRAVSTVENE STORITVE, D.O.O.",OE LJUBLJANA,Cesta v Mestni log 55,1000 Ljubljana,Ljubljana,Ljubljana,46.0362,14.48957
124,"DENTIKO, ZOBOZDRAVSTVENE IN DRUGE ZDRAVSTVENE DEJAVNOSTI, D.O.O.",OE MARIBOR,Radvanjska cesta 134,2000 Maribor,Maribor,Maribor,46.53554,15.62451
125,DENTIM ZOBOZDRAVSTVO D.O.O.,OE NOVO MESTO,Škocjan 67,8275 Škocjan,Škocjan,Škocjan,45.90725,15.28993
126,DENTIN DRUŽBA ZA ZOBOZDRAVSTVENO DEJAVNOST D.O.O.,IZPOSTAVA PTUJ,Na tratah 4,2250 Ptuj,Ptuj,Ptuj,46.41683,15.87719
127,"DENTMED, ZOBOZDRAVSTVENE STORITVE, D.O.O.",OE MARIBOR,Ulica Pariške komune 42,2000 Maribor,Maribor,Maribor,46.54732,15.64697
128,"DEPIK PODJETJE ZA PROIZVODNJO, INTELEKTUALNE STORITVE IN TRGOVINO D.O.O., LJUBLJANA",OE LJUBLJANA,Cesta 24. junija 31,1231 Ljubljana - Črnuče,Ljubljana,Ljubljana,46.09537,14.52704
129,DERMASTJA DIMOV DESISLAVA - ZASEBNA ZOBOZDRAVSTVENA ORDINACIJA,OE LJUBLJANA,Cesta Ljubljanske brigade 23,1000 Ljubljana,Ljubljana,Ljubljana,46.08665,14.47871
130,DEVETAK ANDREJ - ZOBNA AMBULANTA,IZPOSTAVA IZOLA,Kajuhova ulica 1B,6310 Izola - Isola,Izola,Izola,45.53446,13.66402
131,"DIAGNOSTIČNI CENTER ŠENTJUR, ZDRAVSTVENE IN DRUGE STORITVE, TRGOVINA IN INŽENIRING, D.O.O.",IZPOSTAVA ŠENTJUR PRI CELJU,Ulica Dušana Kvedra 27,3230 Šentjur,Šentjur,Šentjur,46.21817,15.39597
132,DIANA OKRETIČ - ZOBOZDRAVSTVENA ORDINACIJA,IZPOSTAVA IZOLA,Ulica oktobrske revolucije 11,6310 Izola - Isola,Izola,Izola,45.53464,13.66078
133,"DIDENT, ZOBOZDRAVSTVENA DEJAVNOST D.O.O.",IZPOSTAVA ŠKOFJA LOKA,Stara cesta 10,4220 Škofja Loka,Škofja Loka,Škofja Loka,46.16618,14.31281
134,DIKIĆ KRSTINIĆ SNEŽANA - ZOBOZDRAVSTVO ODRASLIH,IZPOSTAVA LITIJA,Partizanska pot 8A,1270 Litija,Litija,Litija,46.05389,14.83656
135,DINA ŠKRBINC DR. DENT. MED. - ZOBOZDRAVSTVENA ORDINACIJA,OE LJUBLJANA,Mirje 2,1000 Ljubljana,Ljubljana,Ljubljana,46.04487,14.50172
136,DISPANZER ZA ZDRAVSTVENO VARSTVO OTROK IN MLADOSTNIKOV D.O.O.,IZPOSTAVA ŽALEC,Prešernova ulica 6,3310 Žalec,Žalec,Žalec,46.25093,15.16216
137,"DIVINA MEDICA PODJETJE ZA ZDRAVSTVENO DEJAVNOST, TRGOVINO IN STORITVE D.O.O.",OE MARIBOR,Betnavska cesta 13,2000 Maribor,Maribor,Maribor,46.54967,15.64086
138,DOBNIKAR IRENA - ZASEBNA ZOBNA ORDINACIJA,IZPOSTAVA KAMNIK,Novi trg 26,1241 Kamnik,Kamnik,Kamnik,46.22139,14.61328
139,DOBNIKAR MARTA - ORDINACIJA SPLOŠNE MEDICINE,OE LJUBLJANA,Metelkova ulica 15,1000 Ljubljana,Ljubljana,Ljubljana,46.05705,14.51547
140,"DOBRAVEC D.O.O., STORITVE ZA ZDRAVJE, NARAVO IN KULTURO",IZPOSTAVA RADOVLJICA,Kranjska cesta 27,4240 Radovljica,Radovljica,Radovljica,46.34662,14.17529
141,"DODODENT, ZDRAVSTVENE STORITVE IN TRGOVINA, D.O.O.",OE LJUBLJANA,Jelovškova ulica 7,1230 Domžale,Spodnje Jarše,Domžale,46.15214,14.59054
142,"DOKTOR M, ZDRAVSTVENE STORITVE D.O.O.",IZPOSTAVA ŠMARJE PRI JELŠAH,Spodnje Negonje 16C,3250 Rogaška Slatina,Spodnje Negonje,Rogaška Slatina,46.25074,15.62346
143,DOKTOR MEDICINE HERMINA OSOJNIK,OE RAVNE NA KOROŠKEM,Ob Suhi 5,2390 Ravne na Koroškem,Ravne na Koroškem,Ravne na Koroškem,46.54372,14.96774
144,DOLINAR- KRESE HERMINA - ZASEBNA OTROŠKA IN ŠOLSKA ORDINACIJA,IZPOSTAVA TRŽIČ,Blejska cesta 10,4290 Tržič,Tržič,Tržič,46.36361,14.30654
145,"DOMICIJAN, POTOVALNA IN TURISTIČNA AGENCIJA TER ZOBOZDRAVSTVO, D.O.O.",OE KRANJ,Pante 11,4000 Kranj,Kranj,Kranj,46.23346,14.34361
146,"DR. DANEU, SPECIALISTIČNA AMBULANTA ZA OTROKE IN MLADINO D.O.O.",IZPOSTAVA PIRAN,Cesta solinarjev 1,6320 Portorož - Portorose,Lucija,Piran,45.50452,13.60205
147,"DR. IRINA VOSTRUEVA, SPECIALISTIČNA ZDRAVSTVENA DEJAVNOST, D.O.O.",OE LJUBLJANA,Peričeva ulica 29,1000 Ljubljana,Ljubljana,Ljubljana,46.06668,14.51192
148,"DR. ČOK DENTAL, ZOBOZDRAVSTVO D.O.O.",IZPOSTAVA PIRAN,Obala 114,6320 Portorož - Portorose,Lucija,Piran,45.50349,13.60337
149,DR.STOMA.KOBOLT ZOBNA AMBULANTA D.O.O.,OE RAVNE NA KOROŠKEM,Gačnikova pot 3,2390 Ravne na Koroškem,Ravne na Koroškem,Ravne na Koroškem,46.54417,14.96289
150,DRENIK IRENA - ZASEBNA ZOBNA AMBULANTA,OE CELJE,Nazorjeva ulica 14,3000 Celje,Celje,Celje,46.23485,15.24024
151,"DRUŽINSKA MEDICINA BILIĆ, MEDICINSKE STORITVE, D.O.O.",IZPOSTAVA ŠMARJE PRI JELŠAH,Pilštanj 20,3261 Lesično,Pilštanj,Kozje,46.10006,15.52495
152,"DRUŽINSKA MEDICINA BOŽIČEK, ZDRAVSTVENE STORITVE D.O.O.",IZPOSTAVA ŠMARJE PRI JELŠAH,Bistrica ob Sotli 61,3256 Bistrica ob Sotli,Bistrica ob Sotli,Bistrica ob Sotli,46.05571,15.66327
153,DRUŽINSKA MEDICINA DR. ANJA ČERNE - ZASEBNA ZDRAVNICA,OE LJUBLJANA,Videm 17,1262 Dol pri Ljubljani,Videm,Dol pri Ljubljani,46.0867,14.63413
154,"DRUŽINSKA MEDICINA LONČAR, ZDRAVSTVENE STORITVE, D.O.O.",IZPOSTAVA ŠMARJE PRI JELŠAH,Lastine 17,3250 Rogaška Slatina,Rogaška Slatina,Rogaška Slatina,46.22959,15.64148
155,"DRUŽINSKA MEDICINA ŽAGAR, D.O.O.",OE NOVO MESTO,Jurčičeva ulica 32,8360 Žužemberk,Žužemberk,Žužemberk,45.83205,14.93017
156,"DUA DENT, ZOBOZDRAVSTVENE STORITVE, D.O.O.",IZPOSTAVA TOLMIN,Trg maršala Tita 7,5220 Tolmin,Tolmin,Tolmin,46.183,13.73269
157,"E & A, ZDRAVSTVENE IN DRUGE STORITVE, D.O.O.",IZPOSTAVA MOZIRJE,Ob železnici 26,3313 Polzela,Polzela,Polzela,46.27866,15.07283
158,"ECHINACEA DRUŽBA ZA ZDRAVSTVENE STORITVE, SVETOVANJE IN TRGOVINO, D.O.O.",OE MARIBOR,Malečnik 14,2229 Malečnik,Malečnik,Maribor,46.5541,15.70257
159,"ERNA SAJOVIC ROGLIČ, DR. MED., SPEC. SPL. MED., ZASEBNA AMBULANTA DRUŽINSKE MEDICINE, CESTA ZMAGE 1, 1410 ZAGORJE OB SAVI",IZPOSTAVA ZAGORJE,Cesta zmage 1,1410 Zagorje ob Savi,Zagorje ob Savi,Zagorje ob Savi,46.13384,14.9957
160,ERŠTE BOŽENA - ZASEBNA STOMATOLOŠKA ORDINACIJA,OE MARIBOR,Vezna pot 1,2000 Maribor,Ribniško selo,Maribor,46.57373,15.64297
161,ESKULAP DRUŽBA ZA ZDRAVSTVENE STORITVE D.O.O.,OE LJUBLJANA,Redelonghijeva ulica 12,1000 Ljubljana,Ljubljana,Ljubljana,46.04099,14.48579
162,"ESPOIR STORITVE IN TRGOVINA, D.O.O.",IZPOSTAVA ZAGORJE,Dunajska cesta 59,1000 Ljubljana,Ljubljana,Ljubljana,46.06581,14.50894
163,"EVA PODJETJE ZA ZDRAVSTVENO DEJAVNOST, KRŠKO D.O.O.",OE KRŠKO,Pleterje 24,8272 Zdole,Pleterje,Krško,45.97319,15.53447
164,"FA-DENTAL, ZOBOZDRAVSTVENE STORITVE, D.O.O.",IZPOSTAVA SLOVENSKA BISTRICA,Trg Alfonza Šarha 18,2310 Slovenska Bistrica,Slovenska Bistrica,Slovenska Bistrica,46.39443,15.57367
165,FEBRIS ZDRAVNIŠKE USLUGE IN SVETOVANJE D.O.O.,IZPOSTAVA POSTOJNA,Kolodvorska cesta 24,6257 Pivka,Pivka,Pivka,45.68043,14.1946
166,FELE ŽUJIČ ANICA - ZASEBNA ZOBNA ORDINACIJA,IZPOSTAVA HRASTNIK,Novi dom 11,1430 Hrastnik,Hrastnik,Hrastnik,46.1403,15.08513
167,"FERDENT, ZOBOZDRAVSTVENE STORITVE, D.O.O.",IZPOSTAVA ŠENTJUR PRI CELJU,Cesta Leona Dobrotinška 6A,3230 Šentjur,Šentjur,Šentjur,46.21416,15.39336
168,FIDELITAS ZOBNA AMBULANTA IN STORITVE D.O.O.,IZPOSTAVA POSTOJNA,Cankarjeva ulica 6,6230 Postojna,Postojna,Postojna,45.77464,14.21517
169,FILIPIČ IRENA - DOKTOR STOMATOLOGIJE,OE MARIBOR,Cesta k Dravi 8,2241 Spodnji Duplek,Spodnji Duplek,Duplek,46.50113,15.74875
170,"FITLAB, ZAVOD ZA CELOSTNO ZDRAVSTVENO IN KINEZIOLOŠKO OBRAVNAVO",IZPOSTAVA ŠKOFJA LOKA,Partizanska ulica 8A,1370 Logatec,Logatec,Logatec,45.91832,14.22152
171,"FLAVIANO TONELLO, DR.MED. SPEC.SPL.MED. ZASEBNA SPECIALISTIČNA AMBULANTA SPLOŠNE MEDICINE S KONCESIJO",OE KOPER,Dekani 191,6271 Dekani,Dekani,Koper,45.54809,13.8119
172,FTIČAR TEREZIJA - ZASEBNA AMBULANTA ZA OTROKE IN MLADINO,IZPOSTAVA KAMNIK,Novi trg 26,1241 Kamnik,Kamnik,Kamnik,46.22139,14.61328
173,FUNDUK ANDREJČIČ SONJA - ZOBOZDRAVSTVO,OE LJUBLJANA,Dalmatinova ulica 7,1000 Ljubljana,Ljubljana,Ljubljana,46.05425,14.50563
174,GABRIEL IGOR - SPLOŠNA AMBULANTA PODPEČ,OE LJUBLJANA,Jezero 1,1352 Preserje,Jezero,Brezovica,45.97634,14.41959
175,"GAIA MED, KLINIKA ZA SPLOŠNO MEDICINO IN OSTEOPOROZO, D.O.O.",IZPOSTAVA POSTOJNA,Jamska cesta 23,6230 Postojna,Postojna,Postojna,45.77731,14.20921
176,"GALENIA, AMBULANTNA DIAGNOSTIKA IN ZDRAVLJENJE, D.O.O.",OE LJUBLJANA,Čučkova ulica 17,1000 Ljubljana,Ljubljana,Ljubljana,46.03501,14.45303
177,GARMUŠ SONJA - ZASEBNA SPLOŠNA AMBULANTA,IZPOSTAVA POSTOJNA,Kolodvorska cesta 24,6257 Pivka,Pivka,Pivka,45.68043,14.1946
178,"GDENT SPLOŠNO IN ESTETSKO ZOBOZDRAVSTVO UROŠ FRANC GAŠPERIN, DR.DENT.MED.",IZPOSTAVA DOMŽALE,Prešernova cesta 21B,1230 Domžale,Domžale,Domžale,46.1407,14.58948
179,"GEMINI, SPECIALISTIČNA AMBULANTA ZA GINEKOLOGIJO, PERINATOLOGIJO IN ULTRAZVOČNO DIAGNOSTIKO, SIMONA ČOPI",OE MURSKA SOBOTA,Puconci 251,9201 Puconci,Puconci,Puconci,46.69401,16.17399
180,GERIĆ MARTA - ZOBOZDRAVSTVENA AMBULANTA,IZPOSTAVA DOMŽALE,Vegova ulica 22,1251 Moravče,Moravče,Moravče,46.13743,14.74729
181,GERONTOLOŠKA IN SPLOŠNA AMBULANTA POLONCA VOBOVNIK GROBELNIK,OE MARIBOR,Železnikova ulica 4,2000 Maribor,Maribor,Maribor,46.55037,15.66738
182,"GINEKOLOGIJA DR. FRANIĆ, ZDRAVSTVENE IN IZOBRAŽEVALNE DEJAVNOSTI, D.O.O.",IZPOSTAVA ŠMARJE PRI JELŠAH,Celjska cesta 10,3250 Rogaška Slatina,Rogaška Slatina,Rogaška Slatina,46.23916,15.6342
183,"GINEKOLOGIJA MEGLIČ, SPECIALISTIČNA DEJAVNOST NA PODROČJU GINEKOLOGIJE, PERINATOLOGIJE, ULTRAZVOČNE DIAGNOSTIKE, OPERATIVNE IN ESTETSKE GINEKOLOGIJE, D.O.O.",OE LJUBLJANA,Cesta 25,8213 Veliki Gaber,Cesta,Trebnje,45.94446,14.89143
184,GINEKOLOGIJA STRAŽAR D.O.O.,IZPOSTAVA ŠKOFJA LOKA,Hafnerjevo naselje 24,4220 Škofja Loka,Škofja Loka,Škofja Loka,46.16977,14.33432
185,"GINEKOLOŠKA ORDINACIJA, DR. BOJAN GRULOVIĆ DR. MED., SPEC. GIN. IN POROD.",IZPOSTAVA ČRNOMELJ,Delavska pot 4,8340 Črnomelj,Črnomelj,Črnomelj,45.57549,15.18753
186,"GINEKOMED FORUM, ZDRAVSTVENE STORITVE IN SVETOVANJE, D.O.O.",OE MARIBOR,Cankarjeva ulica 6D,2000 Maribor,Maribor,Maribor,46.56117,15.65419
187,GLINTIĆ NEBOJŠA - ZOBNA AMBULANTA,OE KOPER,Ulica Pri velikih vratih 18,6000 Koper - Capodistria,Koper,Koper,45.54563,13.72888
188,"GNAMUŠ DENTAL, SPLOŠNO ZOBOZDRAVSTVO, D.O.O.",OE RAVNE NA KOROŠKEM,Partizanska cesta 4,2390 Ravne na Koroškem,Ravne na Koroškem,Ravne na Koroškem,46.54452,14.9653
189,"GOR.COM ZOBOZDRAVSTVO, PROIZVODNJA, POSREDNIŠTVO IN STORITVE D.O.O.",OE CELJE,Gorica pri Šmartnem 13,3201 Šmartno v Rožni dolini,Gorica pri Šmartnem,Celje,46.27219,15.23887
190,GORENC MOJCA - ZASEBNA ZOBNA AMBULANTA,IZPOSTAVA ZAGORJE,Cesta zmage 1,1410 Zagorje ob Savi,Zagorje ob Savi,Zagorje ob Savi,46.13384,14.9957
191,GOVC-ČETINA IRENA - ZASEBNA GINEKOLOŠKA AMBULANTA ZA ŽENE,IZPOSTAVA ŽALEC,Rimska cesta 70,3311 Šempeter v Savinjski dolini,Šempeter v Savinj. dolini,Žalec,46.25651,15.12077
192,"GPD GINEKOLOGIJA IN PORODNIŠTVO, POSREDNIŠTVO IN STORITVE, D.O.O.",IZPOSTAVA VELENJE,Sončni grič 7,3320 Velenje,Velenje,Velenje,46.35393,15.12586
193,GRABAR - KRAJNC MILENA - ZOBNA AMBULANTA,OE MURSKA SOBOTA,Cankarjeva ulica 113,9000 Murska Sobota,Murska Sobota,Murska Sobota,46.65595,16.15589
194,GRAND-RABIČ SIMONA - ZOBNA AMBULANTA,OE MARIBOR,Ribniška ulica 5,2000 Maribor,Maribor,Maribor,46.56844,15.6487
195,GRANDOŠEK KSENIJA - ZASEBNA ZOBOZDRAVNICA,OE MARIBOR,Slovenski trg 4,2352 Selnica ob Dravi,Selnica ob Dravi,Selnica ob Dravi,46.5515,15.49303
196,GROBOLJŠEK ROMAN - ZASEBNA ZOBNA ORDINACIJA,IZPOSTAVA SEVNICA,Trg svobode 9,8290 Sevnica,Sevnica,Sevnica,46.00977,15.30294
197,GROSEK PŠENIČNIK MARJANA - ORDINACIJA SPLOŠNE MEDICINE,OE LJUBLJANA,Dunajska cesta 22,1000 Ljubljana,Ljubljana,Ljubljana,46.06212,14.5093
198,"GROZNIK MATEVŽ, DR. DENT. MED., ZASEBNA ZOBNA ORDINACIJA, ZASEBNI ZOBOZDRAVNIK",OE LJUBLJANA,Savska cesta 10,1000 Ljubljana,Ljubljana,Ljubljana,46.06433,14.52589
199,GRUJIĆ SPOMENKA - ZASEBNA ZOBOZDRAVSTVENA AMBULANTA OTROK IN MLADINE,IZPOSTAVA POSTOJNA,Prečna ulica 2,6230 Postojna,Postojna,Postojna,45.77205,14.21042
200,GRUJIČIĆ DRAGAN - AMBULANTA SPLOŠNE MEDICINE,OE LJUBLJANA,Kopitarjev trg 1,1217 Vodice,Vodice,Vodice,46.18729,14.49116
201,GRČAR MATEJA - ZOBOZDRAVSTVO,IZPOSTAVA RADOVLJICA,Kopališka cesta 7,4240 Radovljica,Radovljica,Radovljica,46.34702,14.17201
202,GUNA JERNEJ - ZASEBNA ZOBNA ORDINACIJA,IZPOSTAVA HRASTNIK,Novi dom 11,1430 Hrastnik,Hrastnik,Hrastnik,46.1403,15.08513
203,HABJANIČ-MERC BRIGITA - ZASEBNA ORDINACIJA ZA PREDŠOLSKE OTROKE IN DRUŽINSKO MEDICINO,IZPOSTAVA PTUJ,Rogozniška cesta 32,2250 Ptuj,Ptuj,Ptuj,46.4261,15.88611
204,HEPI-DENT ZOBOZDRAVSTVENA ORDINACIJA D.O.O.,IZPOSTAVA CERKNICA,Cesta Notranjskega odreda 36,1386 Stari trg pri Ložu,Stari trg pri Ložu,Loška dolina,45.71325,14.47221
205,HOLIMED DRUŽBA ZA ZDRAVSTVENE STORITVE IN SVETOVANJE D.O.O.,OE MARIBOR,Ulica kneza Koclja 11,2000 Maribor,Maribor,Maribor,46.55769,15.65032
206,HOSTNIK BOŠTJAN - SPLOŠNA AMBULANTA,OE LJUBLJANA,Tbilisijska ulica 59,1000 Ljubljana,Ljubljana,Ljubljana,46.03762,14.47887
207,HRVATIN-MAHNIČ DANICA - SPECIALISTIČNA AMBULANTA ZA GINEKOLOGIJO IN PORODNIŠTVO,IZPOSTAVA ILIRSKA BISTRICA,Prečna ulica 2,6230 Postojna,Postojna,Postojna,45.77205,14.21042
208,HUMANIKDENT DENTALNA MEDICINA D.O.O.,OE RAVNE NA KOROŠKEM,Smrečnikovo 20,2392 Mežica,Mežica,Mežica,46.52036,14.84696
209,"IDENS, ZOBOZDRAVSTVENE STORITVE D.O.O.",IZPOSTAVA RADOVLJICA,Seliška cesta 3,4260 Bled,Bled,Bled,46.37275,14.1096
210,ILIJAŠ KOŽELJ MARIJA - GINEKOLOŠKA AMBULANTA,IZPOSTAVA VRHNIKA,Robova cesta 6,1360 Vrhnika,Vrhnika,Vrhnika,45.96751,14.29722
211,IN STORITVE D.O.O.,OE LJUBLJANA,Šišenska cesta 44,1000 Ljubljana,Ljubljana,Ljubljana,46.07131,14.48026
212,JAHIĆ ZAIM - ZASEBNA ZOBNA ORDINACIJA,IZPOSTAVA ŠMARJE PRI JELŠAH,Celjska cesta 7,3250 Rogaška Slatina,Rogaška Slatina,Rogaška Slatina,46.23915,15.63321
213,JAKLJEVIĆ VLATKO - ZOBOZDRAVSTVENA AMBULANTA ZA OTROKE IN MLADINO,IZPOSTAVA ILIRSKA BISTRICA,Gregorčičeva cesta 8,6250 Ilirska Bistrica,Ilirska Bistrica,Ilirska Bistrica,45.56848,14.24324
214,JAMAL TAFI MOHAMED - ZASEBNA ZOBOZDRAVSTVENA ORDINACIJA,IZPOSTAVA SLOVENSKA BISTRICA,Bistriška cesta 97,2319 Poljčane,Poljčane,Poljčane,46.30821,15.57729
215,JANADENTAL ZOBNA ORDINACIJA D.O.O.,OE RAVNE NA KOROŠKEM,Partizanska cesta 17,2392 Mežica,Mežica,Mežica,46.51905,14.85387
216,JANEŽIČ IVAN - ZASEBNA ZOBNA AMBULANTA,IZPOSTAVA VELENJE,Efenkova cesta 61,3320 Velenje,Velenje,Velenje,46.3624,15.12419
217,JANČAR BLAŽI - ZOBOZDRAVSTVENA ORDINACIJA,OE LJUBLJANA,Peričeva ulica 25,1000 Ljubljana,Ljubljana,Ljubljana,46.06616,14.51125
218,"JASMINA VENGUST, DR.DENT.MED. - ZASEBNA ZOBOZDRAVSTVENA AMBULANTA",IZPOSTAVA ŽALEC,Glavni trg 15,3313 Polzela,Polzela,Polzela,46.2795,15.07495
219,JELINČIČ VANJA - SPECIALIST GINEKOLOGIJE,OE NOVA GORICA,Rejčeva ulica 4,5000 Nova Gorica,Nova Gorica,Nova Gorica,45.95794,13.64553
220,JEREB MATJAŽ - AMBULANTA SPLOŠNE MEDICINE,OE LJUBLJANA,Metelkova ulica 15,1000 Ljubljana,Ljubljana,Ljubljana,46.05705,14.51547
221,JEROMEL TANJA - ZOBOZDRAVSTVO,IZPOSTAVA SLOVENJ GRADEC,Kopališka ulica 29,2380 Slovenj Gradec,Slovenj Gradec,Slovenj Gradec,46.50613,15.08509
222,JEZERC KRIŽANIČ TATJANA - ORDINACIJA SPLOŠNE MEDICINE,OE LJUBLJANA,Kočevska cesta 25,1291 Škofljica,Škofljica,Škofljica,45.98069,14.57676
223,JEŠE MATEJA - ZOBOZDRAVSTVO,IZPOSTAVA RADOVLJICA,Begunjska cesta 7,4248 Lesce,Lesce,Radovljica,46.36184,14.1617
224,"JO-DENT, ZASEBNA ZOBNA AMBULANTA, JULA JOŠT, DR. DENT. MEDICINE",IZPOSTAVA ŠKOFJA LOKA,Jobstova cesta 22,4226 Žiri,Žiri,Žiri,46.04573,14.10868
225,JURIČEV MARIN - ZASEBNA ZOBNA AMBULANTA,IZPOSTAVA POSTOJNA,Kolodvorska cesta 24,6257 Pivka,Pivka,Pivka,45.68043,14.1946
226,"JUTA SIMONA PISK, DR. DENT. MED., ZASEBNA ŠOLSKA ZOBNA AMBULANTA",IZPOSTAVA ŠKOFJA LOKA,Trata 7,4224 Gorenja vas,Gorenja vas,Gorenja vas-Poljane,46.10233,14.14218
227,"JUVENTINA CLINIC, SPECIALISTIČNA ZUNAJBOLNIŠNIČNA ZDRAVSTVENA DEJAVNOST D.O.O.",OE LJUBLJANA,Vilharjev podhod 7,1000 Ljubljana,Ljubljana,Ljubljana,46.06035,14.51578
228,"JUVIS, ZDRAVSTVENE STORITVE, D.O.O.",IZPOSTAVA LENDAVA,Dobrovnik 12A,9223 Dobrovnik - Dobronak,Dobrovnik,Dobrovnik,46.65094,16.3519
229,"JVP DENTAL, ZOBOZDRAVSTVENE STORITVE, D.O.O.",OE MARIBOR,Pohorska ulica 21B,2000 Maribor,Maribor,Maribor,46.53831,15.60509
230,"KALAMED D.O.O., AMBULANTA DRUŽINSKE MEDICINE",IZPOSTAVA VELENJE,Prešernova cesta 9A,3320 Velenje,Velenje,Velenje,46.35935,15.10963
231,"KAMA-DENT D.O.O., ZOBOZDRAVSTVENA DEJAVNOST, LJUBLJANA",IZPOSTAVA DOMŽALE,Filipičeva ulica 1,1000 Ljubljana,Ljubljana,Ljubljana,46.04113,14.49404
232,KANSKY GABERŠEK MARINA - ZOBOZDRAVSTVENA ORDINACIJA,OE LJUBLJANA,Dunajska cesta 22,1000 Ljubljana,Ljubljana,Ljubljana,46.06212,14.5093
233,"KARDIOLOGIJA MARINŠEK & GINEKOLOGIJA PETERNELJ, ZDRAVSTVENE STORITVE, SVETOVANJE IN IZOBRAŽEVANJE D.O.O.",OE CELJE,Dobriša vas 81,3301 Petrovče,Dobriša vas,Žalec,46.24659,15.1821
234,KASTELEC STANOVNIK LADKA - ZASEBNA ZOBOZDRAVSTVENA ORDINACIJA,IZPOSTAVA VRHNIKA,Cesta 6. maja 11,1360 Vrhnika,Vrhnika,Vrhnika,45.96278,14.29358
235,"KATARINA GALIČ JERMAN, DR. MED., AMBULANTA ZA GINEKOLOGIJO IN PORODNIŠTVO",OE LJUBLJANA,Metelkova ulica 15,1000 Ljubljana,Ljubljana,Ljubljana,46.05705,14.51547
236,KATARINA PLANINEC - AMBULANTA DRUŽINSKE MEDICINE,OE LJUBLJANA,Nova pot 5,1351 Brezovica pri Ljubljani,Vnanje Gorice,Brezovica,46.0097,14.41547
237,KATAVIĆ MIRNA - DOKTOR STOMATOLOGIJE,IZPOSTAVA SLOVENJ GRADEC,Partizanska pot 16,2380 Slovenj Gradec,Slovenj Gradec,Slovenj Gradec,46.50693,15.08202
238,KAURI-S ZOBOZDRAVSTVENE IN ZDRAVSTVENE STORITVE D.O.O.,IZPOSTAVA AJDOVŠČINA,Vipavska cesta 4A,5270 Ajdovščina,Ajdovščina,Ajdovščina,45.88449,13.91053
239,KEKEC LILJANA - ZASEBNA ZOBNA AMBULANTA ZA ODRASLE,IZPOSTAVA PTUJ,Na tratah 4,2250 Ptuj,Ptuj,Ptuj,46.41683,15.87719
240,"KG-DENT, ZOBOZDRAVSTVENE STORITVE D.O.O.",OE LJUBLJANA,Laporje 30,1311 Turjak,Laporje,Velike Lašče,45.87088,14.61679
241,KLANČIČ LUCIJA - ZOBNA AMBULANTA,OE NOVA GORICA,Cesta Prekomorskih brigad 3,5290 Šempeter pri Gorici,Šempeter pri Gorici,Šempeter-Vrtojba,45.93034,13.63913
242,"KLINIKA DOKTOR 24, ZASEBNA ZDRAVSTVENA ORDINACIJA, D.O.O.",OE LJUBLJANA,Savska cesta 3,1000 Ljubljana,Ljubljana,Ljubljana,46.0644,14.52522
243,KLINKON ZDRAVSTVENI ZAVOD,IZPOSTAVA PTUJ,Potrčeva cesta 49,2250 Ptuj,Ptuj,Ptuj,46.42764,15.88104
244,KMET JANEZ - ORDINACIJA SPLOŠNE MEDICINE,OE LJUBLJANA,Tbilisijska ulica 89,1000 Ljubljana,Ljubljana,Ljubljana,46.03612,14.47919
245,KOMATAR MAJA - ZOBOZDRAVSTVENA ORDINACIJA,IZPOSTAVA DOMŽALE,Mestni trg 2,1230 Domžale,Domžale,Domžale,46.13975,14.59617
246,KOPRIVC - BUJAN MOJCA - ZOBOZDRAVSTVENA DEJAVNOST,IZPOSTAVA VELENJE,Trg Jožeta Lampreta 1,3325 Šoštanj,Šoštanj,Šoštanj,46.37648,15.0485
247,"KOPRIVEC, DRUŽINSKA MEDICINA, D.O.O.",IZPOSTAVA ŠKOFJA LOKA,Podreber 12C,1355 Polhov Gradec,Podreber,Dobrova-Polhov Gradec,46.06336,14.32001
248,KOVAČ MOHAR GABRIJELA - AMBULANTA ZA SPLOŠNO MEDICINO IN AKUPUNKTURO,IZPOSTAVA DOMŽALE,Zoranina ulica 3,1234 Mengeš,Mengeš,Mengeš,46.16207,14.571
249,KOVAČEVIČ TESSENYI IRENA - ZOBNA ORDINACIJA,OE LJUBLJANA,Parmova ulica 51,1000 Ljubljana,Ljubljana,Ljubljana,46.06408,14.5027
250,KOVAČIČ MAJA DDM ZASEBNA ZOBNA ORDINACIJA,OE LJUBLJANA,Kogovškova ulica 1,1000 Ljubljana,Ljubljana,Ljubljana,46.07318,14.46775
251,KOŠAK MARINA - ZOBOZDRAVSTVENA ORDINACIJA,OE LJUBLJANA,Beethovnova ulica 6,1000 Ljubljana,Ljubljana,Ljubljana,46.05163,14.502
252,KRALJ ROMAN - ZASEBNA AMBULANTA SPLOŠNE MEDICINE,IZPOSTAVA ZAGORJE,Cesta zmage 1,1410 Zagorje ob Savi,Zagorje ob Savi,Zagorje ob Savi,46.13384,14.9957
253,KRALJ ZLATKA - ZASEBNA SPLOŠNA ORDINACIJA,OE LJUBLJANA,Zaloška cesta 149,1000 Ljubljana,Ljubljana,Ljubljana,46.05654,14.55551
254,KRANJEC LEOPOLDINA - ZOBNA ORDINACIJA,OE LJUBLJANA,Kopitarjev trg 1,1217 Vodice,Vodice,Vodice,46.18729,14.49116
255,KREZOVIĆ-LOVKO LJILJANA - ZASEBNA ZOBOZDRAVSTVENA ORDINACIJA,IZPOSTAVA POSTOJNA,Gregorčičev drevored 11,6230 Postojna,Postojna,Postojna,45.77434,14.21615
256,KRIŽAJ STORITVE D.O.O.,IZPOSTAVA GROSUPLJE,Slomškova ulica 17,1000 Ljubljana,Ljubljana,Ljubljana,46.05559,14.5127
257,KRIŽAJ ZILJANA - ORDINACIJA GINEKOLOGIJE IN PORODNIŠTVA,OE LJUBLJANA,Cesta v Mestni log 55,1000 Ljubljana,Ljubljana,Ljubljana,46.0362,14.48957
258,KRSTINIĆ GORAN - ZOBOZDRAVSTVO ODRASLIH,IZPOSTAVA LITIJA,Partizanska pot 8A,1270 Litija,Litija,Litija,46.05389,14.83656
259,"KSP DENT, ZOBOZDRAVSTVENE STORITVE, D.O.O.",IZPOSTAVA LENART,Maistrova ulica 22,2230 Lenart v Slov. goricah,Lenart v Slov. goricah,Lenart,46.57734,15.82896
260,KULAŠEVIĆ SINIŠA - ZOBOZDRAVSTVENA ORDINACIJA,IZPOSTAVA TREBNJE,Šentrupert 124,8232 Šentrupert,Šentrupert,Šentrupert,45.9768,15.0885
261,KUSANOVIĆ JADRANKO - ZOBNI ATELJE - ZASEBNA ZOBOZDRAVSTVENA AMBULANTA ZA ODRASLE,IZPOSTAVA PTUJ,Volkmerjeva cesta 63,2250 Ptuj,Ptuj,Ptuj,46.43203,15.86728
262,KUZMANOVIĆ ČEDOMIR - ZASEBNI ZOBOZDRAVNIK,IZPOSTAVA TREBNJE,Gubčeva cesta 9A,8210 Trebnje,Trebnje,Trebnje,45.90828,15.00976
263,KUŠAR PRIMOŽ - AMBULANTA DRUŽINSKE MEDICINE POLHOV GRADEC,OE LJUBLJANA,Polhov Gradec 13,1355 Polhov Gradec,Polhov Gradec,Dobrova-Polhov Gradec,46.06521,14.31457
264,LAKOVIČ-BOSSMAN KARMEN - ZASEBNA SPECIALISTIČNA AMBULANTA SPLOŠNE MEDICINE,IZPOSTAVA PIRAN,Seča 197A,6320 Portorož - Portorose,Seča,Piran,45.50205,13.60181
265,"LANTANA - ZDRAVSTVENE STORITVE, D.O.O.",IZPOSTAVA LITIJA,Zasavska cesta 3,1270 Litija,Litija,Litija,46.05899,14.83352
266,"LARA MED, PODJETJE ZA ZDRAVSTVENE STORITVE, D.O.O.",IZPOSTAVA SLOVENSKE KONJICE,Dobroveljska cesta 1,3214 Zreče,Zreče,Zreče,46.36625,15.39544
267,LAVRENČIČ DAROSLAV DARKO - ZASEBNA SPLOŠNA AMBULANTA,IZPOSTAVA VRHNIKA,Cesta 6. maja 11,1360 Vrhnika,Vrhnika,Vrhnika,45.96278,14.29358
268,LC DENT ZOBOZDRAVSTVO D.O.O.,IZPOSTAVA RADOVLJICA,Dolina 12,4248 Lesce,Lesce,Radovljica,46.35462,14.15573
269,"LE-AN DENT, ZASEBNA ZOBNA ORDINACIJA, D.O.O.",IZPOSTAVA TRŽIČ,Blejska cesta 10,4290 Tržič,Tržič,Tržič,46.36361,14.30654
270,"LEGAT DENT, ZOBOZDRAVSTVENE STORITVE D.O.O.",IZPOSTAVA VRHNIKA,Cesta na polje 2,1358 Log pri Brezovici,Log pri Brezovici,Log-Dragomer,46.00732,14.35305
271,"LEONARDO, RAZVOJ, RAZISKAVE, TRGOVINA IN STORITVE, D.O.O., KRANJ",OE LJUBLJANA,Storžiška ulica 4,4000 Kranj,Kranj,Kranj,46.21864,14.37676
272,"LEP NASMEH, ZOBOZDRAVSTVENO PODJETJE D.O.O.",IZPOSTAVA PTUJ,Potrčeva cesta 33,2250 Ptuj,Ptuj,Ptuj,46.4266,15.87898
273,"LESKOVEC, STORITVE, D.O.O.",IZPOSTAVA KAMNIK,Plešičeva ulica 15,1000 Ljubljana,Ljubljana,Ljubljana,46.08009,14.46711
274,LEVAK - HOZJAN SONJA - ZASEBNA GINEKOLOŠKA AMBULANTA,IZPOSTAVA VELENJE,Vodnikova cesta 1,3320 Velenje,Velenje,Velenje,46.36151,15.11636
275,"LILIMED, ZUNAJBOLNIŠNIČNA ZDRAVSTVENA DEJAVNOST IN TRGOVINA, D.O.O.",IZPOSTAVA PTUJ,Breg 6A,2322 Majšperk,Breg,Majšperk,46.33947,15.73623
276,LOBNIK - GOMILŠEK BOJANA - DOKTOR STOMATOLOGIJE,OE MARIBOR,Nova ulica 5,2327 Rače,Rače,Rače-Fram,46.45384,15.67405
277,LOGAR-DERNIČ TJAŠA - ZOBNA AMBULANTA,OE KOPER,Staničev trg 1,6000 Koper - Capodistria,Koper,Koper,45.54603,13.72777
278,LOLIĆ DAMIR - AMBULANTA SPLOŠNE MEDICINE,IZPOSTAVA KOČEVJE,Roška cesta 18,1330 Kočevje,Kočevje,Kočevje,45.63938,14.86562
279,LOLIČ VERICA - ORDINACIJA SPLOŠNE MEDICINE,IZPOSTAVA KOČEVJE,Roška cesta 22,1330 Kočevje,Kočevje,Kočevje,45.64005,14.86716
280,LOVREC ANDREJ - DOKTOR MEDICINE,OE MARIBOR,Pupinova ulica 2,2000 Maribor,Maribor,Maribor,46.55272,15.64503
281,LOVŠIN URŠKA - ZOBOZDRAVSTVENA ORDINACIJA,IZPOSTAVA LITIJA,Partizanska pot 8A,1270 Litija,Litija,Litija,46.05389,14.83656
282,LOŽAR OLGA - SPLOŠNA AMBULANTA ZGORNJE JARŠE,IZPOSTAVA DOMŽALE,Kamniška cesta 24,1235 Radomlje,Preserje pri Radomljah,Domžale,46.168,14.5949
283,LUKAČ MIRKO - ZOBNA AMBULANTA,IZPOSTAVA LENDAVA,Mlinska ulica 6E,9220 Lendava - Lendva,Lendava,Lendava,46.56214,16.45301
284,LUKIČ MERELA ANA - ZOBOZDRAVSTVENA AMBULANTA,IZPOSTAVA DOMŽALE,Pelechova cesta 18,1235 Radomlje,Preserje pri Radomljah,Domžale,46.16801,14.59744
285,LUPŠE - ŠTAMPAR JASNA - DEJAVNOST SPLOŠNE MEDICINE,OE MARIBOR,Partizanska cesta 59,2000 Maribor,Maribor,Maribor,46.56358,15.6579
286,LUŽNIK PETER - DOKTOR STOMATOLOGIJE,IZPOSTAVA SLOVENJ GRADEC,Prešernova ulica 3C,2380 Slovenj Gradec,Slovenj Gradec,Slovenj Gradec,46.51484,15.0839
287,"M-MEDIKO, ZOBOZDRAVSTVENA IN ZDRAVSTVENA DEJAVNOST, D.O.O.",IZPOSTAVA TRBOVLJE,Cesta 9. avgusta 8B,1410 Zagorje ob Savi,Zagorje ob Savi,Zagorje ob Savi,46.13429,14.99599
288,"MADENS, ZOBOZDRAVSTVO IN DRUGE STORITVE, D.O.O.",OE MARIBOR,Železnikova ulica 4,2000 Maribor,Maribor,Maribor,46.55037,15.66738
289,MAEDENTIS NEVENA JOSIPOVIĆ DR.DENT.MED.,OE MARIBOR,Dvořakova ulica 10,2000 Maribor,Maribor,Maribor,46.55362,15.64424
290,"MAG. VOJIN RAŠIĆ, DDM ZASEBNA ZOBNA ORDINACIJA",IZPOSTAVA ZAGORJE,Cesta zmage 1,1410 Zagorje ob Savi,Zagorje ob Savi,Zagorje ob Savi,46.13384,14.9957
291,MAJC MARTINA - ZOBOZDRAVSTVENA ORDINACIJA,OE KRANJ,Gosposvetska ulica 10A,4000 Kranj,Kranj,Kranj,46.24862,14.35322
292,"MAJOMA, ZOBOZDRAVSTVENE STORITVE, D.O.O.",OE MARIBOR,Betettova ulica 11,2000 Maribor,Maribor,Maribor,46.54059,15.63068
293,MALINGER MARTIN LUKA DR.STOM. - STOMATOLOŠKA ORDINACIJA,OE CELJE,Lava 7,3000 Celje,Celje,Celje,46.24025,15.25318
294,"MAMELON, ZOBOZDRAVSTVENA OSKRBA IN STORITVE D.O.O.",OE MURSKA SOBOTA,Plese 2,9000 Murska Sobota,Murska Sobota,Murska Sobota,46.65833,16.1761
295,"MARDENS ZDRAVSTVO, TRGOVINA, GOSTINSTVO, STORITVE D.O.O.",IZPOSTAVA LENART,Ilaunigova ulica 15,2230 Lenart v Slov. goricah,Lenart v Slov. goricah,Lenart,46.57697,15.82809
296,"MARGITA ZUPANC PORENTA, DR. DENT. MED. ZASEBNA ZOBNA ORDINACIJA",IZPOSTAVA JESENICE,Selo pri Žirovnici 8A,4274 Žirovnica,Selo pri Žirovnici,Žirovnica,46.40034,14.14153
297,"MARIDENT, STOMATOLOŠKA ORDINACIJA IN ZOBNI LABORATORIJ D.O.O.",IZPOSTAVA PIRAN,Istrska cesta 89B,6000 Koper - Capodistria,Koper,Koper,45.54636,13.70418
298,MARIJA UJEVIĆ ŠALKOVIĆ - ZOBOZDRAVSTVENA DEJAVNOST,IZPOSTAVA ŠKOFJA LOKA,Racovnik 29,4228 Železniki,Železniki,Železniki,46.22219,14.15786
299,MARKELJ MIHA - ZOBNA ORDINACIJA VIDEM,IZPOSTAVA GROSUPLJE,Videm 37A,1312 Videm - Dobrepolje,Videm,Dobrepolje,45.84819,14.69546
300,MARČUN MATEJA - ZASEBNA ZOBOZDRAVSTVENA ORDINACIJA,OE KRANJ,Pipanova cesta 43,4208 Šenčur,Šenčur,Šenčur,46.2486,14.41889
301,MATANIČ JASENKA - ZOBOZDRAVNIK,IZPOSTAVA IZOLA,Prešernova cesta 53,6310 Izola - Isola,Izola,Izola,45.53019,13.65195
302,MATEK IVAN - ZASEBNA ZOBNA AMBULANTA,IZPOSTAVA ŽALEC,Petrovče 95,3301 Petrovče,Petrovče,Žalec,46.24465,15.18767
303,"MATRIKS V&R, ZOBOZDRAVSTVENE STORITVE, D.O.O.",IZPOSTAVA TOLMIN,Trg maršala Tita 7,5220 Tolmin,Tolmin,Tolmin,46.183,13.73269
304,MC KAC DISPANZER ZA OTROKE IN MLADOSTNIKE D.O.O.,IZPOSTAVA SLOVENJ GRADEC,Partizanska pot 16,2380 Slovenj Gradec,Slovenj Gradec,Slovenj Gradec,46.50693,15.08202
305,"MD MEDICINA, ZDRAVSTVENE IN DRUGE STORITVE, D.O.O.",OE LJUBLJANA,Bohoričeva ulica 5,1000 Ljubljana,Ljubljana,Ljubljana,46.05543,14.52005
306,"MDENT, ZOBOZDRAVSTVENE STORITVE, MIHAJLO FRANGOV S.P.",IZPOSTAVA SLOVENJ GRADEC,Trg svobode 18A,2390 Ravne na Koroškem,Ravne na Koroškem,Ravne na Koroškem,46.54428,14.96559
307,"MEDENS, ZOBOZDRAVSTVENA DEJAVNOST IN DRUGE ZDRAVSTVENE DEJAVNOSTI D.O.O.",IZPOSTAVA MOZIRJE,Savinjska cesta 6,3330 Mozirje,Mozirje,Mozirje,46.33885,14.95935
308,"MEDI CENTER ZDRAVSTVENI CENTER, D.O.O.",OE LJUBLJANA,Topniška ulica 4,1000 Ljubljana,Ljubljana,Ljubljana,46.0674,14.51179
309,"MEDIARH, PODJETJE ZA ZDRAVSTVENE IN PROJEKTANTSKE STORITVE D.O.O.",OE RAVNE NA KOROŠKEM,Ob Suhodolnici 31,2380 Slovenj Gradec,Slovenj Gradec,Slovenj Gradec,46.50331,15.0727
310,"MEDICA PRIMA, ZDRAVSTVENE STORITVE, SVETOVANJE, TRGOVINA, D.O.O.",OE MARIBOR,Na trati 2,2000 Maribor,Maribor,Maribor,46.53586,15.68739
311,"MEDICARD SPECIALISTIČNA ORDINACIJA ZA VARSTVO OTROK, ŠOLSKE MLADINE IN ODRASLIH D.O.O.",OE RAVNE NA KOROŠKEM,Trg 4. julija 4,2370 Dravograd,Dravograd,Dravograd,46.58962,15.0247
312,"MEDICINA ILJAŽ,STORITVE, D.O.O.",IZPOSTAVA BREŽICE,Bizeljska cesta 104,8259 Bizeljsko,Bizeljsko,Brežice,46.02057,15.69163
313,"MEDICINA MLINAR, SPLOŠNA MEDICINA, D.O.O.",OE NOVA GORICA,Srebrničeva ulica 31,5210 Deskle,Deskle,Kanal,46.05307,13.61428
314,"MEDICINA STOPAR ALOJZ DR.MED. S.P., ZASEBNA AMBULANTA SPLOŠNE MEDICINE",IZPOSTAVA SEVNICA,Krmelj 53,8296 Krmelj,Krmelj,Sevnica,45.98651,15.18517
315,MEDICINA VIVAMED IZUDIN KANLIČ DR MED,IZPOSTAVA PTUJ,Osojnikova cesta 9,2250 Ptuj,Ptuj,Ptuj,46.42061,15.87558
316,"MEDICINSKE STORITVE A MEDICA, D.O.O.",OE MURSKA SOBOTA,Trstenjakova ulica 34,9000 Murska Sobota,Murska Sobota,Murska Sobota,46.65416,16.16627
317,MEDICINSKI CENTER GORJANC,OE RAVNE NA KOROŠKEM,Trg 32,2391 Prevalje,Prevalje,Prevalje,46.54497,14.91429
318,"MEDICINSKI CENTER KRKA, D.O.O.",OE NOVO MESTO,Šmarješka cesta 4,8000 Novo mesto,Novo mesto,Novo mesto,45.81476,15.178
319,"MEDICINSKI CENTER MIRJAM VIDE KATIČ, DR. MED., SPEC. SPL. MED.",OE NOVO MESTO,Škocjan 67,8275 Škocjan,Škocjan,Škocjan,45.90725,15.28993
320,"MEDICINSKI CENTER ŽELJKO HALAPIJA AMBULANTA MEDICINE DELA, PROMETA IN ŠPORTA IN SPLOŠNA AMBULANTA D.O.O. SEVNICA",IZPOSTAVA SEVNICA,Trg svobode 14,8290 Sevnica,Sevnica,Sevnica,46.0106,15.30248
321,"MEDICO - DENTES, ZOBOZDRAVSTVENA DEJAVNOST, D.O.O.",OE LJUBLJANA,Vodovodna cesta 109,1000 Ljubljana,Ljubljana,Ljubljana,46.07871,14.50194
322,"MEDICODENT, ZOBOZDRAVSTVENE STORITVE D.O.O.",OE RAVNE NA KOROŠKEM,Mariborska cesta 38,2370 Dravograd,Dravograd,Dravograd,46.59024,15.02867
323,MEDICUS PARTNER ZDRAVSTVENE STORITVE D.O.O.,IZPOSTAVA TOLMIN,Dijaška ulica 12,5220 Tolmin,Tolmin,Tolmin,46.18062,13.73435
324,"MEDIKMIKO, STORITVE IN SVETOVANJE D.O.O.",OE CELJE,Zadobrova 49B,3211 Škofja vas,Zadobrova,Celje,46.25981,15.29581
325,"MEDIKUS, ZDRAVSTVENA DEJAVNOST, D.O.O.",OE MARIBOR,Cesta k Dravi 8,2241 Spodnji Duplek,Spodnji Duplek,Duplek,46.50113,15.74875
326,"MEDIM, AMBULANTA DRUŽINSKE MEDICINE IN OSTALE STORITVE, D.O.O.",IZPOSTAVA ŠKOFJA LOKA,Reteče 154,4220 Škofja Loka,Reteče,Škofja Loka,46.15978,14.36722
327,"MEDIZOB, ZOBOZDRAVSTVENA DEJAVNOST, D.O.O.",OE MARIBOR,Stadionska ulica 4,2342 Ruše,Ruše,Ruše,46.54277,15.50623
328,MEHLE NENAD - DOKTOR STOMATOLOGIJE,IZPOSTAVA ŠMARJE PRI JELŠAH,Kidričeva ulica 53,3250 Rogaška Slatina,Rogaška Slatina,Rogaška Slatina,46.22564,15.64458
329,MEL DENT ZASEBNE ZOBOZDRAVSTVENE IN DRUGE STORITVE D.O.O.,OE KRANJ,Ulica Juleta Gabrovška 19,4000 Kranj,Kranj,Kranj,46.23974,14.36458
330,MELADENS STORITVE IN SVETOVANJE D.O.O.,IZPOSTAVA ŽALEC,Vransko 130D,3305 Vransko,Vransko,Vransko,46.24591,14.95101
331,"MELANIJA NIKIĆ GAČEŠA - ZASEBNA ZDRAVNICA, AMBULANTA DRUŽINSKE MEDICINE",OE LJUBLJANA,Zoranina ulica 3,1234 Mengeš,Mengeš,Mengeš,46.16207,14.571
332,"MENS MEDICA, ZDRAVSTVENE IN DRUGE STORITVE, D.O.O.",OE MARIBOR,Žolgarjeva ulica 14,2000 Maribor,Maribor,Maribor,46.54949,15.6417
333,"MERIDIUS TOP, ZDRAVSTVENE IN ZOBOZDRAVSTVENE STORITVE, D.O.O.",OE MARIBOR,Cesta na Žavcerja 15,2354 Bresternica,Jelovec,Maribor,46.56716,15.571
334,METLIČAR ANTON - DOKTOR STOMATOLOGIJE,OE NOVA GORICA,Ulica tolminskih puntarjev 4,5000 Nova Gorica,Nova Gorica,Nova Gorica,45.95594,13.64904
335,"MEVITA - ZASEBNA AMBULANTA SPLOŠNE MEDICINE META ČAMPA, DR. MED., SPEC. SPL. MED.",OE NOVO MESTO,Ulica Maksa Henigmana 57,8350 Dolenjske Toplice,Dolenjske Toplice,Dolenjske Toplice,45.75493,15.06221
336,MIJATOVIČ JOVAN - ZOBNA AMBULANTA,IZPOSTAVA KAMNIK,Laze v Tuhinju 29,1219 Laze v Tuhinju,Laze v Tuhinju,Kamnik,46.21946,14.75656
337,MIKMAR DRUŽBA ZA TRGOVINO IN STORITVE D.O.O.,OE MARIBOR,Kettejeva ulica 14,2000 Maribor,Maribor,Maribor,46.54801,15.63859
338,MILAKOVIĆ RANKO - DEJAVNOST SPLOŠNE MEDICINE,IZPOSTAVA SLOVENSKA BISTRICA,Kolodvorska ulica 3,2331 Pragersko,Pragersko,Slovenska Bistrica,46.39521,15.66135
339,"MILUMED, ZDRAVSTVENE STORITVE D.O.O.",IZPOSTAVA PTUJ,Langusova ulica 8,2250 Ptuj,Ptuj,Ptuj,46.43101,15.88301
340,"MLADINSKO ZOBOZDRAVSTVO MOIDENT NATALIJA DONAJ MAGAŠIĆ, DR. DENT. MED.",IZPOSTAVA RADLJE OB DRAVI,Mladinska ulica 17,2367 Vuzenica,Vuzenica,Vuzenica,46.59873,15.1644
341,"MLADINSKO ZOBOZDRAVSTVO TANJA RIHTAR, DR. DENT. MED.",OE NOVO MESTO,Kandijska cesta 4,8000 Novo mesto,Novo mesto,Novo mesto,45.80129,15.1627
342,MLINARIČ MARKO - GINEKOLOG IN PORODNIČAR,IZPOSTAVA ZAGORJE,Cesta zmage 1,1410 Zagorje ob Savi,Zagorje ob Savi,Zagorje ob Savi,46.13384,14.9957
343,MOJCA KOS - ZASEBNA SPLOŠNA AMBULANTA,OE MARIBOR,Kalohova ulica 18,2000 Maribor,Maribor,Maribor,46.55507,15.61747
344,"MOJCA ZUPANČIČ, DR.DENT.MED. - ZASEBNI ZOBOZDRAVNIK",OE NOVO MESTO,Mušičeva ulica 2,8000 Novo mesto,Novo mesto,Novo mesto,45.79951,15.17239
345,MOLAR ZOBNA AMBULANTA D.O.O.,IZPOSTAVA PTUJ,Potrčeva cesta 17,2250 Ptuj,Ptuj,Ptuj,46.42485,15.87672
346,"NAGLIDENT, DRUŽBA ZA ZOBOZDRAVSTVENE IN OSTALE STORITVE, D.O.O.",IZPOSTAVA TRŽIČ,Predilniška cesta 6,4290 Tržič,Tržič,Tržič,46.36187,14.30768
347,"NAL, ZOBOZDRAVSTVENA DEJAVNOST, D.O.O.",IZPOSTAVA ŠKOFJA LOKA,Podgornikova ulica 1,1000 Ljubljana,Ljubljana,Ljubljana,46.07375,14.47954
348,NASMEH ZOBOZDRAVSTVO ZOBOZDRAVSTVENE STORITVE D.O.O.,OE NOVO MESTO,Kandijska cesta 62,8000 Novo mesto,Novo mesto,Novo mesto,45.79919,15.17787
349,"NATAŠA ŠLAJKOVEC, ZASEBNI ZOBOZDRAVNIK",OE NOVO MESTO,Šmarjeta 66,8220 Šmarješke Toplice,Šmarjeta,Šmarješke Toplice,45.88826,15.24703
350,NEMEC VLADIMIR - ZASEBNA ZOBNA ORDINACIJA,IZPOSTAVA LJUTOMER,Moravci v Slov. goricah 34B,9243 Mala Nedelja,Moravci v Slov. goricah,Ljutomer,46.51465,16.05219
351,"NEŠKOVIĆ DANKA, DR. DENT. MED. - ZASEBNA STOMATOLOŠKA ORDINACIJA",IZPOSTAVA KOČEVJE,Ljubljanska cesta 19,1330 Kočevje,Kočevje,Kočevje,45.64149,14.85688
352,"NIKA PODBREGAR, DR.DENT.MED. - ZASEBNA ZOBNA AMBULANTA",IZPOSTAVA ŽALEC,Prešernova ulica 6,3310 Žalec,Žalec,Žalec,46.25093,15.16216
353,NIKIČ ALENKA - DOKTOR STOMATOLOGIJE,OE NOVO MESTO,Trubarjeva cesta 5,8310 Šentjernej,Šentjernej,Šentjernej,45.84409,15.33708
354,"NIKL KRAVOS, ZDRAVSTVENA DEJAVNOST, PROIZVODNJA, TRGOVINA, GOSTINSTVO IN STORITVE, D.O.O.",OE MARIBOR,Tomšičeva ulica 6,2000 Maribor,Maribor,Maribor,46.5654,15.6509
355,NIKOLIČ LILJANA - ZASEBNA ZOBNA ORDINACIJA - NIKOLIĆ LILJANA,IZPOSTAVA BREŽICE,Ulica Stanka Škalerja 29,8250 Brežice,Brežice,Brežice,45.90939,15.59756
356,"NINA LOKOVŠEK, AMBULANTA DRUŽINSKE MEDICINE",OE LJUBLJANA,Podpeška cesta 380,1357 Notranje Gorice,Notranje Gorice,Brezovica,45.98948,14.40273
357,"NIVES KREBELJ ŠKOF, DR.DENT.MED., ZOBNA AMBULANTA OLMO",OE KOPER,Cesta na Markovec 1,6000 Koper - Capodistria,Koper,Koper,45.53529,13.72805
358,"NO DOL, ZOBOZDRAVSTVENE IN PROTIBOLEČINSKE STORITVE, D.O.O.",IZPOSTAVA PTUJ,Trnovska vas 42A,2254 Trnovska vas,Trnovska vas,Trnovska vas,46.51993,15.88594
359,NORČIČ-BERCE ANDREJA - ZOBNA AMBULANTA,OE MURSKA SOBOTA,Cvetkova ulica 10,9000 Murska Sobota,Murska Sobota,Murska Sobota,46.66089,16.16751
360,"NOVAK ZORAN - ZASEBNI ZDRAVNIK NA PODROČJU MEDICINE DELA , PROMETA IN ŠPORTA IN NA PODROČJU SPLOŠNE MEDICINE",OE MARIBOR,Prvomajska ulica 25,2000 Maribor,Maribor,Maribor,46.53329,15.66758
361,OBLAK - ZDOLŠEK JANJA DR.DENT.MED. ZOBOZDRAVSTENA ORDINACIJA,OE LJUBLJANA,Vilharjeva cesta 27,1000 Ljubljana,Ljubljana,Ljubljana,46.0602,14.51545
362,OBRADOVIĆ ZDRAVSTVO ZDRAVSTVENE IN DRUGE STORITVE D.O.O.,OE KRŠKO,Cankarjeva ulica 3A,8270 Krško,Krško,Krško,45.95739,15.49688
363,OCEPEK-VEBER MOJCA - ZASEBNA ZOBNA AMBULANTA,OE CELJE,Cesta na Dobrovo 114,3000 Celje,Celje,Celje,46.25016,15.26509
364,ODORČIĆ LIDIJA - ORDINACIJA SPLOŠNE MEDICINE,IZPOSTAVA KOČEVJE,Kekčeva ulica 3,1330 Kočevje,Kočevje,Kočevje,45.64144,14.85424
365,ODORČIĆ TIHOMIR - ORDINACIJA SPLOŠNE MEDICINE,IZPOSTAVA KOČEVJE,Kekčeva ulica 3,1330 Kočevje,Kočevje,Kočevje,45.64144,14.85424
366,OGRIN MARIJA - STOMATOLOGINJA,IZPOSTAVA VRHNIKA,Pod Hruševco 33,1360 Vrhnika,Vrhnika,Vrhnika,45.97336,14.29506
367,"ORDINACIJA DRUŽINSKE MEDICINE DANICA SIMONČIČ, DR. MED., SPEC. SPL. MED.",OE NOVO MESTO,Prvomajska cesta 5,8310 Šentjernej,Šentjernej,Šentjernej,45.84414,15.33949
368,"ORDINACIJA GAŠPERLIN DOVNIK, GINEKOLOGIJA IN DENZITOMETRIJA D.O.O.",OE CELJE,Jenkova ulica 20,3000 Celje,Celje,Celje,46.23594,15.26216
369,"ORDINACIJA SPLOŠNE MEDICINE JASMINKA DUKIĆ, DR. MED. SPECIALIST SPLOŠNE MEDICINE",IZPOSTAVA LJUTOMER,Križevci pri Ljutomeru 34A,9242 Križevci pri Ljutomeru,Križevci pri Ljutomeru,Križevci,46.56666,16.13705
370,"ORDINACIJA SPLOŠNE MEDICINE MIRO VUKOVIĆ, DR. MED. SPEC. DRUŽ. MED.",IZPOSTAVA ČRNOMELJ,Delavska pot 4,8340 Črnomelj,Črnomelj,Črnomelj,45.57549,15.18753
371,ORDINIJA ZDRAVSTVENA IN STORITVENA DEJAVNOST D.O.O.,OE MARIBOR,Pod hribom 12,2212 Šentilj v Slov. goricah,Šentilj v Slov. goricah,Šentilj,46.67974,15.65495
372,"ORTO4U, ZOBOZDRAVSTVENA DEJAVNOST, D.O.O.",OE KRANJ,Ulica bratov Komel 25,1210 Ljubljana - Šentvid,Ljubljana,Ljubljana,46.09548,14.47256
373,OSKAR IN BARBARA ZOBOZDRAVSTVENE STORITVE D.O.O.,OE KOPER,Ulica 15.maja 19,6000 Koper - Capodistria,Koper,Koper,45.53713,13.72967
374,"OSNOVNO ZDRAVSTVO GORENJSKE, OE ZDRAVSTVENI DOM BLED, ZDRAVSTVENI DOM BOHINJ",IZPOSTAVA RADOVLJICA,Mladinska cesta 1,4260 Bled,Bled,Bled,46.3714,14.10909
375,"OSNOVNO ZDRAVSTVO GORENJSKE, OE ZDRAVSTVENI DOM JESENICE",IZPOSTAVA JESENICE,Cesta maršala Tita 78,4270 Jesenice,Jesenice,Jesenice,46.44,14.04461
376,"OSNOVNO ZDRAVSTVO GORENJSKE, OE ZDRAVSTVENI DOM KRANJ",OE KRANJ,Gosposvetska ulica 10,4000 Kranj,Kranj,Kranj,46.2489,14.35325
377,"OSNOVNO ZDRAVSTVO GORENJSKE, OE ZDRAVSTVENI DOM RADOVLJICA",IZPOSTAVA RADOVLJICA,Kopališka cesta 7,4240 Radovljica,Radovljica,Radovljica,46.34702,14.17201
378,"OSNOVNO ZDRAVSTVO GORENJSKE, OE ZDRAVSTVENI DOM TRŽIČ",IZPOSTAVA TRŽIČ,Blejska cesta 10,4290 Tržič,Tržič,Tržič,46.36361,14.30654
379,"OSNOVNO ZDRAVSTVO GORENJSKE, OE ZDRAVSTVENI DOM ŠKOFJA LOKA",IZPOSTAVA ŠKOFJA LOKA,Stara cesta 10,4220 Škofja Loka,Škofja Loka,Škofja Loka,46.16618,14.31281
380,"OTROŠKA AMBULANTA MESNER, AMBULANTA ZA ZDRAVSTVENO VARSTVO OTROK D.O.O.",IZPOSTAVA SLOVENJ GRADEC,Partizanska pot 16,2380 Slovenj Gradec,Slovenj Gradec,Slovenj Gradec,46.50693,15.08202
381,"OTROŠKI ZDRAVNIK, ZDRAVSTVENA DEJAVNOST, D.O.O.",OE LJUBLJANA,Dolenja Brezovica 11,1352 Preserje,Dolenja Brezovica,Brezovica,45.94773,14.42655
382,PALIČ ANDREJA - ZOBOZDRAVSTVO ODRASLIH,IZPOSTAVA ČRNOMELJ,Ulica Otona Župančiča 3,8340 Črnomelj,Črnomelj,Črnomelj,45.57421,15.19108
383,PANJEK EDITA - DOKTOR STOMATOLOGIJE,IZPOSTAVA SLOVENJ GRADEC,Partizanska pot 16,2380 Slovenj Gradec,Slovenj Gradec,Slovenj Gradec,46.50693,15.08202
384,PAVLOVIĆ RADE - DOKTOR STOMATOLOGIJE,IZPOSTAVA JESENICE,Cesta maršala Tita 78,4270 Jesenice,Jesenice,Jesenice,46.44,14.04461
385,"PEDIATRIJA BORŠTNIKOVA, ZDRAVSTVENE STORITVE IN IZOBRAŽEVANJE, D.O.O.",OE MARIBOR,Borštnikova ulica 79,2000 Maribor,Maribor,Maribor,46.53511,15.62851
386,PEDIATRIJA HELENA MOLE,OE LJUBLJANA,Cesta v Mestni log 55,1000 Ljubljana,Ljubljana,Ljubljana,46.0362,14.48957
387,"PEDIATRIJA MOJCA ŠVAB ZAVRATNIK, DR. MED.",OE MARIBOR,Na soseski 14,2000 Maribor,Maribor,Maribor,46.53872,15.63408
388,"PEDIATRIJA, DRUŽBA ZA PREVENTIVO IN ZDRAVLJENJE OTROK, D.O.O.",OE MARIBOR,Kalohova ulica 18,2000 Maribor,Maribor,Maribor,46.55507,15.61747
389,"PEDIATRINJA SUZANA ŠKORJANC ANTOLIČ, ZDRAVSTVENA DEJAVNOST, D.O.O.",OE MARIBOR,Hrenova ulica 6,2000 Maribor,Maribor,Maribor,46.55432,15.62367
390,"PEDIATRIČNA ORDINACIJA BARBARA DIETNER MERKAN, ZDRAVSTVENE STORITVE IN SVETOVANJE, D.O.O.",OE MARIBOR,Pobreška cesta 6,2000 Maribor,Maribor,Maribor,46.55441,15.64665
391,PEREZA IVAN - ZASEBNA ZOBNA AMBULANTA,IZPOSTAVA GORNJA RADGONA,Radgonska cesta 2,9252 Radenci,Radenci,Radenci,46.64125,16.04391
392,"PERUN MED, ZDRAVSTVENE STORITVE IN SVETOVANJE, D.O.O.",IZPOSTAVA POSTOJNA,Levstikova ulica 2,6210 Sežana,Sežana,Sežana,45.7087,13.87106
393,PERŠIČ OJSTERŠEK ALENKA - ORDINACIJA SPLOŠNE MEDICINE,OE LJUBLJANA,Cesta v Mestni log 55,1000 Ljubljana,Ljubljana,Ljubljana,46.0362,14.48957
394,PETRINA KRAJNC REPA - ZASEBNA ZOBNA ORDINACIJA,OE MARIBOR,Korenska cesta 31,2241 Spodnji Duplek,Spodnji Duplek,Duplek,46.50402,15.75597
395,PETROVIČ MIRJANA - ZASEBNA ZOBNA AMBULANTA,OE MURSKA SOBOTA,Cankova 65B,9261 Cankova,Cankova,Cankova,46.71858,16.0185
396,PEČNIK SANJA LUCIJA - ZOBOZDRAVNIŠKA ORDINACIJA,OE LJUBLJANA,Dunajska cesta 129,1000 Ljubljana,Ljubljana,Ljubljana,46.07794,14.51189
397,PLEŠNAR CVIRN DAMJANA - AMBULANTA SPLOŠNE MEDICINE,IZPOSTAVA KAMNIK,Novi trg 26A,1241 Kamnik,Kamnik,Kamnik,46.22082,14.61321
398,POKERŽNIK PETER - ZASEBNI ZOBOZDRAVNIK,OE MARIBOR,Zrkovska cesta 67,2000 Maribor,Maribor,Maribor,46.55598,15.67174
399,"POLIKLINIKA AMBER, ZDRAVSTVENE STORITVE, D.O.O.",OE MARIBOR,Ljubljanska ulica 9,2000 Maribor,Maribor,Maribor,46.55337,15.64665
400,POLIMAC DUŠAN - ZASEBNA ZDRAVNIŠKA ORDINACIJA,OE CELJE,Ulica bratov Vošnjakov 12,3000 Celje,Celje,Celje,46.24598,15.26429
401,POLJE HARMONIJE DRUŽBA ZA KAKOVOST ŽIVLJENJA D.O.O.,OE NOVO MESTO,Štefan pri Trebnjem 40,8210 Trebnje,Štefan pri Trebnjem,Trebnje,45.90867,14.98839
402,POLJŠAK ALENKA - ZASEBNA ZOBNA ORDINACIJA,OE NOVA GORICA,Cesta Prekomorskih brigad 25,5290 Šempeter pri Gorici,Šempeter pri Gorici,Šempeter-Vrtojba,45.93053,13.63792
403,"POLO - DENT, ZOBOZDRAVSTVENA DEJAVNOST, D.O.O.",OE LJUBLJANA,Petkova ulica 16,1231 Ljubljana - Črnuče,Ljubljana,Ljubljana,46.09907,14.52792
404,POTOKAR MOJCA - ZOBNA ORDINACIJA,OE LJUBLJANA,Zasavska cesta 95,1231 Ljubljana - Črnuče,Ljubljana,Ljubljana,46.09189,14.57495
405,"POTOČNIK ŠPELA, DR. DENT. MED. ZASEBNA ZOBNA ORDINACIJA",OE LJUBLJANA,Dolsko 55,1262 Dol pri Ljubljani,Dolsko,Dol pri Ljubljani,46.09385,14.67776
406,"POTUŠEK KUHAR KATARINA, DR. MED. SPEC. PEDIATRIJE - ZASEBNA PEDIATRIČNA ORDINACIJA",IZPOSTAVA HRASTNIK,Novi dom 11,1430 Hrastnik,Hrastnik,Hrastnik,46.1403,15.08513
407,POŽRL MARKO DR.DENT.MED. - ZOBOZDRAVSTVENA ORDINACIJA,IZPOSTAVA IZOLA,Kajuhova ulica 34,6310 Izola - Isola,Izola,Izola,45.53002,13.66787
408,PRAPROTNIK IGOR - DOKTOR STOMATOLOGIJE,IZPOSTAVA DOMŽALE,Kamniška cesta 24,1235 Radomlje,Preserje pri Radomljah,Domžale,46.168,14.5949
409,PRAZNIK IGOR - ZASEBNA ZDRAVNIŠKA ORDINACIJA,OE CELJE,Celjska cesta 24B,3212 Vojnik,Vojnik,Vojnik,46.29098,15.30088
410,"PRELOG-DENTAL, DRUŽBA ZA STORITVE IN SVETOVANJE, D.O.O.",OE MARIBOR,Lackova cesta 269,2341 Limbuš,Limbuš,Maribor,46.55387,15.58161
411,PREMEDIKO ZDRAVSTVENE STORITVE D.O.O.,OE MARIBOR,Ljubljanska ulica 5,2000 Maribor,Maribor,Maribor,46.55289,15.64858
412,"PRENADENT, ZOBOZDRAVSTVENE STORITVE D.O.O.",OE KRANJ,Draga 1,1292 Ig,Draga,Ig,45.94726,14.54796
413,PRIBOŽIČ DARJA - ZASEBNA AMBULANTA SPLOŠNE MEDICINE,IZPOSTAVA PTUJ,Gorišnica 65,2272 Gorišnica,Gorišnica,Gorišnica,46.41047,16.01167
414,"PRIVATNA ZOBNA ORDINACIJA RENATA AMBROŽIČ ČOP, DR. DENT. MED.",IZPOSTAVA RADOVLJICA,Prešernova cesta 52,4260 Bled,Bled,Bled,46.37308,14.1042
415,PRIVŠEK IZTOK - ZOBOZDRAVSTVO,OE LJUBLJANA,Opekarska cesta 11,1000 Ljubljana,Ljubljana,Ljubljana,46.03951,14.50753
416,PROMEDICO PLUS ZAVOD ZA ZDRAVSTVENE IN DRUGE STORITVE,OE LJUBLJANA,Sneberska cesta 128B,1260 Ljubljana - Polje,Ljubljana,Ljubljana,46.07327,14.58924
417,PUKLAVEC GROZNIK JANJA DR.DENT.MED. - ZASEBNA ZOBOZDRAVNICA,OE LJUBLJANA,Savska cesta 10,1000 Ljubljana,Ljubljana,Ljubljana,46.06433,14.52589
418,PUPIČ - GABERŠEK VESNA - DOKTOR STOMATOLOGIJE,IZPOSTAVA VELENJE,Vodnikova cesta 1,3320 Velenje,Velenje,Velenje,46.36151,15.11636
419,"PUŠNIK-NOVLJAN OKULISTIKA, OPTIKA, ZOBOZDRAVSTVO D.O.O.",OE NOVO MESTO,Turkova ulica 8,8000 Novo mesto,Novo mesto,Novo mesto,45.83041,15.15729
420,RAFOT - BERLOT MARIJA - ZDRAVNIK - SPLOŠNA MEDICINA,IZPOSTAVA SLOVENSKA BISTRICA,Ulica Pohorskega bataljona 11,2317 Oplotnica,Oplotnica,Oplotnica,46.38817,15.44733
421,RAJNAR - VOROŠ ZVEZDICA - SANA VITA ZASEBNA SPLOŠNA AMBULANTA,OE MURSKA SOBOTA,Cvetkova ulica 10,9000 Murska Sobota,Murska Sobota,Murska Sobota,46.66089,16.16751
422,RAN ZOBOZDRAVSTVENA DEJAVNOST D.O.O.,IZPOSTAVA ŠKOFJA LOKA,Reteče 205,4220 Škofja Loka,Reteče,Škofja Loka,46.15779,14.37091
423,"REMEDIA ZDRAVSTVO, IZOBRAŽEVANJE IN SOCIALNE STORITVE D.O.O.",OE LJUBLJANA,Hruševska cesta 6A,1000 Ljubljana,Ljubljana,Ljubljana,46.04676,14.54206
424,REPNIK NADA - ZASEBNA ZOBNA AMBULANTA,IZPOSTAVA SLOVENSKE KONJICE,Mestni trg 17,3210 Slovenske Konjice,Slovenske Konjice,Slovenske Konjice,46.33998,15.42862
425,RIHTARŠIČ IRENA - SPLOŠNA AMBULANTA,OE MURSKA SOBOTA,Ulica Staneta Rozmana 11A,9000 Murska Sobota,Murska Sobota,Murska Sobota,46.66162,16.16734
426,RITUPER BOJNEC MIRA - ZOBNA AMBULANTA,OE MURSKA SOBOTA,Kocljevo naselje 9,9231 Beltinci,Beltinci,Beltinci,46.6088,16.23201
427,RODNA STORITVE ZA ZDRAVJE D.O.O.,OE KRANJ,Zasavska cesta 58D,4000 Kranj,Kranj,Kranj,46.21782,14.36865
428,ROJC PEČNIK VESNA - AMBULANTA SPLOŠNE MEDICINE,OE LJUBLJANA,Vodovodna cesta 109,1000 Ljubljana,Ljubljana,Ljubljana,46.07871,14.50194
429,ROJNIK BARBARA - GINEKOLOŠKA ORDINACIJA,OE LJUBLJANA,Metelkova ulica 15,1000 Ljubljana,Ljubljana,Ljubljana,46.05705,14.51547
430,"ROK-LAB, ZOBOZDRAVSTVO, D.O.O.",IZPOSTAVA ŠKOFJA LOKA,Trata 7A,4224 Gorenja vas,Gorenja vas,Gorenja vas-Poljane,46.10238,14.1424
431,RONALD NOVAK DR.DENT.MED. - ZASEBNA ZOBOZDRAVSTVENA AMBULANTA,IZPOSTAVA ŽALEC,Prešernova ulica 6,3310 Žalec,Žalec,Žalec,46.25093,15.16216
432,ROTAR TOMAŽ - ZOBOZDRAVSTVENA ORDINACIJA,IZPOSTAVA RADOVLJICA,Prešernova ulica 6,4240 Radovljica,Radovljica,Radovljica,46.34494,14.17058
433,RUS SERGEJ - SPECIALIST SPLOŠNE MEDICINE,IZPOSTAVA VELENJE,Vodnikova cesta 1,3320 Velenje,Velenje,Velenje,46.36151,15.11636
434,RUS SIMONKA - STOMATOLOŠKA ORDINACIJA,OE LJUBLJANA,Vodnikova cesta 187,1000 Ljubljana,Ljubljana,Ljubljana,46.07405,14.47528
435,RUS VALERIJA - ORDINACIJA SPLOŠNE MEDICINE,OE LJUBLJANA,Dolsko 55,1262 Dol pri Ljubljani,Dolsko,Dol pri Ljubljani,46.09385,14.67776
436,"SAFTIĆ, ZDRAVSTVENA DEJAVNOST, D.O.O.",IZPOSTAVA PTUJ,Mala vas 32B,2272 Gorišnica,Mala vas,Gorišnica,46.39088,16.00524
437,"SALVUS, MEDICINSKE STORITVE D.O.O.",IZPOSTAVA LENDAVA,Trimlini 56A,9220 Lendava - Lendva,Trimlini,Lendava,46.54414,16.46532
438,SAMOSTOJNA ORDINACIJA DRUŽINSKE MEDICINE SUZANA MILENKOVIĆ DR. MED.,IZPOSTAVA ČRNOMELJ,Zadružna cesta 33,8340 Črnomelj,Črnomelj,Črnomelj,45.57914,15.19513
439,SAMOTORČAN SLAVKO - ZASEBNA ZOBNA AMBULANTA,IZPOSTAVA PIRAN,Cesta solinarjev 1,6320 Portorož - Portorose,Lucija,Piran,45.50452,13.60205
440,"SANIDENT STORITVENO PODJETJE, D.O.O.",IZPOSTAVA SLOVENSKE KONJICE,Kovaška cesta 25B,3214 Zreče,Zreče,Zreče,46.37116,15.39114
441,"SANJA RAŠIĆ, DDM ZASEBNA ZOBOZDRAVSTVENA ORDINACIJA",IZPOSTAVA ŽALEC,Graščinska cesta 11,3312 Prebold,Prebold,Prebold,46.23604,15.09094
442,SANJA SLADE - ZASEBNA ZOBNA AMBULANTA,OE MARIBOR,Valvasorjeva ulica 38,2000 Maribor,Maribor,Maribor,46.55444,15.6368
443,"SANOS, ZOBOZDRAVSTVENE STORITVE, D.O.O.",IZPOSTAVA ŠKOFJA LOKA,Gregorčičeva ulica 10,4000 Kranj,Kranj,Kranj,46.24313,14.35717
444,SARIĆ DUBRAVKO - ZASEBNI ZOBOZDRAVNIK,IZPOSTAVA RIBNICA,Majnikova ulica 1,1310 Ribnica,Ribnica,Ribnica,45.74238,14.72596
445,SARIĆ LJILJANA - ZASEBNI ZOBOZDRAVNIK,IZPOSTAVA RIBNICA,Majnikova ulica 1,1310 Ribnica,Ribnica,Ribnica,45.74238,14.72596
446,"SAVA MED, ZDRAVSTVENE STORITVE IN SVETOVANJE, D.O.O.",OE MARIBOR,Cesta k Dravi 8,2241 Spodnji Duplek,Spodnji Duplek,Duplek,46.50113,15.74875
447,"SAŠO HRIBAR, DR. DENT. MED. - ZASEBNA ZOBNA AMBULANTA",IZPOSTAVA ŽALEC,Prešernova ulica 6,3310 Žalec,Žalec,Žalec,46.25093,15.16216
448,"SCHAUBACH TOMAŽ, ZASEBNI ZDRAVNIK NA PODROČJU DRUŽINSKE MEDICINE",IZPOSTAVA PTUJ,Trnovska vas 42A,2254 Trnovska vas,Trnovska vas,Trnovska vas,46.51993,15.88594
449,"SEVER MELITA, DR.MED.,SPEC.SPL.MED., ORDINACIJA DRUŽINSKE MEDICINE",OE KRŠKO,Ljubljanska cesta 16,8311 Kostanjevica na Krki,Kostanjevica na Krki,Kostanjevica na Krki,45.8446,15.41834
450,SIEGL VLADIMIR - ZOBOZDRAVSTVENA ORDINACIJA,OE LJUBLJANA,Kopitarjeva ulica 4,1000 Ljubljana,Ljubljana,Ljubljana,46.05131,14.51092
451,"SIMONA JUG MEHLE, DR.DENT.MED. - ZASEBNA ZOBNA ORDINACIJA",IZPOSTAVA ŠMARJE PRI JELŠAH,Celjska cesta 16,3240 Šmarje pri Jelšah,Šmarje pri Jelšah,Šmarje pri Jelšah,46.22926,15.5161
452,SIMONITI FILIP - SIMMED ZASEBNA GINEKOLOŠKA AMBULANTA,IZPOSTAVA ŠENTJUR PRI CELJU,Ulica Dušana Kvedra 27,3230 Šentjur,Šentjur,Šentjur,46.21817,15.39597
453,SIMČIČ POLAK MARJANA - ORDINACIJA SPLOŠNE MEDICINE,OE LJUBLJANA,Cesta 24. junija 23,1231 Ljubljana - Črnuče,Ljubljana,Ljubljana,46.09681,14.52692
454,"SINOPSIS D.O.O., STORITVE, TRGOVINA IN ZASEBNA SPLOŠNA AMBULANTA",IZPOSTAVA RADOVLJICA,Gorenjska ulica 37,4260 Bled,Ribno,Bled,46.34715,14.12389
455,"SIRAMED, MEDICINSKE STORITVE IN SVETOVANJE, D.O.O.",IZPOSTAVA PTUJ,Slovenskogoriška cesta 39,2250 Ptuj,Ptuj,Ptuj,46.43302,15.8883
456,"SISTEMIS ZDRAVSTVENA IN POSLOVNA DEJAVNOST, D.O.O.",OE LJUBLJANA,Vurnikova ulica 9,1000 Ljubljana,Ljubljana,Ljubljana,46.06262,14.51543
457,"SKAN, DRUŽBA ZA OPRAVLJANJE STORITEV D.O.O.",OE LJUBLJANA,Ulica Lojzeta Spacala 10,1000 Ljubljana,Ljubljana,Ljubljana,46.06747,14.4721
458,"SMAJILA BOJAN, DR. DENT. MED. - ZASEBNA ZOBNA ORDINACIJA",IZPOSTAVA ŽALEC,Braslovče 27,3314 Braslovče,Braslovče,Braslovče,46.2876,15.03997
459,"SMEJKO, PETRA PRODAN ŠUMNIK, ZOBOZDRAVSTVO & ESTETIKA, D.O.O.",OE CELJE,Gubčeva ulica 10,3000 Celje,Celje,Celje,46.22956,15.26637
460,SOBOTKIEWICZ BOJANA - DOKTOR STOMATOLOGIJE,OE MARIBOR,Cesta XIV. divizije 30,2000 Maribor,Maribor,Maribor,46.55159,15.66267
461,SOMRAK SAMO - DOKTOR STOMATOLOGIJE,IZPOSTAVA PIRAN,Fazan 1,6320 Portorož - Portorose,Lucija,Piran,45.50642,13.6072
462,SONJA ĐUKEZ DR.DENT.MED. ZASEBNA ZOBNA ORDINACIJA,IZPOSTAVA SEVNICA,Trg svobode 14,8290 Sevnica,Sevnica,Sevnica,46.0106,15.30248
463,SORŠAK KARIN - DOKTOR STOMATOLOGIJE,OE MARIBOR,Oblakova ulica 4,2000 Maribor,Maribor,Maribor,46.54231,15.63117
464,SPE VIVIMUS SPECIALISTIČNE DEJAVNOSTI D.O.O.,OE KRŠKO,Pot na Polšco 21,8270 Krško,Krško,Krško,45.96386,15.49039
465,"SPLOŠNA AMBULANTA INA HEGEDIČ, DR. MED.",OE MARIBOR,Stadionska ulica 4,2342 Ruše,Ruše,Ruše,46.54277,15.50623
466,"SPLOŠNA AMBULANTA MARJAN LOBODA, DR.MED.",IZPOSTAVA DOMŽALE,Trojanska cesta 13,1225 Lukovica,Lukovica pri Domžalah,Lukovica,46.17023,14.69393
467,"SPLOŠNA AMBULANTA SLADKI VRH VLADO MARČINKO, DR. MED.",OE MARIBOR,Sladki Vrh 5,2214 Sladki Vrh,Sladki Vrh,Šentilj,46.69756,15.7368
468,SPLOŠNA BOLNIŠNICA BREŽICE,IZPOSTAVA BREŽICE,Černelčeva cesta 15,8250 Brežice,Brežice,Brežice,45.90849,15.59354
469,SPLOŠNA BOLNIŠNICA CELJE,OE CELJE,Oblakova ulica 5,3000 Celje,Celje,Celje,46.23463,15.26257
470,SPLOŠNA BOLNIŠNICA DR. FRANCA DERGANCA NOVA GORICA,OE NOVA GORICA,Ulica padlih borcev 13A,5290 Šempeter pri Gorici,Šempeter pri Gorici,Šempeter-Vrtojba,45.9302,13.64083
471,SPLOŠNA BOLNIŠNICA DR. JOŽETA POTRČA PTUJ,IZPOSTAVA PTUJ,Potrčeva cesta 23,2250 Ptuj,Ptuj,Ptuj,46.42609,15.87709
472,SPLOŠNA BOLNIŠNICA IZOLA OSPEDALE GENERALE ISOLA,IZPOSTAVA IZOLA,Polje 40,6310 Izola - Isola,Izola,Izola,45.54442,13.68709
473,SPLOŠNA BOLNIŠNICA JESENICE,IZPOSTAVA JESENICE,Cesta maršala Tita 112,4270 Jesenice,Jesenice,Jesenice,46.443,14.03697
474,SPLOŠNA BOLNIŠNICA MURSKA SOBOTA,OE MURSKA SOBOTA,Ulica dr. Vrbnjaka 6,9000 Murska Sobota,Rakičan,Murska Sobota,46.65013,16.18727
475,SPLOŠNA BOLNIŠNICA NOVO MESTO,OE NOVO MESTO,Šmihelska cesta 1,8000 Novo mesto,Novo mesto,Novo mesto,45.79995,15.16385
476,SPLOŠNA BOLNIŠNICA SLOVENJ GRADEC,IZPOSTAVA SLOVENJ GRADEC,Gosposvetska cesta 1,2380 Slovenj Gradec,Slovenj Gradec,Slovenj Gradec,46.50766,15.08173
477,SPLOŠNA BOLNIŠNICA TRBOVLJE,IZPOSTAVA TRBOVLJE,Rudarska cesta 9,1420 Trbovlje,Trbovlje,Trbovlje,46.15398,15.0471
478,"SPLOŠNA IN DRUŽINSKA MEDICINA GORDANA ŠĆEPANOVIĆ, DR. MED.",IZPOSTAVA RADOVLJICA,Kopališka cesta 7,4240 Radovljica,Radovljica,Radovljica,46.34702,14.17201
479,SPLOŠNA MEDICINA JURIJ PESJAK D.O.O.,IZPOSTAVA SEVNICA,Drožanjska cesta 90,8290 Sevnica,Sevnica,Sevnica,46.01346,15.31147
480,SPLOŠNA MEDICINA STANISLAV OSTANEK DR. MED.SPEC.,OE LJUBLJANA,Banija 4,1292 Ig,Ig,Ig,45.95897,14.5272
481,"SPLOŠNA MEDICINA, ZDRAVSTVENE STORITVE IN SVETOVANJE, D.O.O.",OE MARIBOR,Stadionska ulica 4,2342 Ruše,Ruše,Ruše,46.54277,15.50623
482,"SPLOŠNO IN ESTETSKO ZOBOZDRAVSTVO, NINA KOTNIK-TRAVNIK, S.P.",IZPOSTAVA KAMNIK,Na jasi 6,1241 Kamnik,Kamnik,Kamnik,46.20853,14.6118
483,"SREDNJA ŠOLA ZA FARMACIJO, KOZMETIKO IN ZDRAVSTVO",OE LJUBLJANA,Zdravstvena pot 1,1000 Ljubljana,Ljubljana,Ljubljana,46.04729,14.51594
484,STARBEK MARIJA - AMBULANTA SPLOŠNE MEDICINE,IZPOSTAVA DOMŽALE,Ljubljanska cesta 104,1230 Domžale,Domžale,Domžale,46.14268,14.59561
485,"STARDENT, ZOBOZDRAVSTVENE STORITVE, TRGOVINA IN POSREDNIŠTVO D.O.O.",IZPOSTAVA ŠKOFJA LOKA,Trg svobode 9,4226 Žiri,Žiri,Žiri,46.04754,14.11159
486,"STEINER, ZASEBNE AMBULANTE SPLOŠNE MEDICINE, D.O.O.",IZPOSTAVA MOZIRJE,Šmihelska cesta 7,3330 Mozirje,Mozirje,Mozirje,46.34067,14.96434
487,"STIPES, PROIZVODNJA, TRGOVINA, FINANCE, NEPREMIČNINE, ZOBOZDRAVSTVENE IN DRUGE STORITVE, D.O.O.",IZPOSTAVA SLOVENSKA BISTRICA,Ulica Borisa Winterja 10,2310 Slovenska Bistrica,Slovenska Bistrica,Slovenska Bistrica,46.38857,15.5734
488,"STOMATOLOGICA, ZOBOZDRAVSTVENE STORITVE, D.O.O.",OE MARIBOR,Pesnica pri Mariboru 42C,2211 Pesnica pri Mariboru,Pesnica pri Mariboru,Pesnica,46.60846,15.67654
489,"STOMATOLOŠKA ORDINACIJA JANKO E. ŠTEFANČIČ, DR. DENT. MED.",OE LJUBLJANA,Aljaževa ulica 30,1000 Ljubljana,Ljubljana,Ljubljana,46.06839,14.49548
490,"STOMATOLOŠKA ORDINACIJA NINA TOMIĆ, DR. DENT. MED.",IZPOSTAVA KOČEVJE,Roška cesta 18,1330 Kočevje,Kočevje,Kočevje,45.63938,14.86562
491,"STRAŽIŠAR RADIĆ TANJA - PRIVATNA ZOBNA ORDINACIJA, ZOBOZDRAVSTVO ZA ODRASLE",IZPOSTAVA JESENICE,Cesta maršala Tita 78,4270 Jesenice,Jesenice,Jesenice,46.44,14.04461
492,STRLIČ IRIS - ZOBOZDRAVSTVENA ORDINACIJA,IZPOSTAVA DOMŽALE,Mestni trg 2,1230 Domžale,Domžale,Domžale,46.13975,14.59617
493,"STRNIŠA ZORAN, DR. DENT. MED. - ZASEBNA ZOBNA ORDINACIJA",OE CELJE,Ljubljanska cesta 14,3000 Celje,Celje,Celje,46.23244,15.25968
494,STROSAR ROZMAN GABRIJELA - ZOBNA AMBULANTA ZA ODRASLE,IZPOSTAVA DOMŽALE,Zoranina ulica 3,1234 Mengeš,Mengeš,Mengeš,46.16207,14.571
495,STU-DENT ZOBOZDRAVSTVENE STORITVE D.O.O.,OE LJUBLJANA,Tehnološki park 20,1000 Ljubljana,Ljubljana,Ljubljana,46.05045,14.4603
496,"STUDIO ORALNEGA ZDRAVJA, DRUŽBA ZA STORITVE IN SVETOVANJE, D.O.O.",OE MARIBOR,Lavričeva ulica 1,2000 Maribor,Maribor,Maribor,46.55817,15.636
497,"STUDIO R, SPECIALISTIČNA ZDRAVSTVENA DEJAVNOST SPLOŠNE MEDICINE, D.O.O.",IZPOSTAVA VRHNIKA,Na klancu 22,1360 Vrhnika,Vrhnika,Vrhnika,45.96633,14.2934
498,SVATINA - CIMAN ZORKA - DEJAVNOST MLADINSKEGA ZOBOZDRAVSTVA,OE NOVA GORICA,Ulica Gradnikove brigade 7,5000 Nova Gorica,Nova Gorica,Nova Gorica,45.95843,13.64623
499,SŽ - ŽELEZNIŠKI ZDRAVSTVENI DOM LJUBLJANA,IZPOSTAVA LAŠKO,Celovška cesta 4,1000 Ljubljana,Ljubljana,Ljubljana,46.0573,14.50122
500,SŽ - ŽELEZNIŠKI ZDRAVSTVENI DOM LJUBLJANA,IZPOSTAVA POSTOJNA,Celovška cesta 4,1000 Ljubljana,Ljubljana,Ljubljana,46.0573,14.50122
501,SŽ - ŽELEZNIŠKI ZDRAVSTVENI DOM LJUBLJANA,OE LJUBLJANA,Celovška cesta 4,1000 Ljubljana,Ljubljana,Ljubljana,46.0573,14.50122
502,SŽ - ŽELEZNIŠKI ZDRAVSTVENI DOM LJUBLJANA,OE NOVA GORICA,Celovška cesta 4,1000 Ljubljana,Ljubljana,Ljubljana,46.0573,14.50122
503,"T DENT, ZOBNA ORDINACIJA, D.O.O.",IZPOSTAVA KAMNIK,Glavarjeva cesta 61A,1218 Komenda,Komenda,Komenda,46.20453,14.53935
504,"TADEJA ŠTRUMBELJ, DR.MED., ZASEBNI ZDRAVSTVENI ZAVOD ŠTRUMBELJ",OE LJUBLJANA,Na Palcah 2,1211 Ljubljana - Šmartno,Ljubljana,Ljubljana,46.12111,14.47331
505,"TAJA DULAR POTOČAR, DR. DENT. MED., ZASEBNA ZOBOZDRAVSTVENA ORDINACIJA",IZPOSTAVA DOMŽALE,Aljaževa ulica 9,1234 Mengeš,Mengeš,Mengeš,46.1699,14.57643
506,"TANJA NEDELJKOVIĆ, DR.DENT.MED., - ZASEBNA ZOBNA ORDINACIJA",IZPOSTAVA AJDOVŠČINA,Tovarniška cesta 2B,5270 Ajdovščina,Ajdovščina,Ajdovščina,45.88681,13.90359
507,TATALOVIČ RATKO - AMBULANTA GINEKOLOGIJE IN PORODNIŠTVA,OE LJUBLJANA,Tbilisijska ulica 59,1000 Ljubljana,Ljubljana,Ljubljana,46.03762,14.47887
508,"TECHDENS, ZOBOZDRAVSTVENE IN DRUGE STORITVE, D.O.O.",OE LJUBLJANA,Tbilisijska ulica 59,1000 Ljubljana,Ljubljana,Ljubljana,46.03762,14.47887
509,TENYI LASZLO - DEJAVNOST SPLOŠNE MEDICINE,OE MARIBOR,Partizanska cesta 59,2000 Maribor,Maribor,Maribor,46.56358,15.6579
510,TENČIČ IRENA - ZASEBNA ZOBNA ORDINACIJA,IZPOSTAVA PTUJ,Podlehnik 9,2286 Podlehnik,Podlehnik,Podlehnik,46.33608,15.87803
511,TERAN ERIKA - ZOBOZDRAVSTVO ODRASLIH,OE KRANJ,Zgornje Duplje 101A,4203 Duplje,Zgornje Duplje,Naklo,46.30397,14.29648
512,"TEREZIJA.MARINA, ZOBOZDRAVSTVENA DEJAVNOST D.O.O.",OE MURSKA SOBOTA,Dolga ulica 82,9000 Murska Sobota,Černelavci,Murska Sobota,46.66544,16.14308
513,"TERME DOBRNA, TERMALNO ZDRAVILIŠČE D.D.",OE CELJE,Dobrna 50,3204 Dobrna,Dobrna,Dobrna,46.33966,15.22417
514,TESTEN ALEKSANDER - ZASEBNA ZOBNA AMBULANTA,OE CELJE,Gregorčičeva ulica 5,3000 Celje,Celje,Celje,46.23224,15.26227
515,TINA DENT ZOBOZDRAVSTVENE STORITVE ZA OTROKE IN MLADINO D.O.O.,OE KRANJ,Puštal 108,4220 Škofja Loka,Puštal,Škofja Loka,46.16085,14.31135
516,"TINA MODREJ ZADNIKAR, DR. MED. ADM AMBULANTA DRUŽINSKE MEDICINE",OE LJUBLJANA,Prijateljeva ulica 2,1000 Ljubljana,Ljubljana,Ljubljana,46.04409,14.5084
517,"TINDENS, ZOBOZDRAVSTVO, PREVAJANJE, TOLMAČENJE IN DRUGE POSLOVNE STORITVE, D.O.O",OE MARIBOR,Ulica Lackovega odreda 6,2341 Limbuš,Limbuš,Maribor,46.55328,15.58435
518,TOMAŽ BANKO ZASEBNI ZOBOZDRAVNIK - ZOBOZDRAVSTVENA ORDINACIJA,IZPOSTAVA DOMŽALE,Mestni trg 2,1230 Domžale,Domžale,Domžale,46.13975,14.59617
519,"TOMAŽ DRAŽUMERIČ DR. DENT. MED., ZOBNA ORDINACIJA, D.O.O.",OE MARIBOR,Ptujska cesta 13,2204 Miklavž na Dravskem polju,Miklavž na Dravskem polju,Miklavž na Dravskem polju,46.51263,15.6905
520,TOMAŽ LUKANOVIĆ - ZOBOZDRAVNIK,OE LJUBLJANA,Ulica bratov Učakar 64,1000 Ljubljana,Ljubljana,Ljubljana,46.07216,14.47257
521,TOMC RASTA DR.MED. - ZASEBNA ORDINACIJA SPLOŠNE MEDICINE S KONCESIJO,OE KOPER,Vojkovo nabrežje 23,6000 Koper - Capodistria,Koper,Koper,45.54627,13.73404
522,TOMINEC MATEJA - ORDINACIJA SPLOŠNE MEDICINE,OE LJUBLJANA,Kolinska ulica 1,1000 Ljubljana,Ljubljana,Ljubljana,46.05983,14.52249
523,TOMŠIČ ARNALDO - ZOBNA ORDINACIJA,OE LJUBLJANA,Cesta v Mestni log 55,1000 Ljubljana,Ljubljana,Ljubljana,46.0362,14.48957
524,TOMŠIČ TONE - ZASEBNI ZOBOZDRAVNIK,OE LJUBLJANA,Gasparijeva ulica 12,1000 Ljubljana,Ljubljana,Ljubljana,46.05233,14.52825
525,"TOP-DENTAL, DRUŽBA ZA ZOBOZDRAVSTVENE STORITVE IN SVETOVANJE, D.O.O.",OE MARIBOR,Cesta v Rošpoh 24A,2351 Kamnica,Kamnica,Maribor,46.57287,15.6126
526,"TOPZOB, ZOBOZDRAVSTVO ZA MLADINO IN ODRASLE, D.O.O.",IZPOSTAVA PTUJ,Rajšpova ulica 16,2250 Ptuj,Ptuj,Ptuj,46.41951,15.88151
527,TOZON KRISTINA - ZOBOZDRAVNICA,IZPOSTAVA VRHNIKA,Mejačeva ulica 3,1353 Borovnica,Borovnica,Borovnica,45.91998,14.36563
528,TOŠIČ ZORICA - ZASEBNA ZOBNA AMBULANTA,IZPOSTAVA PTUJ,Breg 6A,2322 Majšperk,Breg,Majšperk,46.33947,15.73623
529,TRIFUNAC VELEMIR - ZASEBNA ZOBNA AMBULANTA,IZPOSTAVA PTUJ,Breg 6A,2322 Majšperk,Breg,Majšperk,46.33947,15.73623
530,"TRITRG, TRGOVINA IN POSREDNIŠTVO, D.O.O.",IZPOSTAVA ŠKOFJA LOKA,Tivolska cesta 48,1000 Ljubljana,Ljubljana,Ljubljana,46.05758,14.50466
531,"TRUDEN ANDREJKA, DR. DENT. MED., ZASEBNA ZOBOZDRAVNICA, DENTALNI STUDIO AS",OE LJUBLJANA,Ulica bratov Babnik 10,1000 Ljubljana,Ljubljana,Ljubljana,46.07645,14.466
532,TRŠINAR ALEKSANDER - ZASEBNA AMBULANTA ZA OTROKE,IZPOSTAVA DOMŽALE,Mestni trg 2,1230 Domžale,Domžale,Domžale,46.13975,14.59617
533,"TRŽAN-MAKOVEC ZOBOZDRAVSTVENA ORDINACIJA, D.O.O.",OE LJUBLJANA,Ulica Vladimirja Dolničarja 11,1356 Dobrova,Dobrova,Dobrova-Polhov Gradec,46.05355,14.41726
534,UKMAR SONJA - ORDINACIJA DRUŽINSKE MEDICINE,OE LJUBLJANA,Cesta na Brdo 63,1000 Ljubljana,Ljubljana,Ljubljana,46.04564,14.46976
535,UNIVERZITETNI KLINIČNI CENTER LJUBLJANA,OE LJUBLJANA,Zaloška cesta 2,1000 Ljubljana,Ljubljana,Ljubljana,46.05221,14.52078
536,UNIVERZITETNI KLINIČNI CENTER MARIBOR,OE MARIBOR,Ljubljanska ulica 5,2000 Maribor,Maribor,Maribor,46.55289,15.64858
537,UNUK- KLANČNIK IRENA - ZASEBNA ORDINACIJA,IZPOSTAVA SLOVENSKE KONJICE,Mestni trg 17,3210 Slovenske Konjice,Slovenske Konjice,Slovenske Konjice,46.33998,15.42862
538,URBANČIČ PEVC ANDREJKA -ZOBOZDRAVSTVENA ORDINACIJA,OE LJUBLJANA,Vodovodna cesta 109,1000 Ljubljana,Ljubljana,Ljubljana,46.07871,14.50194
539,"URBANČIČ POLONCA, DR. DENT. MED. ZOBOZDRAVSTVO",OE LJUBLJANA,Vodovodna cesta 109,1000 Ljubljana,Ljubljana,Ljubljana,46.07871,14.50194
540,"V&V DENT, ZOBOZDRAVSTVENE STORITVE, D.O.O.",IZPOSTAVA ŠKOFJA LOKA,Stara cesta 10,4220 Škofja Loka,Škofja Loka,Škofja Loka,46.16618,14.31281
541,VALENTIČ ZVONIMIR - ZOBOZDRAVNIK,IZPOSTAVA KOČEVJE,Roška cesta 18,1330 Kočevje,Kočevje,Kočevje,45.63938,14.86562
542,VAŠI ZOBJE DENTALNI STUDIO D.O.O.,IZPOSTAVA RADLJE OB DRAVI,Glavni trg 47,2366 Muta,Muta,Muta,46.61055,15.16488
543,VAŠI ZOBJE DENTALNI STUDIO D.O.O.,OE RAVNE NA KOROŠKEM,Trg 4. julija 9,2370 Dravograd,Dravograd,Dravograd,46.58921,15.02233
544,"VESNA DOBRAVC, DR.DENT.MED., AMBULANTA ZA ŠOLSKO IN MLADINSKO ZOBOZDRAVSTVO",IZPOSTAVA PIRAN,Prečna pot 4D,6320 Portorož - Portorose,Portorož,Piran,45.51588,13.5873
545,"VESNA JERNEJČIČ, DR. DENT. MED. ZASEBNA ZOBNA ORDINACIJA",IZPOSTAVA CERKNICA,Cesta 4. maja 17,1380 Cerknica,Cerknica,Cerknica,45.79122,14.36578
546,"VESNA ŠEGA - NOVAK, DR. DENT. MED., ZASEBNA ZOBNA ORDINACIJA",IZPOSTAVA CERKNICA,Cesta Notranjskega odreda 36,1386 Stari trg pri Ložu,Stari trg pri Ložu,Loška dolina,45.71325,14.47221
547,VEZOČNIK ERIKA - ZASEBNA ZOBNA AMBULANTA,IZPOSTAVA ŽALEC,Glavni trg 15,3313 Polzela,Polzela,Polzela,46.2795,15.07495
548,VIAL ZOBOZDRAVSTVENE STORITVE D.O.O.,OE KRANJ,Gabrščkova ulica 91,1000 Ljubljana,Ljubljana,Ljubljana,46.04743,14.46956
549,VIDIC MAJDA - ORDINACIJA SPLOŠNE MEDICINE,OE LJUBLJANA,Dunajska cesta 5,1000 Ljubljana,Ljubljana,Ljubljana,46.05937,14.50613
550,VIHAR KRISTINA - ZOBNA AMBULANTA,OE LJUBLJANA,Glonarjeva ulica 4,1000 Ljubljana,Ljubljana,Ljubljana,46.04965,14.52687
551,"VISAMA, ZDRAVSTVO, STORITVE IN IZOBRAŽEVANJE, D.O.O.",IZPOSTAVA PTUJ,Videm pri Ptuju 51,2284 Videm pri Ptuju,Videm pri Ptuju,Videm,46.36906,15.90255
552,"VITA ET SOL DRUŽBA ZA ZDRAVSTVO, STORITVE, POSREDNIŠTVO, TRGOVINO IN GOSTINSTVO D.O.O.",IZPOSTAVA SLOVENSKA BISTRICA,Devinska ulica 11,2310 Slovenska Bistrica,Slovenska Bistrica,Slovenska Bistrica,46.39787,15.57986
553,"VITA MAR, SOCIALNO ZDRAVSTVENE STORITVE, TRGOVINA IN POSREDNIŠTVO D.O.O.",IZPOSTAVA GORNJA RADGONA,Panonska cesta 17,9252 Radenci,Radenci,Radenci,46.64428,16.03994
554,"VITALIJA, AMBULANTA SPLOŠNE MEDICINE, D.O.O., KRANJ",OE KRANJ,Gosposvetska ulica 10A,4000 Kranj,Kranj,Kranj,46.24862,14.35322
555,"VITANA, ZOBOZDRAVSTVENA DEJAVNOST D.O.O. IZLAKE",IZPOSTAVA ZAGORJE,Izlake 13,1411 Izlake,Izlake,Zagorje ob Savi,46.1554,14.92923
556,"VOMED, ZDRAVSTVENE STORITVE, D.O.O.",IZPOSTAVA ŠMARJE PRI JELŠAH,Ob progi 3,3250 Rogaška Slatina,Rogaška Slatina,Rogaška Slatina,46.24403,15.62204
557,VRAN MOJCA DR. DENT. MED. ZASEBNA ZOBNA ORDINACIJA,OE LJUBLJANA,Cesta na Brdo 43,1000 Ljubljana,Ljubljana,Ljubljana,46.04527,14.4712
558,VRANKIČ ZOBOZDRAVSTVO IN HIPNOTERAPIJA D.O.O.,OE CELJE,Keršova ulica 1,3212 Vojnik,Vojnik,Vojnik,46.29133,15.30397
559,"VURCER, ZOBOZDRAVSTVENE STORITVE D.O.O.",IZPOSTAVA GORNJA RADGONA,Mladinska ulica 18,9252 Radenci,Radenci,Radenci,46.64462,16.03732
560,"WAHIBI ZDRAVSTVENE STORITVE, TRGOVINA D.O.O.",OE CELJE,Celjska cesta 26,3212 Vojnik,Vojnik,Vojnik,46.29015,15.30205
561,ZAJC KRAŠEVEC MOJCA - ZASEBNA ORDINACIJA,IZPOSTAVA DOMŽALE,Mestni trg 2,1230 Domžale,Domžale,Domžale,46.13975,14.59617
562,ZAJŠEK PETER - ZOBOZDRAVSTVO,IZPOSTAVA RADOVLJICA,Mladinska cesta 1,4260 Bled,Bled,Bled,46.3714,14.10909
563,ZALIVKA DRUŽBA ZA ZOBOZDRAVSTVENO DEJAVNOST D.O.O,IZPOSTAVA PTUJ,Krekova ulica 14A,2000 Maribor,Maribor,Maribor,46.56236,15.64548
564,ZAPLATIL JANA - ZOBNA ORDINACIJA,OE LJUBLJANA,V Kladeh 9,1000 Ljubljana,Ljubljana,Ljubljana,46.10876,14.4593
565,ZAPLOTNIK KRALJ KSENIJA ZASEBNA ZOBNA ORDINACIJA,IZPOSTAVA TRŽIČ,Begunjska cesta 2,4290 Tržič,Bistrica pri Tržiču,Tržič,46.35659,14.29278
566,ZASEBNA AMBULANTA - MOJ PEDIATER MATJAŽ HOMŠAK,IZPOSTAVA LENART,Maistrova ulica 22,2230 Lenart v Slov. goricah,Lenart v Slov. goricah,Lenart,46.57734,15.82896
567,"ZASEBNA AMBULANTA AMNA SARAJLIĆ, DR. MED., SPEC. SPL. MED.",IZPOSTAVA HRASTNIK,Trg borcev NOB 13,1431 Dol pri Hrastniku,Dol pri Hrastniku,Hrastnik,46.14123,15.11613
568,"ZASEBNA AMBULANTA DRUŽINSKE MEDICINE - FRANC NOVAK, DR. MED., SPEC. SPLOŠNE MEDICINE, ORDINACIJA SPLOŠNE MEDICINE",IZPOSTAVA ZAGORJE,Cesta zmage 1,1410 Zagorje ob Savi,Zagorje ob Savi,Zagorje ob Savi,46.13384,14.9957
569,ZASEBNA AMBULANTA DRUŽINSKE MEDICINE BOJANA KALIŠNIK SUŠNIK DR.MED.,IZPOSTAVA TRŽIČ,Blejska cesta 10,4290 Tržič,Tržič,Tržič,46.36361,14.30654
570,ZASEBNA AMBULANTA DRUŽINSKE MEDICINE DR. DAVORIN KOLARIĆ,IZPOSTAVA LJUTOMER,Šafarsko 24D,9246 Razkrižje,Šafarsko,Razkrižje,46.52012,16.28685
571,"ZASEBNA AMBULANTA DRUŽINSKE MEDICINE IRENA VESTER, DR. MED., SPEC. DRUŽ. MED.",OE NOVO MESTO,Šmarjeta 66,8220 Šmarješke Toplice,Šmarjeta,Šmarješke Toplice,45.88826,15.24703
572,"ZASEBNA AMBULANTA DRUŽINSKE MEDICINE, IVAN MITROVIĆ. DR. MED. SPEC.",IZPOSTAVA LENART,Kremberk 36A,2233 Sv. Ana v Slov. goricah,Kremberk,Sveta Ana,46.64786,15.8425
573,"ZASEBNA AMBULANTA MARJETA MAROŠA MEOLIC, DR. MED., SPEC. PEDIATER",OE MURSKA SOBOTA,Ulica Zorana Velnarja 2,9000 Murska Sobota,Murska Sobota,Murska Sobota,46.65481,16.15333
574,"ZASEBNA AMBULANTA POLONA SAGADIN, DR. MED., SPEC. DRUŽINSKE MEDICINE",IZPOSTAVA ŽALEC,Glavni trg 15,3313 Polzela,Polzela,Polzela,46.2795,15.07495
575,"ZASEBNA AMBULANTA ROJ, DR.MED., SPLOŠNA MEDICINA, MEDICINA DELA, PROMETA IN ŠPORTA, LEPOTNI SALON HARMONIJA, D.O.O.",IZPOSTAVA SLOVENSKA BISTRICA,Mroževa ulica 3,2310 Slovenska Bistrica,Slovenska Bistrica,Slovenska Bistrica,46.39615,15.55526
576,"ZASEBNA AMBULANTA SPLOŠNE IN DRUŽINSKE MEDICINE OPLOTNICA MIRAN ARBEITER, DR. MED., SPEC. SPL. MED.",IZPOSTAVA SLOVENSKA BISTRICA,Ulica Pohorskega bataljona 11,2317 Oplotnica,Oplotnica,Oplotnica,46.38817,15.44733
577,"ZASEBNA AMBULANTA SPLOŠNE MEDICINE ERIKA FAGANEL BAVCON, DR.MED. SPEC.SPL.MED.",OE NOVA GORICA,Cesta Prekomorskih brigad 25,5290 Šempeter pri Gorici,Šempeter pri Gorici,Šempeter-Vrtojba,45.93053,13.63792
578,ZASEBNA AMBULANTA SPLOŠNE MEDICINE FRAM IRENA STROJNIK DR. MED. SPEC. SPLOŠNE MEDICINE,OE MARIBOR,Cafova ulica 1,2313 Fram,Fram,Rače-Fram,46.45644,15.62696
579,"ZASEBNA AMBULANTA SPLOŠNE MEDICINE MAJDA ŽAGAR, DR. MED.",IZPOSTAVA VRHNIKA,Mejačeva ulica 3,1353 Borovnica,Borovnica,Borovnica,45.91998,14.36563
580,"ZASEBNA AMBULANTA SPLOŠNE MEDICINE MARIJA MUNDA, DR. MED.",IZPOSTAVA VRHNIKA,Mejačeva ulica 3,1353 Borovnica,Borovnica,Borovnica,45.91998,14.36563
581,"ZASEBNA AMBULANTA SPLOŠNE MEDICINE MARTINA HROVAT, DR.MED.SPEC.SPL.MED.",IZPOSTAVA ŽALEC,Glavni trg 15,3313 Polzela,Polzela,Polzela,46.2795,15.07495
582,"ZASEBNA AMBULANTA SPLOŠNE MEDICINE METKA FIŠER ZOBOVIČ, DR. MED., SPECIALIST SPLOŠNE MEDICINE",OE MARIBOR,Gornji trg 37,2344 Lovrenc na Pohorju,Lovrenc na Pohorju,Lovrenc na Pohorju,46.5378,15.38462
583,"ZASEBNA AMBULANTA SPLOŠNE MEDICINE S KONCESIJO, DR. SPLOŠNE MEDICINE ROBERT RELJIČ",OE NOVA GORICA,Cesta Prekomorskih brigad 25,5290 Šempeter pri Gorici,Šempeter pri Gorici,Šempeter-Vrtojba,45.93053,13.63792
584,"ZASEBNA AMBULANTA SPLOŠNE MEDICINE SLAVKO JERNEJŠEK, DR.MED., SPECIALIST SPLOŠNE MEDICINE",IZPOSTAVA ŽALEC,Glavni trg 15,3313 Polzela,Polzela,Polzela,46.2795,15.07495
585,"ZASEBNA AMBULANTA SPLOŠNE MEDICINE STANE PTIČAR, DR.MED.",IZPOSTAVA LITIJA,Ponoviška cesta 6,1270 Litija,Litija,Litija,46.05833,14.82866
586,"ZASEBNA AMBULANTA SPLOŠNE MEDICINE TANJA PTIČAR, DR.MED.",IZPOSTAVA LITIJA,Ponoviška cesta 6,1270 Litija,Litija,Litija,46.05833,14.82866
587,"ZASEBNA AMBULANTA SPLOŠNE MEDICINE ŠPIRO STANIVUK, S.P.",IZPOSTAVA RADLJE OB DRAVI,Mariborska cesta 37,2360 Radlje ob Dravi,Radlje ob Dravi,Radlje ob Dravi,46.61372,15.23075
588,"ZASEBNA AMBULANTA SPLOŠNE MEDICINE, LJILJANA TODOROVIĆ POPOVIĆ, DR. MED. SPEC., S.P.",IZPOSTAVA RADLJE OB DRAVI,Glavni trg 47,2366 Muta,Muta,Muta,46.61055,15.16488
589,"ZASEBNA AMBULANTA SPLOŠNE MEDICINE, TANJA PAVLOVIĆ, DR. MED., SPEC. SPL. MEDICINE",IZPOSTAVA SLOVENSKA BISTRICA,Partizanska ulica 30,2310 Slovenska Bistrica,Slovenska Bistrica,Slovenska Bistrica,46.39552,15.56233
590,"ZASEBNA AMBULANTA SPLOŠNE MEDICINE, TROJNAR BUDAK IRENA, DR. MED.",IZPOSTAVA GORNJA RADGONA,Panonska cesta 15,9252 Radenci,Radenci,Radenci,46.64352,16.03964
591,ZASEBNA AMBULANTA TATJANA TISOVIC RUS DR. MED.,IZPOSTAVA SLOVENSKE KONJICE,Kovaška cesta 22,3214 Zreče,Zreče,Zreče,46.37959,15.38343
592,ZASEBNA AMBULANTA VLASTA GRABAR,OE MURSKA SOBOTA,Lendavska ulica 17A,9000 Murska Sobota,Murska Sobota,Murska Sobota,46.66438,16.16739
593,"ZASEBNA AMBULANTA ZA SPLOŠNO MEDICINO IN AKUPUNKTURO, FÜRST KARMEN, DR. MED.",IZPOSTAVA MOZIRJE,Savinjska cesta 6,3330 Mozirje,Mozirje,Mozirje,46.33885,14.95935
594,"ZASEBNA AMBULANTA ZVONIMIR CESAREC, DR. MED.",IZPOSTAVA LJUTOMER,Maistrova ulica 7,9241 Veržej,Veržej,Veržej,46.58358,16.16056
595,"ZASEBNA GINEKOLOŠKA ORDINACIJA , INGRID ŠEBÖK - SUKIČ, DR. MEDICINESPECIALISTKA GINEKOLOGIJE IN PORODNIŠTVA",OE MURSKA SOBOTA,Ulica Staneta Rozmana 16,9000 Murska Sobota,Murska Sobota,Murska Sobota,46.66145,16.16862
596,ZASEBNA ORDINACIJA DR. JADEK D.O.O.,OE CELJE,Cankarjeva ulica 6,3000 Celje,Celje,Celje,46.22964,15.26602
597,"ZASEBNA ORDINACIJA DRUŽINSKE MEDICINE MARJETKA BLAŽEVIĆ, DR.MED.,SPEC.SPL.MED.",IZPOSTAVA BREŽICE,Černelčeva cesta 8,8250 Brežice,Brežice,Brežice,45.90811,15.59415
598,"ZASEBNA OTROŠKA AMBULANTA KOROŠEC KANIČ ZDENKA, DR. MED., SPEC.PEDIATER",OE MURSKA SOBOTA,Lendavska ulica 17A,9000 Murska Sobota,Murska Sobota,Murska Sobota,46.66438,16.16739
599,"ZASEBNA OTROŠKA IN ŠOLSKA AMBULANTA MOJCA IVANKOVIČ KACJAN, DR. MED., SPEC. PEDIATRIJE",IZPOSTAVA LENART,Maistrova ulica 22,2230 Lenart v Slov. goricah,Lenart v Slov. goricah,Lenart,46.57734,15.82896
600,"ZASEBNA PEDIATRIČNA AMBULANTA DAMIR DABRANIN, DR.MED., SPECIALIST PEDIATER",IZPOSTAVA SLOVENSKE KONJICE,Mestni trg 17,3210 Slovenske Konjice,Slovenske Konjice,Slovenske Konjice,46.33998,15.42862
601,ZASEBNA PEDIATRIČNA ORDINACIJA DOMAGOJ PUŽEVSKI DR.MED.SPEC.PEDIATRIJE,OE KRŠKO,Cesta krških žrtev 132C,8270 Krško,Krško,Krško,45.94307,15.48349
602,"ZASEBNA PEDIATRIČNA ORDINACIJA IVAN KAUZLARIĆ, DR. MED. SPEC. PEDIATRIJE IN ŠOLSKE MEDICINE",IZPOSTAVA ILIRSKA BISTRICA,Gregorčičeva cesta 8,6250 Ilirska Bistrica,Ilirska Bistrica,Ilirska Bistrica,45.56848,14.24324
603,ZASEBNA PEDIATRIČNA ORDINACIJA SABINA ROZMAN GOLČAR DR. MED. SPEC. PED.,OE MARIBOR,Stadionska ulica 2,2342 Ruše,Ruše,Ruše,46.54266,15.50658
604,ZASEBNA SPECIALISTIČNA SPLOŠNA ORDINACIJA VOJKA KOSTEVC S.P.,OE LJUBLJANA,Savska cesta 10,1000 Ljubljana,Ljubljana,Ljubljana,46.06433,14.52589
605,"ZASEBNA SPLOŠNA AMBULANTA - SABINA REZAR, DR.MED.",IZPOSTAVA ŽALEC,Šmartno ob Paki 146B,3327 Šmartno ob Paki,Šmartno ob Paki,Šmartno ob Paki,46.33,15.03759
606,"ZASEBNA SPLOŠNA AMBULANTA ALEŠ BLAZNIK, DR.MED. D.O.O.",OE CELJE,Ob Koprivnici 81,3000 Celje,Celje,Celje,46.24988,15.25196
607,"ZASEBNA SPLOŠNA AMBULANTA IRENA MAJCEN, DR. MED., SPECIALISTKA DRUŽINSKE MEDICINE",IZPOSTAVA ŽALEC,Graščinska cesta 11,3312 Prebold,Prebold,Prebold,46.23604,15.09094
608,"ZASEBNA SPLOŠNA AMBULANTA NOVAK, JASNA NOVAK, DR.MED.",OE KOPER,Obrtniška ulica 30,6000 Koper - Capodistria,Koper,Koper,45.53069,13.73563
609,"ZASEBNA SPLOŠNA AMBULANTA SILVANA POPOV, DR. MED., SPEC. SPL. MED.",IZPOSTAVA SLOVENSKA BISTRICA,Makole 28,2321 Makole,Makole,Makole,46.31735,15.66729
610,"ZASEBNA SPLOŠNA ORDINACIJA - BOJAN RIBIČ, DR.MED., SPECIALIST SPLOŠNE MEDICINE",IZPOSTAVA SLOVENSKE KONJICE,Na vasi 11,3205 Vitanje,Vitanje,Vitanje,46.38261,15.29604
611,"ZASEBNA SPLOŠNA ORDINACIJA MARJAN BERGINC, DR. MED.",IZPOSTAVA SLOVENSKE KONJICE,Mestni trg 17,3210 Slovenske Konjice,Slovenske Konjice,Slovenske Konjice,46.33998,15.42862
612,"ZASEBNA SPLOŠNA PRAKSA LEONARDA PIRMANŠEK, DR. MED.",IZPOSTAVA SLOVENJ GRADEC,Šolska cesta 55,2382 Mislinja,Mislinja,Mislinja,46.44475,15.19541
613,"ZASEBNA ZDRAVNIŠKA ORDINACIJA ANDREJ KRAVOS, DR.MED., SPECIALIST SPLOŠNE MEDICINE",IZPOSTAVA ŽALEC,Prešernova ulica 6,3310 Žalec,Žalec,Žalec,46.25093,15.16216
614,"ZASEBNA ZDRAVNIŠKA ORDINACIJA BRIGITA ARTIČEK MESAREC DR.MED., SPECIALISTKA SPLOŠNE MEDICINE",IZPOSTAVA ŽALEC,Prešernova ulica 6,3310 Žalec,Žalec,Žalec,46.25093,15.16216
615,"ZASEBNA ZDRAVNIŠKA ORDINACIJA PETER STROUHAL, DR. MED. SPECIALIST SPLOŠNE MEDICINE",IZPOSTAVA ŽALEC,Prešernova ulica 6,3310 Žalec,Žalec,Žalec,46.25093,15.16216
616,"ZASEBNA ZDRAVSTVENA AMBULANTA SONCE MATJAŽ ROŽENBERGAR, DR. MED. SPEC. SPLOŠNE MEDICINE",OE NOVO MESTO,Kandijska cesta 4,8000 Novo mesto,Novo mesto,Novo mesto,45.80129,15.1627
617,"ZASEBNA ZDRAVSTVENA AMBULANTA SPLOŠNE MEDICINE NATALIJA ŠKUFCA SREBRNJAK, DR. MED., SPEC. SPL. MED.",OE NOVO MESTO,Kandijska cesta 4,8000 Novo mesto,Novo mesto,Novo mesto,45.80129,15.1627
618,ZASEBNA ZDRAVSTVENA AMBULANTA VERA RUPEL DR. MED.,IZPOSTAVA ŽALEC,Graščinska cesta 11,3312 Prebold,Prebold,Prebold,46.23604,15.09094
619,"ZASEBNA ZDRAVSTVENA AMBULANTA ZORICA MILIĆ, DR. MED. SPEC. DRUŽINSKE MEDICINE",OE NOVO MESTO,Kandijska cesta 4,8000 Novo mesto,Novo mesto,Novo mesto,45.80129,15.1627
620,"ZASEBNA ZOBNA AMBULANTA - ALEKSANDRA ŠRAMEL, DR. DENT. MED.",IZPOSTAVA ŠMARJE PRI JELŠAH,Rogaška cesta 21,3240 Šmarje pri Jelšah,Šmarje pri Jelšah,Šmarje pri Jelšah,46.22985,15.52162
621,ZASEBNA ZOBNA AMBULANTA - DARINKA JUHART,IZPOSTAVA SLOVENSKE KONJICE,Mestni trg 17,3210 Slovenske Konjice,Slovenske Konjice,Slovenske Konjice,46.33998,15.42862
622,"ZASEBNA ZOBNA AMBULANTA ALBINA ŽIŽEK, DR. DENT. MED.",IZPOSTAVA PTUJ,Destrnik 9,2253 Destrnik,Destrnik,Destrnik,46.49296,15.87572
623,"ZASEBNA ZOBNA AMBULANTA ALEKSANDRA FABJAN, DR.DENT.MED.",OE CELJE,Gregorčičeva ulica 5,3000 Celje,Celje,Celje,46.23224,15.26227
624,"ZASEBNA ZOBNA AMBULANTA ALENKA MANDIĆ, DR.DENT.MED.",OE CELJE,Gregorčičeva ulica 5,3000 Celje,Celje,Celje,46.23224,15.26227
625,ZASEBNA ZOBNA AMBULANTA BORIS FEKONJA DR.DENT.MED.,OE KRŠKO,Šolska ulica 1,8270 Krško,Krško,Krško,45.95989,15.49411
626,"ZASEBNA ZOBNA AMBULANTA DANICA AUŽNER ŠKORJANC, DR.DENT.MED.",OE CELJE,Gregorčičeva ulica 5,3000 Celje,Celje,Celje,46.23224,15.26227
627,ZASEBNA ZOBNA AMBULANTA KIRIL KORNAKOV DR.DENT.MED.,OE MURSKA SOBOTA,Ulica dr. Vrbnjaka 1,9000 Murska Sobota,Rakičan,Murska Sobota,46.65007,16.19052
628,"ZASEBNA ZOBNA AMBULANTA MARKO KOSMAČ, DR.DENT.MED.",IZPOSTAVA AJDOVŠČINA,Glavni trg 16C,5271 Vipava,Vipava,Vipava,45.846,13.96138
629,"ZASEBNA ZOBNA AMBULANTA MIRJAM BRAJNIK, DR.DENT.MED.",IZPOSTAVA IZOLA,Ulica oktobrske revolucije 11,6310 Izola - Isola,Izola,Izola,45.53464,13.66078
630,"ZASEBNA ZOBNA AMBULANTA NIKOLA POTOČNIK, DR.DENT.MED.",IZPOSTAVA ŽALEC,Mestni trg 5,3310 Žalec,Žalec,Žalec,46.25295,15.1621
631,ZASEBNA ZOBNA AMBULANTA STRAHOVNIK MATEJ DR. DENT. MED.,IZPOSTAVA VELENJE,Vodnikova cesta 1,3320 Velenje,Velenje,Velenje,46.36151,15.11636
632,"ZASEBNA ZOBNA AMBULANTA VERŽEJ, ALENKA VIDOVIČ DR. DENT.MED.",IZPOSTAVA LJUTOMER,Maistrova ulica 7,9241 Veržej,Veržej,Veržej,46.58358,16.16056
633,ZASEBNA ZOBNA AMBULANTA ZA ODRASLE KELAIDIS GEORGE DR.DENT.MED.,OE RAVNE NA KOROŠKEM,Trg svobode 18A,2390 Ravne na Koroškem,Ravne na Koroškem,Ravne na Koroškem,46.54428,14.96559
634,ZASEBNA ZOBNA AMBULANTA ZA OTROKE IN MLADINO MARTINOVIĆ SLAĐANA DR. DENT. MED.,IZPOSTAVA POSTOJNA,Prečna ulica 3,6257 Pivka,Pivka,Pivka,45.68385,14.19357
635,"ZASEBNA ZOBNA AMBULANTA ZA OTROKE IN MLADINO MOJCA DREV, DR.DENT.MED.",OE CELJE,Gregorčičeva ulica 5,3000 Celje,Celje,Celje,46.23224,15.26227
636,"ZASEBNA ZOBNA AMBULANTA ZORAN RIBIČ, DR.DENT.MED.",IZPOSTAVA PTUJ,Dornava 135A,2252 Dornava,Dornava,Dornava,46.43405,15.95139
637,ZASEBNA ZOBNA AMBULANTA ČEDOMIR CESAREC DR. DENT. MED,IZPOSTAVA ŠMARJE PRI JELŠAH,Celjska cesta 14,3240 Šmarje pri Jelšah,Šmarje pri Jelšah,Šmarje pri Jelšah,46.22925,15.5163
638,"ZASEBNA ZOBNA AMBULANTA, GORAN ŠALKOVIĆ DR. DENT. MED, S.P.",IZPOSTAVA TRŽIČ,Blejska cesta 10,4290 Tržič,Tržič,Tržič,46.36361,14.30654
639,"ZASEBNA ZOBNA AMBULANTA, SAŠA DOLAR, S.P.",IZPOSTAVA ŽALEC,Graščinska cesta 11,3312 Prebold,Prebold,Prebold,46.23604,15.09094
640,ZASEBNA ZOBNA ORDINACIJA - BISERKA CAVRIĆ DR.STOMATOLOG,IZPOSTAVA SEVNICA,Krmelj 53,8296 Krmelj,Krmelj,Sevnica,45.98651,15.18517
641,ZASEBNA ZOBNA ORDINACIJA - BOJANA DEBELJAK DANIELOV DR. DENT. MED.,IZPOSTAVA ŠMARJE PRI JELŠAH,Celjska cesta 10,3250 Rogaška Slatina,Rogaška Slatina,Rogaška Slatina,46.23916,15.6342
642,"ZASEBNA ZOBNA ORDINACIJA DAVID VIZJAK, DR. DENT. MED.",IZPOSTAVA ŽALEC,Glavni trg 15,3313 Polzela,Polzela,Polzela,46.2795,15.07495
643,ZASEBNA ZOBNA ORDINACIJA DENTI MARJAN JOŽEF DR. DENT. MED.,OE NOVO MESTO,Kandijska cesta 4,8000 Novo mesto,Novo mesto,Novo mesto,45.80129,15.1627
644,ZASEBNA ZOBNA ORDINACIJA DR. GAVRAN RENATA,OE LJUBLJANA,Linhartova cesta 51,1000 Ljubljana,Ljubljana,Ljubljana,46.0667,14.52411
645,"ZASEBNA ZOBNA ORDINACIJA DROFENIK MARKO JOŽEF, DRUŽBA ZA ZOBOZDRAVSTVENE STORITVE IN SVETOVANJE D.O.O.",OE MARIBOR,Vrbanska cesta 35,2000 Maribor,Maribor,Maribor,46.56527,15.63387
646,ZASEBNA ZOBNA ORDINACIJA EMILIJA ŽIVKOVIĆ DR.DENT.MED.,OE RAVNE NA KOROŠKEM,Ob Suhi 11,2390 Ravne na Koroškem,Ravne na Koroškem,Ravne na Koroškem,46.54286,14.96765
647,"ZASEBNA ZOBNA ORDINACIJA GREGOR MAVČIČ, DR. DENT. MED.",OE KRANJ,Gosposvetska ulica 10B,4000 Kranj,Kranj,Kranj,46.24826,14.35331
648,"ZASEBNA ZOBNA ORDINACIJA HELENA KONOBELJ, DR. DENT. MED.",IZPOSTAVA JESENICE,Cesta maršala Tita 78,4270 Jesenice,Jesenice,Jesenice,46.44,14.04461
649,ZASEBNA ZOBNA ORDINACIJA LEONID ŠOLINC DR.DENT.MED.,IZPOSTAVA TRBOVLJE,Rudarska cesta 12,1420 Trbovlje,Trbovlje,Trbovlje,46.1551,15.04796
650,"ZASEBNA ZOBNA ORDINACIJA NADJA JUDEŽ, DR.DENT.MED.",OE NOVO MESTO,Šmarješka cesta 4,8000 Novo mesto,Novo mesto,Novo mesto,45.81476,15.178
651,"ZASEBNA ZOBNA ORDINACIJA NUŠA ZADEL, DR. DENT. MED.",OE LJUBLJANA,Slovenska cesta 17,1354 Horjul,Horjul,Horjul,46.02461,14.29536
652,"ZASEBNA ZOBNA ORDINACIJA POVŠE ZLATKO, DR. DENT. MED.",OE NOVO MESTO,Jurčičeva ulica 32,8360 Žužemberk,Žužemberk,Žužemberk,45.83205,14.93017
653,ZASEBNA ZOBNA ORDINACIJA TODOROVIĆ DRAGAN DR.STOM.,IZPOSTAVA TOLMIN,Gregorčičeva ulica 17,5222 Kobarid,Kobarid,Kobarid,46.2474,13.58074
654,"ZASEBNA ZOBNA ORDINACIJA VLADIMIR KRAMBERGER, DR. DENT.MED.",OE MURSKA SOBOTA,Mladinska ulica 10,9000 Murska Sobota,Bakovci,Murska Sobota,46.61794,16.14409
655,"ZASEBNA ZOBNA ORDINACIJA, NIKO VRABL, DR.DENT.MED.",IZPOSTAVA ŽALEC,Prešernova ulica 6,3310 Žalec,Žalec,Žalec,46.25093,15.16216
656,"ZASEBNA ZOBOZDRAVNICA DAMJANA KELAIDIS, DR.DENT.MED.",OE RAVNE NA KOROŠKEM,Trg svobode 18A,2390 Ravne na Koroškem,Ravne na Koroškem,Ravne na Koroškem,46.54428,14.96559
657,"ZASEBNA ZOBOZDRAVNIŠKA ORDINACIJA ZA ODRASLE ALOJZ RENČELJ, DR.DENT.MED",OE KRANJ,Gosposvetska ulica 10A,4000 Kranj,Kranj,Kranj,46.24862,14.35322
658,"ZASEBNA ZOBOZDRAVSTVENA AMBULANTA - BARBARA PIRHER, DR. DENT. MED.",IZPOSTAVA LJUTOMER,Križevci pri Ljutomeru 1B,9242 Križevci pri Ljutomeru,Križevci pri Ljutomeru,Križevci,46.56093,16.14015
659,"ZASEBNA ZOBOZDRAVSTVENA AMBULANTA JUDITA KIŠ ZUPANC, DR.DENT.MED.",OE CELJE,Gregorčičeva ulica 5,3000 Celje,Celje,Celje,46.23224,15.26227
660,"ZASEBNA ZOBOZDRAVSTVENA AMBULANTA VESNA FUŽIR URBANČIČ, DR.DENT.MED.",OE LJUBLJANA,Videm 17C,1262 Dol pri Ljubljani,Videm,Dol pri Ljubljani,46.08608,14.63269
661,"ZASEBNA ZOBOZDRAVSTVENA ORDINACIJA JANKA GORENEC, DR. DENT. MED.",OE NOVO MESTO,Kandijska cesta 4,8000 Novo mesto,Novo mesto,Novo mesto,45.80129,15.1627
662,"ZASEBNA ZOBOZDRAVSTVENA ORDINACIJA NATAŠA DAJOVIĆ, DR. DENT. MED.",IZPOSTAVA TREBNJE,Kidričeva ulica 11,8210 Trebnje,Trebnje,Trebnje,45.90991,15.00628
663,"ZASEBNA ZOBOZDRAVSTVENA ORDINACIJA RENATA OSTANEK ULE, DR. DENT. MED.",OE NOVO MESTO,Kandijska cesta 4,8000 Novo mesto,Novo mesto,Novo mesto,45.80129,15.1627
664,ZASEBNA ZOBOZDRAVSTVENA ORDINACIJA SERGEJ OLUJIĆ,OE LJUBLJANA,Litijska cesta 38,1000 Ljubljana,Ljubljana,Ljubljana,46.04733,14.54543
665,ZASEBNA ZOBOZDRAVSTVENA ORDINACIJA VELIMIR KLARIĆ DR. DENT. MED.,IZPOSTAVA CERKNICA,Cesta 4. maja 17,1380 Cerknica,Cerknica,Cerknica,45.79122,14.36578
666,"ZASEBNA ZOBOZDRAVSTVENA ORDINACIJA ZA ODRASLE IN MLADINO SAMO SPETIČ, DR. DENT. MED.",IZPOSTAVA ILIRSKA BISTRICA,Podgrad 12B,6244 Podgrad,Podgrad,Ilirska Bistrica,45.52063,14.14665
667,"ZASEBNA ZOBOZDRAVSTVENA ORDINACIJA ZVONKO ROMOZI, DR. DENT. MED.",IZPOSTAVA TREBNJE,Obrtniška ulica 6,8210 Trebnje,Trebnje,Trebnje,45.90719,15.02266
668,ZASEBNA ŠOLSKA IN MLADINSKA ZOBNA AMBULANTA BEDENE ZVEZDANA - DR. DENTALNE MEDICINE,OE KOPER,Pot v gaj 2,6000 Koper - Capodistria,Koper,Koper,45.54423,13.71155
669,"ZASEBNI ZDRAVSTVENI ZAVOD A MEDICINA, DRUŽINSKA MEDICINA",IZPOSTAVA VELENJE,Trg Jožeta Lampreta 1,3325 Šoštanj,Šoštanj,Šoštanj,46.37648,15.0485
670,ZASEBNI ZDRAVSTVENI ZAVOD BOSSMAN PETER,OE KOPER,Vojkovo nabrežje 32,6000 Koper - Capodistria,Koper,Koper,45.54807,13.73774
671,"ZASEBNI ZDRAVSTVENI ZAVOD BRUNO VOJNOVIĆ, DR.DENT.MED., ZOBOZDRAVSTVENA DEJAVNOST",IZPOSTAVA RADOVLJICA,Kopališka cesta 7,4240 Radovljica,Radovljica,Radovljica,46.34702,14.17201
672,"ZASEBNI ZDRAVSTVENI ZAVOD LILJANA KRIVEC SKRT, DR. MED.",IZPOSTAVA RADOVLJICA,Cesta svobode 47A,4260 Bled,Bled,Bled,46.35838,14.09453
673,ZASEBNI ZDRAVSTVENI ZAVOD MARC,OE KOPER,Vojkovo nabrežje 32,6000 Koper - Capodistria,Koper,Koper,45.54807,13.73774
674,ZASEBNI ZDRAVSTVENI ZAVOD PEŠIĆ - IZOLA,IZPOSTAVA IZOLA,Ulica oktobrske revolucije 11,6310 Izola - Isola,Izola,Izola,45.53464,13.66078
675,"ZASEBNI ZOBOZDRAVSTVENI ZAVOD, LAPČEVIČ VLADO, DR.DENT.MED.",IZPOSTAVA JESENICE,Cesta maršala Tita 78,4270 Jesenice,Jesenice,Jesenice,46.44,14.04461
676,"ZASEBNI ŠOLSKI DISPANZER JELKA HOSTNIK, DR. MED., SPEC. ŠOL. MED.",OE KRANJ,Gosposvetska ulica 10,4000 Kranj,Kranj,Kranj,46.2489,14.35325
677,"ZATE, ZOBNA AMBULANTA IN DRUGE STORITVE, D.O.O.",OE MARIBOR,Železnikova ulica 4,2000 Maribor,Maribor,Maribor,46.55037,15.66738
678,"ZAVOD RR ŠKOFJA LOKA, ZASEBNI ZDRAVSTVENI ZAVOD",IZPOSTAVA ŠKOFJA LOKA,Stara cesta 10,4220 Škofja Loka,Škofja Loka,Škofja Loka,46.16618,14.31281
679,ZAVOD ZA ZDRAVSTVENE DEJAVNOSTI IN SVETOVANJE - EVITA,IZPOSTAVA CERKNICA,Cesta pod Slivnico 21,1380 Cerknica,Cerknica,Cerknica,45.79663,14.36783
680,ZAVODNIK KRUPENKO TATJANA - ZASEBNA SPLOŠNA ORDINACIJA,OE LJUBLJANA,Tržna ulica 3,1000 Ljubljana,Ljubljana,Ljubljana,46.06421,14.49368
681,ZD LJUBLJANA - BEŽIGRAD,OE LJUBLJANA,Kržičeva ulica 10,1000 Ljubljana,Ljubljana,Ljubljana,46.06465,14.51105
682,ZD LJUBLJANA - CENTER,OE LJUBLJANA,Metelkova ulica 9,1000 Ljubljana,Ljubljana,Ljubljana,46.05658,14.51516
683,ZD LJUBLJANA - MOSTE - POLJE,OE LJUBLJANA,Prvomajska ulica 5,1000 Ljubljana,Ljubljana,Ljubljana,46.05588,14.53132
684,ZD LJUBLJANA - VIČ - RUDNIK,OE LJUBLJANA,Šestova ulica 10,1000 Ljubljana,Ljubljana,Ljubljana,46.04631,14.48719
685,ZD LJUBLJANA - ŠENTVID,OE LJUBLJANA,Ob zdravstvenem domu 1,1210 Ljubljana - Šentvid,Ljubljana,Ljubljana,46.09856,14.4649
686,ZD LJUBLJANA - ŠIŠKA,OE LJUBLJANA,Derčeva ulica 5,1000 Ljubljana,Ljubljana,Ljubljana,46.06846,14.488
687,"ZDRAV SLOG, DRUŽBA ZA ZDRAVSTVENE STORITVE IN SVETOVANJE D.O.O.",OE MARIBOR,Pesnica pri Mariboru 42C,2211 Pesnica pri Mariboru,Pesnica pri Mariboru,Pesnica,46.60846,15.67654
688,ZDRAV ZOB ZOBOZDRAVSTVENI ZAVOD,IZPOSTAVA PTUJ,Juršinci 3,2256 Juršinci,Juršinci,Juršinci,46.48566,15.96784
689,"ZDRAVI ZOBJE, ZDRAVSTVENE STORITVE IN IZOBRAŽEVANJE, D.O.O.",OE MARIBOR,Ulica heroja Nandeta 37,2000 Maribor,Maribor,Maribor,46.5331,15.67376
690,"ZDRAVJE - DRUŽINSKA MEDICINA, IVAN URBANC, S.P.",IZPOSTAVA VELENJE,Florjan 165C,3325 Šoštanj,Florjan,Šoštanj,46.38507,15.02767
691,ZDRAVJE FIT MEDICINSKI CENTER ZDRAVNIK D.O.O.,IZPOSTAVA GROSUPLJE,Triglavska ulica 6,1000 Ljubljana,Ljubljana,Ljubljana,46.07328,14.50934
692,"ZDRAVJE METKA IN BRANIMIR, ZDRAVSTVENE DEJAVNOSTI IN STORITVE, D.O.O.",OE KOPER,Kolomban 38F,6280 Ankaran - Ancarano,Kolomban,Koper,45.58875,13.74737
693,ZDRAVJE ZDRAVSTVENE STORITVE IN SVETOVANJE D.O.O.,IZPOSTAVA POSTOJNA,Ulica padlih borcev 22,6258 Prestranek,Prestranek,Postojna,45.72884,14.18469
694,"ZDRAVSTVENA ORDINACIJA ""DR. ŠOLMAN"", ZDRAVSTVENE STORITVE, D.O.O.",IZPOSTAVA PTUJ,Rogozniška cesta 32A,2250 Ptuj,Ptuj,Ptuj,46.426,15.88643
695,ZDRAVSTVENI CENTER DRAVLJE D.O.O.,OE LJUBLJANA,Cesta na Poljane 24,1210 Ljubljana - Šentvid,Ljubljana,Ljubljana,46.09337,14.47463
696,ZDRAVSTVENI CENTER LORENA D.O.O,OE LJUBLJANA,Dunajska cesta 405,1231 Ljubljana - Črnuče,Ljubljana,Ljubljana,46.10448,14.53545
697,ZDRAVSTVENI DOM AJDOVŠČINA,IZPOSTAVA AJDOVŠČINA,Tovarniška cesta 3,5270 Ajdovščina,Ajdovščina,Ajdovščina,45.88598,13.90542
698,ZDRAVSTVENI DOM BREŽICE,IZPOSTAVA BREŽICE,Černelčeva cesta 8,8250 Brežice,Brežice,Brežice,45.90811,15.59415
699,ZDRAVSTVENI DOM CELJE,OE CELJE,Gregorčičeva ulica 5,3000 Celje,Celje,Celje,46.23224,15.26227
700,ZDRAVSTVENI DOM DOMŽALE,IZPOSTAVA DOMŽALE,Mestni trg 2,1230 Domžale,Domžale,Domžale,46.13975,14.59617
701,ZDRAVSTVENI DOM DR. ADOLFA DROLCA MARIBOR,OE MARIBOR,Ulica talcev 9,2000 Maribor,Maribor,Maribor,46.55933,15.65183
702,ZDRAVSTVENI DOM DR. BOŽIDARJA LAVRIČA - CERKNICA,IZPOSTAVA CERKNICA,Cesta 4. maja 17,1380 Cerknica,Cerknica,Cerknica,45.79122,14.36578
703,"ZDRAVSTVENI DOM DR. FRANCA AMBROŽIČA, POSTOJNA",IZPOSTAVA POSTOJNA,Prečna ulica 2,6230 Postojna,Postojna,Postojna,45.77205,14.21042
704,ZDRAVSTVENI DOM DR. JANEZA ORAŽMA RIBNICA,IZPOSTAVA RIBNICA,Majnikova ulica 1,1310 Ribnica,Ribnica,Ribnica,45.74238,14.72596
705,ZDRAVSTVENI DOM DR. JOŽETA POTRATE ŽALEC,IZPOSTAVA ŽALEC,Prešernova ulica 6,3310 Žalec,Žalec,Žalec,46.25093,15.16216
706,ZDRAVSTVENI DOM DR. JULIJA POLCA KAMNIK,IZPOSTAVA KAMNIK,Novi trg 26,1241 Kamnik,Kamnik,Kamnik,46.22139,14.61328
707,ZDRAVSTVENI DOM DRAVOGRAD,OE RAVNE NA KOROŠKEM,Trg 4. julija 4,2370 Dravograd,Dravograd,Dravograd,46.58962,15.0247
708,ZDRAVSTVENI DOM GORNJA RADGONA,IZPOSTAVA GORNJA RADGONA,Partizanska cesta 40,9250 Gornja Radgona,Gornja Radgona,Gornja Radgona,46.6734,15.99302
709,ZDRAVSTVENI DOM GROSUPLJE,IZPOSTAVA GROSUPLJE,Pod gozdom cesta I 14,1290 Grosuplje,Grosuplje,Grosuplje,45.95943,14.65315
710,ZDRAVSTVENI DOM HRASTNIK,IZPOSTAVA HRASTNIK,Novi dom 11,1430 Hrastnik,Hrastnik,Hrastnik,46.1403,15.08513
711,ZDRAVSTVENI DOM IDRIJA,IZPOSTAVA IDRIJA,Ulica Otona Župančiča 3,5280 Idrija,Idrija,Idrija,46.0022,14.03036
712,ZDRAVSTVENI DOM ILIRSKA BISTRICA,IZPOSTAVA ILIRSKA BISTRICA,Gregorčičeva cesta 8,6250 Ilirska Bistrica,Ilirska Bistrica,Ilirska Bistrica,45.56848,14.24324
713,ZDRAVSTVENI DOM IVANČNA GORICA,IZPOSTAVA GROSUPLJE,Cesta 2. grupe odredov 16,1295 Ivančna Gorica,Ivančna Gorica,Ivančna Gorica,45.93759,14.80558
714,ZDRAVSTVENI DOM IZOLA,IZPOSTAVA IZOLA,Ulica oktobrske revolucije 11,6310 Izola - Isola,Izola,Izola,45.53464,13.66078
715,ZDRAVSTVENI DOM KOPER CASA DELLA SANITA CAPODISTRIA,OE KOPER,Dellavallejeva ulica 3,6000 Koper - Capodistria,Koper,Koper,45.5487,13.73094
716,ZDRAVSTVENI DOM KOČEVJE,IZPOSTAVA KOČEVJE,Roška cesta 18,1330 Kočevje,Kočevje,Kočevje,45.63938,14.86562
717,ZDRAVSTVENI DOM KRŠKO,OE KRŠKO,Cesta krških žrtev 132C,8270 Krško,Krško,Krško,45.94307,15.48349
718,ZDRAVSTVENI DOM LAŠKO,IZPOSTAVA LAŠKO,Kidričeva ulica 5B,3270 Laško,Laško,Laško,46.1545,15.2373
719,ZDRAVSTVENI DOM LENART,IZPOSTAVA LENART,Maistrova ulica 22,2230 Lenart v Slov. goricah,Lenart v Slov. goricah,Lenart,46.57734,15.82896
720,ZDRAVSTVENI DOM LENDAVA - EGESZSEGHAZ LENDVA,IZPOSTAVA LENDAVA,Kidričeva ulica 34,9220 Lendava - Lendva,Lendava,Lendava,46.55821,16.45692
721,ZDRAVSTVENI DOM LITIJA,IZPOSTAVA LITIJA,Partizanska pot 8A,1270 Litija,Litija,Litija,46.05389,14.83656
722,ZDRAVSTVENI DOM LJUTOMER,IZPOSTAVA LJUTOMER,Cesta I. slovenskega tabora 2,9240 Ljutomer,Ljutomer,Ljutomer,46.52172,16.19326
723,ZDRAVSTVENI DOM LOGATEC,IZPOSTAVA LOGATEC,Notranjska cesta 2,1370 Logatec,Logatec,Logatec,45.91681,14.22768
724,ZDRAVSTVENI DOM MEDVODE,OE LJUBLJANA,Ostrovrharjeva ulica 6,1215 Medvode,Medvode,Medvode,46.14535,14.4056
725,ZDRAVSTVENI DOM METLIKA,IZPOSTAVA METLIKA,Cesta bratstva in enotnosti 71,8330 Metlika,Metlika,Metlika,45.64848,15.31814
726,ZDRAVSTVENI DOM MURSKA SOBOTA,OE MURSKA SOBOTA,Grajska ulica 24,9000 Murska Sobota,Murska Sobota,Murska Sobota,46.66402,16.16066
727,ZDRAVSTVENI DOM NOVO MESTO,OE NOVO MESTO,Kandijska cesta 4,8000 Novo mesto,Novo mesto,Novo mesto,45.80129,15.1627
728,ZDRAVSTVENI DOM ORMOŽ,IZPOSTAVA ORMOŽ,Ulica dr. Hrovata 4,2270 Ormož,Ormož,Ormož,46.40724,16.14333
729,ZDRAVSTVENI DOM OSNOVNO VARSTVO NOVA GORICA,OE NOVA GORICA,Rejčeva ulica 4,5000 Nova Gorica,Nova Gorica,Nova Gorica,45.95794,13.64553
730,ZDRAVSTVENI DOM PIRAN POLIAMBULATORIO PIRANO,IZPOSTAVA PIRAN,Cesta solinarjev 1,6320 Portorož - Portorose,Lucija,Piran,45.50452,13.60205
731,ZDRAVSTVENI DOM PTUJ,IZPOSTAVA PTUJ,Potrčeva cesta 19A,2250 Ptuj,Ptuj,Ptuj,46.42513,15.87566
732,ZDRAVSTVENI DOM RADEČE,IZPOSTAVA LAŠKO,Ulica OF 8,1433 Radeče,Radeče,Radeče,46.06587,15.18065
733,ZDRAVSTVENI DOM RADLJE OB DRAVI,IZPOSTAVA RADLJE OB DRAVI,Mariborska cesta 37,2360 Radlje ob Dravi,Radlje ob Dravi,Radlje ob Dravi,46.61372,15.23075
734,ZDRAVSTVENI DOM RAVNE NA KOROŠKEM,OE RAVNE NA KOROŠKEM,Ob Suhi 11,2390 Ravne na Koroškem,Ravne na Koroškem,Ravne na Koroškem,46.54286,14.96765
735,ZDRAVSTVENI DOM SEVNICA,IZPOSTAVA SEVNICA,Trg svobode 14,8290 Sevnica,Sevnica,Sevnica,46.0106,15.30248
736,ZDRAVSTVENI DOM SEŽANA,IZPOSTAVA SEŽANA,Partizanska cesta 24,6210 Sežana,Sežana,Sežana,45.70858,13.87152
737,ZDRAVSTVENI DOM SLOVENJ GRADEC,IZPOSTAVA SLOVENJ GRADEC,Partizanska pot 16,2380 Slovenj Gradec,Slovenj Gradec,Slovenj Gradec,46.50693,15.08202
738,ZDRAVSTVENI DOM SLOVENSKA BISTRICA,IZPOSTAVA SLOVENSKA BISTRICA,Partizanska ulica 30,2310 Slovenska Bistrica,Slovenska Bistrica,Slovenska Bistrica,46.39552,15.56233
739,ZDRAVSTVENI DOM SLOVENSKE KONJICE,IZPOSTAVA SLOVENSKE KONJICE,Mestni trg 17,3210 Slovenske Konjice,Slovenske Konjice,Slovenske Konjice,46.33998,15.42862
740,ZDRAVSTVENI DOM TOLMIN,IZPOSTAVA TOLMIN,Prešernova ulica 6A,5220 Tolmin,Tolmin,Tolmin,46.18376,13.73472
741,"ZDRAVSTVENI DOM TRBOVLJE TRBOVLJE, RUDARSKA CESTA 12",IZPOSTAVA TRBOVLJE,Rudarska cesta 12,1420 Trbovlje,Trbovlje,Trbovlje,46.1551,15.04796
742,ZDRAVSTVENI DOM TREBNJE,IZPOSTAVA TREBNJE,Goliev trg 3,8210 Trebnje,Trebnje,Trebnje,45.9083,15.00666
743,ZDRAVSTVENI DOM VELENJE,IZPOSTAVA VELENJE,Vodnikova cesta 1,3320 Velenje,Velenje,Velenje,46.36151,15.11636
744,ZDRAVSTVENI DOM VRHNIKA,IZPOSTAVA VRHNIKA,Cesta 6. maja 11,1360 Vrhnika,Vrhnika,Vrhnika,45.96278,14.29358
745,ZDRAVSTVENI DOM ZA ŠTUDENTE UNIVERZE V LJUBLJANI,OE LJUBLJANA,Aškerčeva cesta 4,1000 Ljubljana,Ljubljana,Ljubljana,46.04687,14.49913
746,ZDRAVSTVENI DOM ZAGORJE OB SAVI CESTA ZMAGE 1,IZPOSTAVA ZAGORJE,Cesta zmage 1,1410 Zagorje ob Savi,Zagorje ob Savi,Zagorje ob Savi,46.13384,14.9957
747,ZDRAVSTVENI DOM ZOBOZDRAVSTVENO VARSTVO NOVA GORICA,OE NOVA GORICA,Ulica Gradnikove brigade 7,5000 Nova Gorica,Nova Gorica,Nova Gorica,45.95843,13.64623
748,ZDRAVSTVENI DOM ČRNOMELJ,IZPOSTAVA ČRNOMELJ,Delavska pot 4,8340 Črnomelj,Črnomelj,Črnomelj,45.57549,15.18753
749,ZDRAVSTVENI DOM ŠENTJUR,IZPOSTAVA ŠENTJUR PRI CELJU,Cesta Leona Dobrotinška 3B,3230 Šentjur,Šentjur,Šentjur,46.21453,15.39378
750,ZDRAVSTVENI DOM ŠMARJE PRI JELŠAH,IZPOSTAVA ŠMARJE PRI JELŠAH,Celjska cesta 16,3240 Šmarje pri Jelšah,Šmarje pri Jelšah,Šmarje pri Jelšah,46.22926,15.5161
751,ZDRAVSTVENI IN ZOBOZDRAVSTVENI ZAVOD DR. MALE,OE MARIBOR,Gospejna ulica 11,2000 Maribor,Maribor,Maribor,46.55957,15.64234
752,ZDRAVSTVENI ZAVOD ARTDENT BLED,IZPOSTAVA JESENICE,Kolodvorska cesta 3C,4260 Bled,Bled,Bled,46.37448,14.09175
753,"ZDRAVSTVENI ZAVOD BARBUL MARICA, MIKLAVŽ NA DRAVSKEM POLJU",OE MARIBOR,Ptujska cesta 110,2204 Miklavž na Dravskem polju,Miklavž na Dravskem polju,Miklavž na Dravskem polju,46.50217,15.7026
754,ZDRAVSTVENI ZAVOD BELDENT IZOLA,IZPOSTAVA PIRAN,Šared 51,6310 Izola - Isola,Šared,Izola,45.51187,13.65781
755,ZDRAVSTVENI ZAVOD D.D.M.,IZPOSTAVA LAŠKO,Poženelova ulica 22,3270 Laško,Laško,Laško,46.16482,15.23049
756,ZDRAVSTVENI ZAVOD DENTAN KOPER,OE KOPER,Benčičeva ulica 2D,6000 Koper - Capodistria,Koper,Koper,45.53848,13.71159
757,ZDRAVSTVENI ZAVOD DENTARTES KOPER,OE KOPER,Vlačičeva ulica 2A,6000 Koper - Capodistria,Koper,Koper,45.5458,13.72799
758,ZDRAVSTVENI ZAVOD DENTES PORTOROŽ,OE KOPER,Obala 105,6320 Portorož - Portorose,Lucija,Piran,45.50549,13.60232
759,ZDRAVSTVENI ZAVOD DENTOR,OE KRANJ,Bašelj 26B,4205 Preddvor,Bašelj,Preddvor,46.31847,14.39961
760,ZDRAVSTVENI ZAVOD DR. VUČKO PORTOROŽ,IZPOSTAVA PIRAN,Cesta solinarjev 1,6320 Portorož - Portorose,Lucija,Piran,45.50452,13.60205
761,ZDRAVSTVENI ZAVOD DR. ŽEBELJAN,OE MARIBOR,Kardeljeva cesta 84,2000 Maribor,Maribor,Maribor,46.54116,15.63252
762,ZDRAVSTVENI ZAVOD DRUŽINSKA MEDICINA NOVA GORICA,OE NOVA GORICA,Streliška pot 2,5000 Nova Gorica,Nova Gorica,Nova Gorica,45.95104,13.63447
763,ZDRAVSTVENI ZAVOD I DENT KRANJ,OE KRANJ,Vrečkova ulica 3,4000 Kranj,Kranj,Kranj,46.23503,14.36105
764,ZDRAVSTVENI ZAVOD IMPLANT DENT POSTOJNA,IZPOSTAVA POSTOJNA,Prečna ulica 2,6230 Postojna,Postojna,Postojna,45.77205,14.21042
765,ZDRAVSTVENI ZAVOD KOPILOVIĆ PORTOROŽ,OE KOPER,Belokriška cesta 44C,6320 Portorož - Portorose,Portorož,Piran,45.51793,13.58636
766,"ZDRAVSTVENI ZAVOD KOS, RUŠE",OE MARIBOR,Stadionska ulica 4,2342 Ruše,Ruše,Ruše,46.54277,15.50623
767,ZDRAVSTVENI ZAVOD MARKDENS KOPER,OE KOPER,Beblerjeva ulica 7,6000 Koper - Capodistria,Koper,Koper,45.54048,13.70814
768,ZDRAVSTVENI ZAVOD MIRADENT KOPER,OE KOPER,Cesta Zore Perello-Godina 1,6000 Koper - Capodistria,Koper,Koper,45.54256,13.7283
769,ZDRAVSTVENI ZAVOD MULTIMEDICUS,OE LJUBLJANA,Utik 52,1217 Vodice,Utik,Vodice,46.16785,14.50143
770,ZDRAVSTVENI ZAVOD ODONTO HRPELJE,IZPOSTAVA SEŽANA,Borova ulica 2,6240 Kozina,Hrpelje,Hrpelje-Kozina,45.60732,13.94328
771,ZDRAVSTVENI ZAVOD ORIDENT KOPER,IZPOSTAVA IZOLA,Dolga reber 35B,6000 Koper - Capodistria,Koper,Koper,45.5445,13.7017
772,ZDRAVSTVENI ZAVOD RADI&RADI KOPER,OE KOPER,Beblerjeva ulica 7,6000 Koper - Capodistria,Koper,Koper,45.54048,13.70814
773,ZDRAVSTVENI ZAVOD REVITA,OE LJUBLJANA,Peričeva ulica 31,1000 Ljubljana,Ljubljana,Ljubljana,46.06686,14.51147
774,ZDRAVSTVENI ZAVOD ROSTAN PORTOROŽ,IZPOSTAVA PIRAN,Cesta solinarjev 1,6320 Portorož - Portorose,Lucija,Piran,45.50452,13.60205
775,ZDRAVSTVENI ZAVOD SAMSTAL KOPER,IZPOSTAVA PIRAN,Rozmanova ulica 13,6000 Koper - Capodistria,Koper,Koper,45.53894,13.7206
776,ZDRAVSTVENI ZAVOD V. DENS IZOLA,OE KOPER,Južna cesta 4B,6310 Izola - Isola,Izola,Izola,45.53109,13.66517
777,ZDRAVSTVENI ZAVOD VARIX KOPER,OE KOPER,Glagoljaška ulica 1C,6000 Koper - Capodistria,Koper,Koper,45.54925,13.72716
778,"ZDRAVSTVENI ZAVOD ZARJA, ZGORNJA KUNGOTA",OE MARIBOR,Plintovec 7B,2201 Zgornja Kungota,Plintovec,Kungota,46.63896,15.61566
779,ZDRAVSTVENI ZAVOD ZDRAVJE LJUBLJANA,OE LJUBLJANA,Vilharjev podhod 1,1000 Ljubljana,Ljubljana,Ljubljana,46.06032,14.51507
780,ZDRAVSTVENI ZAVOD ZDRAVLJENJE KOPER,OE KOPER,Cesta na Markovec 31,6000 Koper - Capodistria,Koper,Koper,45.53704,13.71563
781,"ZDRAVSTVO BERIĆ, AMBULANTA SPLOŠNE MEDICINE IN SPECIALISTIČNA PSIHIATRIČNA ORDINACIJA, D.O.O.",IZPOSTAVA PTUJ,Osojnikova cesta 9,2250 Ptuj,Ptuj,Ptuj,46.42061,15.87558
782,ZEVNIK LEBEN MIHAELA - ZASEBNA ZOBOZDRAVSTVENA ORDINACIJA ZA ODRASLE,IZPOSTAVA VRHNIKA,Cesta 6. maja 11,1360 Vrhnika,Vrhnika,Vrhnika,45.96278,14.29358
783,ZGORNJESAVINJSKI ZDRAVSTVENI DOM NAZARJE,IZPOSTAVA MOZIRJE,Zadrečka cesta 14,3331 Nazarje,Nazarje,Nazarje,46.31723,14.94681
784,"ZO-LA, ZOBOZDRAVSTVO LAZAREVIĆ, D.O.O.",OE MURSKA SOBOTA,Grad 187,9264 Grad,Grad,Grad,46.80149,16.09203
785,"ZOB D.O.O., DRUŽBA ZA ZOBOZDRAVSTVENE STORITVE VRHNIKA",OE LJUBLJANA,Med vrtovi 8,1360 Vrhnika,Vrhnika,Vrhnika,45.9654,14.28766
786,"ZOBARNICA, DRUŽBA ZA ZOBOZDRAVSTVO, STORITVE, SVETOVANJE IN TRGOVINO, D.O.O.",OE MARIBOR,Ulica heroja Nandeta 31,2000 Maribor,Maribor,Maribor,46.53267,15.67335
787,"ZOBEK DENTALNI CENTER, ZOBOZDRAVSTVENA DEJAVNOST, D.O.O",OE MARIBOR,Metelkova ulica 48,2000 Maribor,Maribor,Maribor,46.54221,15.64158
788,ZOBKI ZASEBNA ZOBNA ORDINACIJA D.O.O.,OE LJUBLJANA,Putrihova ulica 1,1000 Ljubljana,Ljubljana,Ljubljana,46.11509,14.46525
789,"ZOBNA AMBULANTA - JASNA HUSSEIN, DR. DENT. MED.",IZPOSTAVA SLOVENSKA BISTRICA,Partizanska ulica 30,2310 Slovenska Bistrica,Slovenska Bistrica,Slovenska Bistrica,46.39552,15.56233
790,ZOBNA AMBULANTA ADELA GAŠPERIČ DR.DENT.MED,OE KRANJ,Krvavška cesta 4,4207 Cerklje na Gorenjskem,Cerklje na Gorenjskem,Cerklje na Gorenjskem,46.25433,14.48847
791,"ZOBNA AMBULANTA BREZJE, SABINA AJDNIK, DR. DENT. MED.",OE MARIBOR,Na trati 2,2000 Maribor,Maribor,Maribor,46.53586,15.68739
792,"ZOBNA AMBULANTA CIRKOVCE, TOMAŽ KRALJ DR.DENT.MED.",IZPOSTAVA PTUJ,Cirkovce 47,2326 Cirkovce,Cirkovce,Kidričevo,46.39472,15.7227
793,"ZOBNA AMBULANTA DARJA PREŠERN, DR.DENT.MED.",IZPOSTAVA SLOVENSKA BISTRICA,Partizanska ulica 30,2310 Slovenska Bistrica,Slovenska Bistrica,Slovenska Bistrica,46.39552,15.56233
794,"ZOBNA AMBULANTA DR. KURILJ, ZOBOZDRAVSTVENA DEJAVNOST, D.O.O.",IZPOSTAVA PTUJ,Potrčeva cesta 17,2250 Ptuj,Ptuj,Ptuj,46.42485,15.87672
795,"ZOBNA AMBULANTA FILIPOVIĆ, ZOBOZDRAVSTVENE STORITVE, D.O.O.",OE NOVA GORICA,Trg 41,5292 Renče,Renče,Renče-Vogrsko,45.88958,13.66932
796,ZOBNA AMBULANTA FURLAN FAJFAR MOJCA DR. DENT. MED.,OE KRANJ,Gosposvetska ulica 10B,4000 Kranj,Kranj,Kranj,46.24826,14.35331
797,"ZOBNA AMBULANTA JOŽE VUKAN, DR. DENT. MED.",OE MURSKA SOBOTA,Rogašovci 14A,9262 Rogašovci,Rogašovci,Rogašovci,46.80513,16.0363
798,ZOBNA AMBULANTA KREUTZ D.O.O.,IZPOSTAVA JESENICE,Koroška ulica 2,4280 Kranjska Gora,Kranjska Gora,Kranjska Gora,46.48538,13.78242
799,"ZOBNA AMBULANTA MAKOLE MIROSLAV KOVAČIČ, DR. DENT. MED.",IZPOSTAVA SLOVENSKA BISTRICA,Makole 28,2321 Makole,Makole,Makole,46.31735,15.66729
800,"ZOBNA AMBULANTA MANJA CIGLER, DR.DENT.MED.",IZPOSTAVA SLOVENJ GRADEC,Partizanska pot 16,2380 Slovenj Gradec,Slovenj Gradec,Slovenj Gradec,46.50693,15.08202
801,"ZOBNA AMBULANTA MAŠA OSTAŠEVSKI POZNE, DR. DENT. MED.",IZPOSTAVA SLOVENSKA BISTRICA,Partizanska ulica 30,2310 Slovenska Bistrica,Slovenska Bistrica,Slovenska Bistrica,46.39552,15.56233
802,"ZOBNA AMBULANTA MOJCA GREGORIČ KOVAČIČ, DR.DENT.MED.",IZPOSTAVA SLOVENSKA BISTRICA,Ulica Pohorskega bataljona 11,2317 Oplotnica,Oplotnica,Oplotnica,46.38817,15.44733
803,ZOBNA AMBULANTA RIHARD KULČAR DR.DENT.MED.,IZPOSTAVA LENDAVA,Mlinska ulica 6,9220 Lendava - Lendva,Lendava,Lendava,46.56183,16.45256
804,ZOBNA AMBULANTA S KONCESIJO DEKANI HELENA POLES DR.DENT.MED.,OE KOPER,Dekani 209,6271 Dekani,Dekani,Koper,45.54898,13.81275
805,ZOBNA AMBULANTA SAŠA PIRHER,OE MURSKA SOBOTA,Martjanci 35,9221 Martjanci,Martjanci,Moravske Toplice,46.68503,16.19115
806,"ZOBNA AMBULANTA TOMISLAV LAJTNER, DR.DENT.MED.",IZPOSTAVA MOZIRJE,Tlaka 10,3342 Gornji Grad,Gornji Grad,Gornji Grad,46.29728,14.80953
807,"ZOBNA AMBULANTA TREIBER PLEH ESTERA, DR. DENT.MED.",IZPOSTAVA LENDAVA,Mlinska ulica 6E,9220 Lendava - Lendva,Lendava,Lendava,46.56214,16.45301
808,"ZOBNA AMBULANTA ZA ODRASLE ŠUČUR VERICA, DR. DENT. MED.",IZPOSTAVA PTUJ,Potrčeva cesta 4A,2250 Ptuj,Ptuj,Ptuj,46.42174,15.87383
809,"ZOBNA ORDINACIJA BOJANA VOČANEC, STORITVE, SVETOVANJE, TRGOVINA, D.O.O.",OE MARIBOR,Sladki Vrh 5,2214 Sladki Vrh,Sladki Vrh,Šentilj,46.69756,15.7368
810,ZOBNA ORDINACIJA DAMJANA MEROVING,OE LJUBLJANA,Gogalova ulica 15,1000 Ljubljana,Ljubljana,Ljubljana,46.08715,14.51076
811,"ZOBNA ORDINACIJA DR. BERGMAN, ZOBOZDRAVSTVENA DEJAVNOST IN SVETOVANJE, D.O.O.",OE LJUBLJANA,Uraničeva ulica 4A,1000 Ljubljana,Ljubljana,Ljubljana,46.07105,14.47191
812,"ZOBNA ORDINACIJA FABJAN - TINA FABJAN, DR. DENT. MED.",OE CELJE,Aškerčeva ulica 14,3000 Celje,Celje,Celje,46.23059,15.26804
813,ZOBNA ORDINACIJA GORDANA JAKOPOVIĆ DR. DENT.MED.,OE MURSKA SOBOTA,Ulica Prekmurske čete 12,9000 Murska Sobota,Murska Sobota,Murska Sobota,46.65297,16.15597
814,ZOBNA ORDINACIJA GORKIČ D.O.O.,OE NOVA GORICA,Morsko 1,5213 Kanal,Morsko,Kanal,46.08033,13.63544
815,"ZOBNA ORDINACIJA MATEJ HASAJ, DR. DENT. MED.",OE MARIBOR,Koroška cesta 52,2000 Maribor,Maribor,Maribor,46.5591,15.63717
816,"ZOBNA ORDINACIJA META ČESNIK, DR. DENT. MED.",IZPOSTAVA POSTOJNA,Kolodvorska cesta 24,6257 Pivka,Pivka,Pivka,45.68043,14.1946
817,"ZOBNA ORDINACIJA MILENA ŠIFRAR-KOPAČ, DR. DENT. MED.",OE KRANJ,Gosposvetska ulica 10A,4000 Kranj,Kranj,Kranj,46.24862,14.35322
818,"ZOBNA ORDINACIJA MOJCA KOŠAR , DR. DENT. MED.",OE MURSKA SOBOTA,Kocljeva ulica 9,9000 Murska Sobota,Murska Sobota,Murska Sobota,46.65945,16.1636
819,"ZOBNA ORDINACIJA RODOŠEK, BOJANA RODOŠEK , DR. DENT. MED.",OE MARIBOR,Tolstojeva ulica 3,2000 Maribor,Maribor,Maribor,46.54793,15.67025
820,"ZOBNA ORDINACIJA SUZANA RADAK, DR.DENT.MED.",OE MURSKA SOBOTA,Panonska ulica 35B,9231 Beltinci,Beltinci,Beltinci,46.60893,16.23851
821,"ZOBNA ORDINACIJA, BARBARA RAŽEN S.P.",OE LJUBLJANA,Kopitarjev trg 1,1217 Vodice,Vodice,Vodice,46.18729,14.49116
822,"ZOBNA VILA, DENTALNI STUDIO, D.O.O.",OE CELJE,Trubarjeva ulica 11,3000 Celje,Celje,Celje,46.23108,15.25643
823,"ZOBNA, ZOBOZDRAVSTVENA DEJAVNOST, D.O.O.",OE LJUBLJANA,Podpeška cesta 14,1351 Brezovica pri Ljubljani,Brezovica pri Ljubljani,Brezovica,46.02162,14.41607
824,"ZOBOESTETIKA, ESTETSKO ZOBOZDRAVSTVO IN ORTODONTIJA, D.O.O.",IZPOSTAVA TREBNJE,Gubčeva cesta 41A,8210 Trebnje,Trebnje,Trebnje,45.90835,15.01221
825,"ZOBOMIŠKA-ZASEBNA ZOBNA AMBULANTA STANKA DRENIK, DR. DENT. MED.",OE NOVO MESTO,Kočevarjeva ulica 40,8000 Novo mesto,Novo mesto,Novo mesto,45.81626,15.15821
826,"ZOBOZDRAVNIKRECELJ.SI - MATJAŽ RECELJ, DR. DENT. MED.",OE NOVO MESTO,Ljubljanska cesta 26,8000 Novo mesto,Novo mesto,Novo mesto,45.81489,15.15479
827,ZOBOZDRAVSTVENA AMBULANTA DEJAN KRISTAN DR.DENT.MED.,OE MARIBOR,Ulica Staneta Severja 7,2000 Maribor,Maribor,Maribor,46.53749,15.63301
828,ZOBOZDRAVSTVENA AMBULANTA ZA ODRASLE IVANA KOMES DR. DENT. MED.,IZPOSTAVA ORMOŽ,Ulica dr. Hrovata 4,2270 Ormož,Ormož,Ormož,46.40724,16.14333
829,ZOBOZDRAVSTVENA DEJAVNOST ZOBNA VILA BREDA LETNIK S.P.,OE MARIBOR,Kosova ulica 9,2000 Maribor,Maribor,Maribor,46.54104,15.5995
830,"ZOBOZDRAVSTVENA DEJAVNOST, KRISTINA ZIGANTE DR.DENT.MED.",OE KOPER,Vojkovo nabrežje 27,6000 Koper - Capodistria,Koper,Koper,45.54662,13.73465
831,"ZOBOZDRAVSTVENA ORDINACIJA ANDREJ OCEPEK, DR. DENT. MED.",IZPOSTAVA SLOVENSKA BISTRICA,Ulica Pohorskega bataljona 11,2317 Oplotnica,Oplotnica,Oplotnica,46.38817,15.44733
832,ZOBOZDRAVSTVENA ORDINACIJA BARBARA LOMBAR DR.DENT.MED.,OE KRANJ,Šolska ulica 9,4205 Preddvor,Preddvor,Preddvor,46.30451,14.42003
833,"ZOBOZDRAVSTVENA ORDINACIJA DAVID BIZJAK, DR. DENT. MED.",OE KRANJ,Gosposvetska ulica 10A,4000 Kranj,Kranj,Kranj,46.24862,14.35322
834,ZOBOZDRAVSTVENA ORDINACIJA MARKO MOLE - ZASEBNI ZOBOZDRAVNIK,IZPOSTAVA DOMŽALE,Mestni trg 2,1230 Domžale,Domžale,Domžale,46.13975,14.59617
835,ZOBOZDRAVSTVENA ORDINACIJA NATAŠA ROZMAN VITOROVIČ DR.DENT.MED.,OE LJUBLJANA,Zadobrovška cesta 18A,1260 Ljubljana - Polje,Ljubljana,Ljubljana,46.05719,14.58402
836,ZOBOZDRAVSTVENA ORDINACIJA NIELS UDIR DR.DENT.MED.,OE KRANJ,Belska cesta 42,4205 Preddvor,Preddvor,Preddvor,46.3018,14.41638
837,"ZOBOZDRAVSTVENI CENTER JAVH, D.O.O.",IZPOSTAVA ŠKOFJA LOKA,Stara cesta 21,4220 Škofja Loka,Škofja Loka,Škofja Loka,46.16629,14.3147
838,ZOBOZDRAVSTVENI ZAVOD D IN G KOPER,IZPOSTAVA ZAGORJE,Ulica Sergeja Mašere 7,6000 Koper - Capodistria,Koper,Koper,45.54072,13.71264
839,ZOBOZDRAVSTVENI ZAVOD DOKTOR GOLČER,OE MARIBOR,Kopitarjeva ulica 2,2000 Maribor,Maribor,Maribor,46.56326,15.65746
840,ZOBOZDRAVSTVENI ZAVOD G DENT KOPER,OE KOPER,Prisojna pot 10,6000 Koper - Capodistria,Koper,Koper,45.54649,13.70532
841,ZOBOZDRAVSTVENI ZAVOD MEDICADENS ŠKORJA SORIĆ,IZPOSTAVA PIRAN,Čentur 23,6273 Marezige,Čentur,Koper,45.50993,13.77048
842,ZOBOZDRAVSTVENI ZAVOD SOK,IZPOSTAVA PTUJ,Gorišnica 65,2272 Gorišnica,Gorišnica,Gorišnica,46.41047,16.01167
843,ZOBOZDRAVSTVENI ZAVOD VERTAČNIK,IZPOSTAVA SLOVENSKE KONJICE,Dobrava pri Konjicah 3B,3210 Slovenske Konjice,Dobrava pri Konjicah,Slovenske Konjice,46.34627,15.4129
844,"ZOBOZDRAVSTVO BENEDEK, D.O.O.",IZPOSTAVA LAŠKO,Mestna ulica 7,3270 Laško,Laško,Laško,46.1546,15.23636
845,"ZOBOZDRAVSTVO CIZERL, ZOBOZDRAVSTVENA DEJAVNOST, D.O.O.",IZPOSTAVA PTUJ,Pot v toplice 9,2250 Ptuj,Ptuj,Ptuj,46.42154,15.85575
846,ZOBOZDRAVSTVO DR. BOREC BARBARA BOREC PIRMAN DR.DENT.MED.,OE LJUBLJANA,Železna cesta 10,1000 Ljubljana,Ljubljana,Ljubljana,46.06082,14.51403
847,ZOBOZDRAVSTVO DRGANC - ŠTORMAN D.O.O.,OE KRŠKO,Cesta krških žrtev 43,8270 Krško,Krško,Krško,45.96424,15.4864
848,ZOBOZDRAVSTVO KARKOS - MATEJA KARLIN SAMBOLEC,OE LJUBLJANA,Brajnikova ulica 20,1000 Ljubljana,Ljubljana,Ljubljana,46.07204,14.46614
849,"ZOBOZDRAVSTVO KOZINA, ZOBOZDRAVSTVENE STORITVE, D.O.O.",IZPOSTAVA RIBNICA,Majnikova ulica 1,1310 Ribnica,Ribnica,Ribnica,45.74238,14.72596
850,"ZOBOZDRAVSTVO LUKAN, ZOBOZDRAVSTVENE IN DRUGE STORITVE, D.O.O.",OE MARIBOR,Žolgarjeva ulica 7,2000 Maribor,Maribor,Maribor,46.5503,15.64122
851,ZOBOZDRAVSTVO MAJA JAMŠEK STARC,OE LJUBLJANA,Pod jelšami 20,1000 Ljubljana,Ljubljana,Ljubljana,46.03383,14.49319
852,ZOBOZDRAVSTVO MUC ZOBOZDRAVSTVENA DEJAVNOST D.O.O.,IZPOSTAVA ČRNOMELJ,Ulica na Pristavah 1,8340 Črnomelj,Črnomelj,Črnomelj,45.57823,15.19245
853,ZOBOZDRAVSTVO VIHER ZOBOZDRAVSTVENE STORITVE D.O.O.,OE MARIBOR,Stadionska ulica 4,2342 Ruše,Ruše,Ruše,46.54277,15.50623
854,"ZORIDENT, ZOBOZDRAVSTVO, D.O.O.",OE CELJE,Keršova ulica 1,3212 Vojnik,Vojnik,Vojnik,46.29133,15.30397
855,"ZORIČ HOMAN ALEKSANDRA, DR. DENT. MED., ZASEBNA ZOBOZDRAVNICA, DENTALNI STUDIO AS",OE LJUBLJANA,Ulica bratov Babnik 10,1000 Ljubljana,Ljubljana,Ljubljana,46.07645,14.466
856,ZRILIĆ IRIS - ZASEBNA PEDIATRIČNA AMBULANTA,IZPOSTAVA PTUJ,Potrčeva cesta 15,2250 Ptuj,Ptuj,Ptuj,46.42472,15.87653
857,"ZUPAN MANCA, DR.MED. ZASEBNA SPLOŠNA AMBULANTA SPEC. SPL. MED.",IZPOSTAVA HRASTNIK,Novi dom 11,1430 Hrastnik,Hrastnik,Hrastnik,46.1403,15.08513
858,ZUPAN MARTEL - ZOBOZDRAVSTVENA ORDINACIJA,OE LJUBLJANA,Cesta v Mestni log 55,1000 Ljubljana,Ljubljana,Ljubljana,46.0362,14.48957
859,ZUPET ŽNIDARŠIČ POLONA - ZASEBNA ZOBNA ORDINACIJA,OE LJUBLJANA,Litijska cesta 47,1000 Ljubljana,Ljubljana,Ljubljana,46.04806,14.54442
860,ZVEZDANA JABLANOV - AMBULANTA DRUŽINSKE MEDICINE DOBROVA,OE LJUBLJANA,Ulica Vladimirja Dolničarja 11,1356 Dobrova,Dobrova,Dobrova-Polhov Gradec,46.05355,14.41726
861,ĐURĐICA KIRIN DR.DENT.MED. ZASEBNA ZOBOZDRAVSTVENA ORDINACIJA,IZPOSTAVA SEVNICA,Trg svobode 14,8290 Sevnica,Sevnica,Sevnica,46.0106,15.30248
862,ŠABOVIČ-GOMBOC SENADA - SPLOŠNA AMBULANTA TEZNO,OE MARIBOR,Volodjeva ulica 17,2000 Maribor,Maribor,Maribor,46.53031,15.6682
863,ŠAŠKO VALERIJA - AMBULANTA ŠAŠKO,IZPOSTAVA PTUJ,Osojnikova cesta 9,2250 Ptuj,Ptuj,Ptuj,46.42061,15.87558
864,ŠEPIĆ NENAD - ZASEBNA AMBULANTA ZA GINEKOLOGIJO IN PORODNIŠTVO,IZPOSTAVA LJUTOMER,Cesta I. slovenskega tabora 2,9240 Ljutomer,Ljutomer,Ljutomer,46.52172,16.19326
865,ŠMIGOC MOJCA DR.DENT.MED. - ZASEBNA ZOBNA ORDINACIJA,OE CELJE,Gregorčičeva ulica 5,3000 Celje,Celje,Celje,46.23224,15.26227
866,"ŠOLMED - ŠOLSKA IN PEDIATRIČNA AMBULANTA, ZDRAVSTVENE STORITVE IN SVETOVANJE, D.O.O.",OE MARIBOR,Lackova cesta 135,2341 Limbuš,Pekre,Maribor,46.54667,15.59819
867,ŠORLI BRIGITA - DOKTORICA MEDICINE,OE MARIBOR,Pupinova ulica 2,2000 Maribor,Maribor,Maribor,46.55272,15.64503
868,ŠOSTERIČ ALEKSANDER - ORDINACIJA SPLOŠNE MEDICINE,IZPOSTAVA LENART,Maistrova ulica 22,2230 Lenart v Slov. goricah,Lenart v Slov. goricah,Lenart,46.57734,15.82896
869,"ŠTEFKA GLADEK, DR. DENT. MED. - ZASEBNA ZOBOZDRAVNICA",IZPOSTAVA ŠKOFJA LOKA,Otoki 14,4228 Železniki,Železniki,Železniki,46.22414,14.16365
870,ŠTERBENK VLASTA - ZASEBNA ZOBNA AMBULANTA,IZPOSTAVA VELENJE,Vodnikova cesta 1,3320 Velenje,Velenje,Velenje,46.36151,15.11636
871,"ŠUBELJ GREGORIČ HELENA - ZOBOZDRAVSTVENA ORDINACIJA, ZASEBNA ZOBOZDRAVNICA",IZPOSTAVA DOMŽALE,Mestni trg 2,1230 Domžale,Domžale,Domžale,46.13975,14.59617
872,ŠULER PATRICIJA - ZASEBNA ZOBNA AMBULANTA,IZPOSTAVA MOZIRJE,Luče 106,3334 Luče,Luče,Luče,46.3564,14.74415
873,ŠUSTER DARINKA - ZASEBNA ZOBNA ORDINACIJA,IZPOSTAVA VELENJE,Stanetova cesta 27,3320 Velenje,Velenje,Velenje,46.36631,15.11286
874,"ŽARGI JURIJ, DR. DENT. MED. ZOBOZDRAVSTVENA ORDINACIJA BEŽIGRAJSKI DVOR",OE LJUBLJANA,Peričeva ulica 31,1000 Ljubljana,Ljubljana,Ljubljana,46.06686,14.51147
875,ŽERJAV MANICA - DOKTOR MEDICINE,OE CELJE,Jenkova ulica 36,3000 Celje,Celje,Celje,46.23621,15.26007
876,"ŽIVA V PARKU, ZDRAVSTVENE STORITVE D.O.O.",OE MURSKA SOBOTA,Tišina 30,9251 Tišina,Tišina,Tišina,46.65356,16.08631
877,ŽMUC KATARINA - ZOBOZDRAVSTVENA ORDINACIJA,OE LJUBLJANA,Cesta na Brdo 69,1000 Ljubljana,Ljubljana,Ljubljana,46.046,14.46887
878,ŽNIDARŠIČ KSENIJA - ZASEBNA ORDINACIJA ZA SPLOŠNO MEDICINO,IZPOSTAVA BREŽICE,Černelčeva cesta 8,8250 Brežice,Brežice,Brežice,45.90811,15.59415
879,ŽORŽ GOJMIR - ORDINACIJA SPLOŠNE MEDICINE,OE LJUBLJANA,Cesta v Mestni log 55,1000 Ljubljana,Ljubljana,Ljubljana,46.0362,14.48957
