cityZZZS,addressZZZS,lat,lon,street,streetAlt,housenumber,housenumberAppendix,city,cityAlt,municipality,zipCode,zipName
1000 LJUBLJANA,ALJAŽEVA ULICA 30,46.06839,14.49548,Aljaževa ulica,,30,,Ljubljana,,Ljubljana,1000,Ljubljana
1000 LJUBLJANA,AŠKERČEVA CESTA 4,46.04687,14.49913,Aškerčeva cesta,,4,,Ljubljana,,Ljubljana,1000,Ljubljana
1000 LJUBLJANA,BEETHOVNOVA ULICA 6,46.05163,14.50200,Beethovnova ulica,,6,,Ljubljana,,Ljubljana,1000,Ljubljana
1000 LJUBLJANA,BOHORIČEVA ULICA 5,46.05543,14.52005,Bohoričeva ulica,,5,,Ljubljana,,Ljubljana,1000,Ljubljana
1000 LJUBLJANA,BRAJNIKOVA ULICA 20,46.07204,14.46614,Brajnikova ulica,,20,,Ljubljana,,Ljubljana,1000,Ljubljana
1000 LJUBLJANA,CELOVŠKA CESTA 4,46.05730,14.50122,Celovška cesta,,4,,Ljubljana,,Ljubljana,1000,Ljubljana
1000 LJUBLJANA,CESTA LJUBLJANSKE BRIGADE 23,46.08665,14.47871,Cesta Ljubljanske brigade,,23,,Ljubljana,,Ljubljana,1000,Ljubljana
1000 LJUBLJANA,CESTA NA BRDO 43,46.04527,14.47120,Cesta na Brdo,,43,,Ljubljana,,Ljubljana,1000,Ljubljana
1000 LJUBLJANA,CESTA NA BRDO 63,46.04564,14.46976,Cesta na Brdo,,63,,Ljubljana,,Ljubljana,1000,Ljubljana
1000 LJUBLJANA,CESTA NA BRDO 69,46.04600,14.46887,Cesta na Brdo,,69,,Ljubljana,,Ljubljana,1000,Ljubljana
1000 LJUBLJANA,CESTA V MESTNI LOG 55,46.03620,14.48957,Cesta v Mestni log,,55,,Ljubljana,,Ljubljana,1000,Ljubljana
1000 LJUBLJANA,DALMATINOVA ULICA 7,46.05425,14.50563,Dalmatinova ulica,,7,,Ljubljana,,Ljubljana,1000,Ljubljana
1000 LJUBLJANA,DERČEVA ULICA 5,46.06846,14.48800,Derčeva ulica,,5,,Ljubljana,,Ljubljana,1000,Ljubljana
1000 LJUBLJANA,DUNAJSKA CESTA 129,46.07794,14.51189,Dunajska cesta,,129,,Ljubljana,,Ljubljana,1000,Ljubljana
1000 LJUBLJANA,DUNAJSKA CESTA 22,46.06212,14.50930,Dunajska cesta,,22,,Ljubljana,,Ljubljana,1000,Ljubljana
1000 LJUBLJANA,DUNAJSKA CESTA 5,46.05937,14.50613,Dunajska cesta,,5,,Ljubljana,,Ljubljana,1000,Ljubljana
1000 LJUBLJANA,DUNAJSKA CESTA 59,46.06581,14.50894,Dunajska cesta,,59,,Ljubljana,,Ljubljana,1000,Ljubljana
1000 LJUBLJANA,FILIPIČEVA ULICA 1,46.04113,14.49404,Filipičeva ulica,,1,,Ljubljana,,Ljubljana,1000,Ljubljana
1000 LJUBLJANA,GABRŠČKOVA ULICA 91,46.04743,14.46956,Gabrščkova ulica,,91,,Ljubljana,,Ljubljana,1000,Ljubljana
1000 LJUBLJANA,GASPARIJEVA ULICA 12,46.05233,14.52825,Gasparijeva ulica,,12,,Ljubljana,,Ljubljana,1000,Ljubljana
1000 LJUBLJANA,GLONARJEVA ULICA 4,46.04965,14.52687,Glonarjeva ulica,,4,,Ljubljana,,Ljubljana,1000,Ljubljana
1000 LJUBLJANA,GOGALOVA ULICA 15,46.08715,14.51076,Gogalova ulica,,15,,Ljubljana,,Ljubljana,1000,Ljubljana
1000 LJUBLJANA,GREGORČIČEVA ULICA 11,46.04822,14.50041,Gregorčičeva ulica,,11,,Ljubljana,,Ljubljana,1000,Ljubljana
1000 LJUBLJANA,HRUŠEVSKA CESTA 6 A,46.04676,14.54206,Hruševska cesta,,6,A,Ljubljana,,Ljubljana,1000,Ljubljana
1000 LJUBLJANA,KOGOVŠKOVA ULICA 1,46.07318,14.46775,Kogovškova ulica,,1,,Ljubljana,,Ljubljana,1000,Ljubljana
1000 LJUBLJANA,KOLEZIJSKA ULICA 25,46.04145,14.49750,Kolezijska ulica,,25,,Ljubljana,,Ljubljana,1000,Ljubljana
1000 LJUBLJANA,KOLINSKA ULICA 1,46.05983,14.52249,Kolinska ulica,,1,,Ljubljana,,Ljubljana,1000,Ljubljana
1000 LJUBLJANA,KOMENSKEGA ULICA 19,46.05341,14.51253,Komenskega ulica,,19,,Ljubljana,,Ljubljana,1000,Ljubljana
1000 LJUBLJANA,KOPITARJEVA ULICA 4,46.05131,14.51092,Kopitarjeva ulica,,4,,Ljubljana,,Ljubljana,1000,Ljubljana
1000 LJUBLJANA,KRŽIČEVA ULICA 10,46.06465,14.51105,Kržičeva ulica,,10,,Ljubljana,,Ljubljana,1000,Ljubljana
1000 LJUBLJANA,LINHARTOVA CESTA 5,46.06405,14.50981,Linhartova cesta,,5,,Ljubljana,,Ljubljana,1000,Ljubljana
1000 LJUBLJANA,LINHARTOVA CESTA 51,46.06670,14.52411,Linhartova cesta,,51,,Ljubljana,,Ljubljana,1000,Ljubljana
1000 LJUBLJANA,LITIJSKA CESTA 161,46.04539,14.56288,Litijska cesta,,161,,Ljubljana,,Ljubljana,1000,Ljubljana
1000 LJUBLJANA,LITIJSKA CESTA 38,46.04733,14.54543,Litijska cesta,,38,,Ljubljana,,Ljubljana,1000,Ljubljana
1000 LJUBLJANA,LITIJSKA CESTA 43,46.04812,14.54356,Litijska cesta,,43,,Ljubljana,,Ljubljana,1000,Ljubljana
1000 LJUBLJANA,LITIJSKA CESTA 47,46.04806,14.54442,Litijska cesta,,47,,Ljubljana,,Ljubljana,1000,Ljubljana
1000 LJUBLJANA,MARTINČEVA ULICA 30,46.07876,14.46871,Martinčeva ulica,,30,,Ljubljana,,Ljubljana,1000,Ljubljana
1000 LJUBLJANA,METELKOVA ULICA 15,46.05705,14.51547,Metelkova ulica,,15,,Ljubljana,,Ljubljana,1000,Ljubljana
1000 LJUBLJANA,METELKOVA ULICA 9,46.05658,14.51516,Metelkova ulica,,9,,Ljubljana,,Ljubljana,1000,Ljubljana
1000 LJUBLJANA,MIRJE 2,46.04487,14.50172,Mirje,,2,,Ljubljana,,Ljubljana,1000,Ljubljana
1000 LJUBLJANA,OPEKARSKA CESTA 11,46.03951,14.50753,Opekarska cesta,,11,,Ljubljana,,Ljubljana,1000,Ljubljana
1000 LJUBLJANA,PARMOVA ULICA 51,46.06408,14.50270,Parmova ulica,,51,,Ljubljana,,Ljubljana,1000,Ljubljana
1000 LJUBLJANA,PERIČEVA ULICA 25,46.06616,14.51125,Peričeva ulica,,25,,Ljubljana,,Ljubljana,1000,Ljubljana
1000 LJUBLJANA,PERIČEVA ULICA 29,46.06668,14.51192,Peričeva ulica,,29,,Ljubljana,,Ljubljana,1000,Ljubljana
1000 LJUBLJANA,PERIČEVA ULICA 31,46.06686,14.51147,Peričeva ulica,,31,,Ljubljana,,Ljubljana,1000,Ljubljana
1000 LJUBLJANA,PETKOVŠKOVO NABREŽJE 57,46.05204,14.51312,Petkovškovo nabrežje,,57,,Ljubljana,,Ljubljana,1000,Ljubljana
1000 LJUBLJANA,PLEŠIČEVA ULICA 15,46.08009,14.46711,Plešičeva ulica,,15,,Ljubljana,,Ljubljana,1000,Ljubljana
1000 LJUBLJANA,POD JELŠAMI 20,46.03383,14.49319,Pod jelšami,,20,,Ljubljana,,Ljubljana,1000,Ljubljana
1000 LJUBLJANA,PODGORNIKOVA ULICA 1,46.07375,14.47954,Podgornikova ulica,,1,,Ljubljana,,Ljubljana,1000,Ljubljana
1000 LJUBLJANA,PRIJATELJEVA ULICA 2,46.04409,14.50840,Prijateljeva ulica,,2,,Ljubljana,,Ljubljana,1000,Ljubljana
1000 LJUBLJANA,PRVOMAJSKA ULICA 5,46.05588,14.53132,Prvomajska ulica,,5,,Ljubljana,,Ljubljana,1000,Ljubljana
1000 LJUBLJANA,PUTRIHOVA ULICA 1,46.11509,14.46525,Putrihova ulica,,1,,Ljubljana,,Ljubljana,1000,Ljubljana
1000 LJUBLJANA,REDELONGHIJEVA ULICA 12,46.04099,14.48579,Redelonghijeva ulica,,12,,Ljubljana,,Ljubljana,1000,Ljubljana
1000 LJUBLJANA,SAVSKA CESTA 10,46.06433,14.52589,Savska cesta,,10,,Ljubljana,,Ljubljana,1000,Ljubljana
1000 LJUBLJANA,SAVSKA CESTA 3,46.06440,14.52522,Savska cesta,,3,,Ljubljana,,Ljubljana,1000,Ljubljana
1000 LJUBLJANA,SLOMŠKOVA ULICA 17,46.05559,14.51270,Slomškova ulica,,17,,Ljubljana,,Ljubljana,1000,Ljubljana
1000 LJUBLJANA,TBILISIJSKA ULICA 59,46.03762,14.47887,Tbilisijska ulica,,59,,Ljubljana,,Ljubljana,1000,Ljubljana
1000 LJUBLJANA,TBILISIJSKA ULICA 89,46.03612,14.47919,Tbilisijska ulica,,89,,Ljubljana,,Ljubljana,1000,Ljubljana
1000 LJUBLJANA,TEHNOLOŠKI PARK 20,46.05045,14.46030,Tehnološki park,,20,,Ljubljana,,Ljubljana,1000,Ljubljana
1000 LJUBLJANA,TIVOLSKA CESTA 48,46.05758,14.50466,Tivolska cesta,,48,,Ljubljana,,Ljubljana,1000,Ljubljana
1000 LJUBLJANA,TOPNIŠKA ULICA 4,46.06740,14.51179,Topniška ulica,,4,,Ljubljana,,Ljubljana,1000,Ljubljana
1000 LJUBLJANA,TRIGLAVSKA ULICA 6,46.07328,14.50934,Triglavska ulica,,6,,Ljubljana,,Ljubljana,1000,Ljubljana
1000 LJUBLJANA,TRŽNA ULICA 3,46.06421,14.49368,Tržna ulica,,3,,Ljubljana,,Ljubljana,1000,Ljubljana
1000 LJUBLJANA,ULICA BRATOV BABNIK 10,46.07645,14.46600,Ulica bratov Babnik,,10,,Ljubljana,,Ljubljana,1000,Ljubljana
1000 LJUBLJANA,ULICA BRATOV UČAKAR 64,46.07216,14.47257,Ulica bratov Učakar,,64,,Ljubljana,,Ljubljana,1000,Ljubljana
1000 LJUBLJANA,ULICA LOJZETA SPACALA 10,46.06747,14.47210,Ulica Lojzeta Spacala,,10,,Ljubljana,,Ljubljana,1000,Ljubljana
1000 LJUBLJANA,URANIČEVA ULICA 4 A,46.07105,14.47191,Uraničeva ulica,,4,A,Ljubljana,,Ljubljana,1000,Ljubljana
1000 LJUBLJANA,V KLADEH 9,46.10876,14.45930,V Kladeh,,9,,Ljubljana,,Ljubljana,1000,Ljubljana
1000 LJUBLJANA,VILHARJEV PODHOD 1,46.06032,14.51507,Vilharjev podhod,,1,,Ljubljana,,Ljubljana,1000,Ljubljana
1000 LJUBLJANA,VILHARJEV PODHOD 7,46.06035,14.51578,Vilharjev podhod,,7,,Ljubljana,,Ljubljana,1000,Ljubljana
1000 LJUBLJANA,VILHARJEVA CESTA 27,46.06020,14.51545,Vilharjeva cesta,,27,,Ljubljana,,Ljubljana,1000,Ljubljana
1000 LJUBLJANA,VODNIKOVA CESTA 187,46.07405,14.47528,Vodnikova cesta,,187,,Ljubljana,,Ljubljana,1000,Ljubljana
1000 LJUBLJANA,VODOVODNA CESTA 109,46.07871,14.50194,Vodovodna cesta,,109,,Ljubljana,,Ljubljana,1000,Ljubljana
1000 LJUBLJANA,VURNIKOVA ULICA 9,46.06262,14.51543,Vurnikova ulica,,9,,Ljubljana,,Ljubljana,1000,Ljubljana
1000 LJUBLJANA,ZALOŠKA CESTA 149,46.05654,14.55551,Zaloška cesta,,149,,Ljubljana,,Ljubljana,1000,Ljubljana
1000 LJUBLJANA,ZALOŠKA CESTA 2,46.05221,14.52078,Zaloška cesta,,2,,Ljubljana,,Ljubljana,1000,Ljubljana
1000 LJUBLJANA,ZDRAVSTVENA POT 1,46.04729,14.51594,Zdravstvena pot,,1,,Ljubljana,,Ljubljana,1000,Ljubljana
1000 LJUBLJANA,ČUČKOVA ULICA 17,46.03501,14.45303,Čučkova ulica,,17,,Ljubljana,,Ljubljana,1000,Ljubljana
1000 LJUBLJANA,ŠESTOVA ULICA 10,46.04631,14.48719,Šestova ulica,,10,,Ljubljana,,Ljubljana,1000,Ljubljana
1000 LJUBLJANA,ŠIŠENSKA CESTA 44,46.07131,14.48026,Šišenska cesta,,44,,Ljubljana,,Ljubljana,1000,Ljubljana
1000 LJUBLJANA,ŽELEZNA CESTA 10,46.06082,14.51403,Železna cesta,,10,,Ljubljana,,Ljubljana,1000,Ljubljana
1210 LJUBLJANA - ŠENTVID,CESTA NA POLJANE 24,46.09337,14.47463,Cesta na Poljane,,24,,Ljubljana,,Ljubljana,1210,Ljubljana - Šentvid
1210 LJUBLJANA - ŠENTVID,OB ZDRAVSTVENEM DOMU 1,46.09856,14.46490,Ob zdravstvenem domu,,1,,Ljubljana,,Ljubljana,1210,Ljubljana - Šentvid
1210 LJUBLJANA - ŠENTVID,ULICA BRATOV KOMEL 25,46.09548,14.47256,Ulica bratov Komel,,25,,Ljubljana,,Ljubljana,1210,Ljubljana - Šentvid
1211 LJUBLJANA - ŠMARTNO,NA PALCAH 2,46.12111,14.47331,Na Palcah,,2,,Ljubljana,,Ljubljana,1211,Ljubljana - Šmartno
1215 MEDVODE,BIZANTOVA CESTA 14,46.13248,14.41437,Bizantova cesta,,14,,Medvode,,Medvode,1215,Medvode
1215 MEDVODE,GORENJA VAS - RETEČE 58 B,46.15128,14.38319,Gorenja vas - Reteče,,58,B,Gorenja vas - Reteče,,Škofja Loka,1215,Medvode
1215 MEDVODE,OSTROVRHARJEVA ULICA 6,46.14535,14.40560,Ostrovrharjeva ulica,,6,,Medvode,,Medvode,1215,Medvode
1217 VODICE,KOPITARJEV TRG 1,46.18729,14.49116,Kopitarjev trg,,1,,Vodice,,Vodice,1217,Vodice
1217 VODICE,UTIK 52,46.16785,14.50143,Utik,,52,,Utik,,Vodice,1217,Vodice
1218 KOMENDA,GLAVARJEVA CESTA 61 A,46.20453,14.53935,Glavarjeva cesta,,61,A,Komenda,,Komenda,1218,Komenda
1219 LAZE V TUHINJU,LAZE V TUHINJU 29,46.21946,14.75656,Laze v Tuhinju,,29,,Laze v Tuhinju,,Kamnik,1219,Laze v Tuhinju
1225 LUKOVICA,TROJANSKA CESTA 13,46.17023,14.69393,Trojanska cesta,,13,,Lukovica pri Domžalah,,Lukovica,1225,Lukovica
1230 DOMŽALE,JELOVŠKOVA ULICA 7,46.15214,14.59054,Jelovškova ulica,,7,,Spodnje Jarše,,Domžale,1230,Domžale
1230 DOMŽALE,LJUBLJANSKA CESTA 104,46.14268,14.59561,Ljubljanska cesta,,104,,Domžale,,Domžale,1230,Domžale
1230 DOMŽALE,MESTNI TRG 2,46.13975,14.59617,Mestni trg,,2,,Domžale,,Domžale,1230,Domžale
1230 DOMŽALE,PREŠERNOVA CESTA 21 B,46.14070,14.58948,Prešernova cesta,,21,B,Domžale,,Domžale,1230,Domžale
1230 DOMŽALE,ULICA IVANA PENGOVA 20,46.14446,14.59689,Ulica Ivana Pengova,,20,,Domžale,,Domžale,1230,Domžale
1231 LJUBLJANA - ČRNUČE,CESTA 24. JUNIJA 23,46.09681,14.52692,Cesta 24. junija,,23,,Ljubljana,,Ljubljana,1231,Ljubljana - Črnuče
1231 LJUBLJANA - ČRNUČE,CESTA 24. JUNIJA 31,46.09537,14.52704,Cesta 24. junija,,31,,Ljubljana,,Ljubljana,1231,Ljubljana - Črnuče
1231 LJUBLJANA - ČRNUČE,DUNAJSKA CESTA 405,46.10448,14.53545,Dunajska cesta,,405,,Ljubljana,,Ljubljana,1231,Ljubljana - Črnuče
1231 LJUBLJANA - ČRNUČE,PETKOVA ULICA 16,46.09907,14.52792,Petkova ulica,,16,,Ljubljana,,Ljubljana,1231,Ljubljana - Črnuče
1231 LJUBLJANA - ČRNUČE,ZASAVSKA CESTA 95,46.09189,14.57495,Zasavska cesta,,95,,Ljubljana,,Ljubljana,1231,Ljubljana - Črnuče
1234 MENGEŠ,ALJAŽEVA ULICA 9,46.16990,14.57643,Aljaževa ulica,,9,,Mengeš,,Mengeš,1234,Mengeš
1234 MENGEŠ,ZORANINA ULICA 3,46.16207,14.57100,Zoranina ulica,,3,,Mengeš,,Mengeš,1234,Mengeš
1235 RADOMLJE,KAMNIŠKA CESTA 24,46.16800,14.59490,Kamniška cesta,,24,,Preserje pri Radomljah,,Domžale,1235,Radomlje
1235 RADOMLJE,PELECHOVA CESTA 18,46.16801,14.59744,Pelechova cesta,,18,,Preserje pri Radomljah,,Domžale,1235,Radomlje
1241 KAMNIK,NA JASI 6,46.20853,14.61180,Na jasi,,6,,Kamnik,,Kamnik,1241,Kamnik
1241 KAMNIK,NOVI TRG 26,46.22139,14.61328,Novi trg,,26,,Kamnik,,Kamnik,1241,Kamnik
1241 KAMNIK,NOVI TRG 26 A,46.22082,14.61321,Novi trg,,26,A,Kamnik,,Kamnik,1241,Kamnik
1241 KAMNIK,NOVI TRG 43 A,46.21914,14.61117,Novi trg,,43,A,Kamnik,,Kamnik,1241,Kamnik
1251 MORAVČE,VEGOVA ULICA 22,46.13743,14.74729,Vegova ulica,,22,,Moravče,,Moravče,1251,Moravče
1260 LJUBLJANA - POLJE,SNEBERSKA CESTA 128 B,46.07327,14.58924,Sneberska cesta,,128,B,Ljubljana,,Ljubljana,1260,Ljubljana - Polje
1260 LJUBLJANA - POLJE,ZADOBROVŠKA CESTA 18 A,46.05719,14.58402,Zadobrovška cesta,,18,A,Ljubljana,,Ljubljana,1260,Ljubljana - Polje
1262 DOL PRI LJUBLJANI,DOLSKO 55,46.09385,14.67776,Dolsko,,55,,Dolsko,,Dol pri Ljubljani,1262,Dol pri Ljubljani
1262 DOL PRI LJUBLJANI,VIDEM 17,46.08670,14.63413,Videm,,17,,Videm,,Dol pri Ljubljani,1262,Dol pri Ljubljani
1262 DOL PRI LJUBLJANI,VIDEM 17 C,46.08608,14.63269,Videm,,17,C,Videm,,Dol pri Ljubljani,1262,Dol pri Ljubljani
1270 LITIJA,PARTIZANSKA POT 8 A,46.05389,14.83656,Partizanska pot,,8,A,Litija,,Litija,1270,Litija
1270 LITIJA,PONOVIŠKA CESTA 6,46.05833,14.82866,Ponoviška cesta,,6,,Litija,,Litija,1270,Litija
1270 LITIJA,ZASAVSKA CESTA 3,46.05899,14.83352,Zasavska cesta,,3,,Litija,,Litija,1270,Litija
1290 GROSUPLJE,POD GOZDOM CESTA I 14,45.95943,14.65315,Pod gozdom cesta I,,14,,Grosuplje,,Grosuplje,1290,Grosuplje
1291 ŠKOFLJICA,KOČEVSKA CESTA 25,45.98069,14.57676,Kočevska cesta,,25,,Škofljica,,Škofljica,1291,Škofljica
1292 IG,BANIJA 4,45.95897,14.52720,Banija,,4,,Ig,,Ig,1292,Ig
1292 IG,DRAGA 1,45.94726,14.54796,Draga,,1,,Draga,,Ig,1292,Ig
1295 IVANČNA GORICA,CESTA 2. GRUPE ODREDOV 16,45.93759,14.80558,Cesta 2. grupe odredov,,16,,Ivančna Gorica,,Ivančna Gorica,1295,Ivančna Gorica
1295 IVANČNA GORICA,SOKOLSKA ULICA 5,45.93826,14.80470,Sokolska ulica,,5,,Ivančna Gorica,,Ivančna Gorica,1295,Ivančna Gorica
1310 RIBNICA,MAJNIKOVA ULICA 1,45.74238,14.72596,Majnikova ulica,,1,,Ribnica,,Ribnica,1310,Ribnica
1311 TURJAK,LAPORJE 30,45.87088,14.61679,Laporje,,30,,Laporje,,Velike Lašče,1311,Turjak
1312 VIDEM - DOBREPOLJE,VIDEM 37 A,45.84819,14.69546,Videm,,37,A,Videm,,Dobrepolje,1312,Videm - Dobrepolje
1315 VELIKE LAŠČE,JAVORŠKOVA ULICA 9,45.83502,14.63767,Javorškova ulica,,9,,Velike Lašče,,Velike Lašče,1315,Velike Lašče
1330 KOČEVJE,KEKČEVA ULICA 3,45.64144,14.85424,Kekčeva ulica,,3,,Kočevje,,Kočevje,1330,Kočevje
1330 KOČEVJE,LJUBLJANSKA CESTA 1 A,45.63986,14.85913,Ljubljanska cesta,,1,A,Kočevje,,Kočevje,1330,Kočevje
1330 KOČEVJE,LJUBLJANSKA CESTA 19,45.64149,14.85688,Ljubljanska cesta,,19,,Kočevje,,Kočevje,1330,Kočevje
1330 KOČEVJE,ROŠKA CESTA 18,45.63938,14.86562,Roška cesta,,18,,Kočevje,,Kočevje,1330,Kočevje
1330 KOČEVJE,ROŠKA CESTA 22,45.64005,14.86716,Roška cesta,,22,,Kočevje,,Kočevje,1330,Kočevje
1351 BREZOVICA PRI LJUBLJANI,NOVA POT 5,46.00970,14.41547,Nova pot,,5,,Vnanje Gorice,,Brezovica,1351,Brezovica pri Ljubljani
1351 BREZOVICA PRI LJUBLJANI,PODPEŠKA CESTA 14,46.02162,14.41607,Podpeška cesta,,14,,Brezovica pri Ljubljani,,Brezovica,1351,Brezovica pri Ljubljani
1352 PRESERJE,DOLENJA BREZOVICA 11,45.94773,14.42655,Dolenja Brezovica,,11,,Dolenja Brezovica,,Brezovica,1352,Preserje
1352 PRESERJE,JEZERO 1,45.97634,14.41959,Jezero,,1,,Jezero,,Brezovica,1352,Preserje
1353 BOROVNICA,MEJAČEVA ULICA 3,45.91998,14.36563,Mejačeva ulica,,3,,Borovnica,,Borovnica,1353,Borovnica
1354 HORJUL,SLOVENSKA CESTA 17,46.02461,14.29536,Slovenska cesta,,17,,Horjul,,Horjul,1354,Horjul
1355 POLHOV GRADEC,PODREBER 12 C,46.06336,14.32001,Podreber,,12,C,Podreber,,Dobrova-Polhov Gradec,1355,Polhov Gradec
1355 POLHOV GRADEC,POLHOV GRADEC 13,46.06521,14.31457,Polhov Gradec,,13,,Polhov Gradec,,Dobrova-Polhov Gradec,1355,Polhov Gradec
1355 POLHOV GRADEC,PRAPROČE 3,46.05929,14.29500,Praproče,,3,,Praproče,,Dobrova-Polhov Gradec,1355,Polhov Gradec
1356 DOBROVA,ULICA VLADIMIRJA DOLNIČARJA 11,46.05355,14.41726,Ulica Vladimirja Dolničarja,,11,,Dobrova,,Dobrova-Polhov Gradec,1356,Dobrova
1357 NOTRANJE GORICE,PODPEŠKA CESTA 380,45.98948,14.40273,Podpeška cesta,,380,,Notranje Gorice,,Brezovica,1357,Notranje Gorice
1358 LOG PRI BREZOVICI,CESTA NA POLJE 2,46.00732,14.35305,Cesta na polje,,2,,Log pri Brezovici,,Log-Dragomer,1358,Log pri Brezovici
1360 VRHNIKA,BRIGADIRSKA CESTA 16,45.96273,14.30258,Brigadirska cesta,,16,,Verd,,Vrhnika,1360,Vrhnika
1360 VRHNIKA,CESTA 6. MAJA 11,45.96278,14.29358,Cesta 6. maja,,11,,Vrhnika,,Vrhnika,1360,Vrhnika
1360 VRHNIKA,MED VRTOVI 8,45.96540,14.28766,Med vrtovi,,8,,Vrhnika,,Vrhnika,1360,Vrhnika
1360 VRHNIKA,NA KLANCU 22,45.96633,14.29340,Na klancu,,22,,Vrhnika,,Vrhnika,1360,Vrhnika
1360 VRHNIKA,POD HRUŠEVCO 33,45.97336,14.29506,Pod Hruševco,,33,,Vrhnika,,Vrhnika,1360,Vrhnika
1360 VRHNIKA,ROBOVA CESTA 6,45.96751,14.29722,Robova cesta,,6,,Vrhnika,,Vrhnika,1360,Vrhnika
1370 LOGATEC,NOTRANJSKA CESTA 2,45.91681,14.22768,Notranjska cesta,,2,,Logatec,,Logatec,1370,Logatec
1370 LOGATEC,PARTIZANSKA ULICA 8 A,45.91832,14.22152,Partizanska ulica,,8,A,Logatec,,Logatec,1370,Logatec
1380 CERKNICA,CESTA 4. MAJA 17,45.79122,14.36578,Cesta 4. maja,,17,,Cerknica,,Cerknica,1380,Cerknica
1380 CERKNICA,CESTA POD SLIVNICO 21,45.79663,14.36783,Cesta pod Slivnico,,21,,Cerknica,,Cerknica,1380,Cerknica
1386 STARI TRG PRI LOŽU,CESTA NOTRANJSKEGA ODREDA 36,45.71325,14.47221,Cesta Notranjskega odreda,,36,,Stari trg pri Ložu,,Loška dolina,1386,Stari trg pri Ložu
1410 ZAGORJE OB SAVI,CESTA 9. AVGUSTA 8 B,46.13429,14.99599,Cesta 9. avgusta,,8,B,Zagorje ob Savi,,Zagorje ob Savi,1410,Zagorje ob Savi
1410 ZAGORJE OB SAVI,CESTA ZMAGE 1,46.13384,14.99570,Cesta zmage,,1,,Zagorje ob Savi,,Zagorje ob Savi,1410,Zagorje ob Savi
1411 IZLAKE,IZLAKE 13,46.15540,14.92923,Izlake,,13,,Izlake,,Zagorje ob Savi,1411,Izlake
1420 TRBOVLJE,RUDARSKA CESTA 12,46.15510,15.04796,Rudarska cesta,,12,,Trbovlje,,Trbovlje,1420,Trbovlje
1420 TRBOVLJE,RUDARSKA CESTA 9,46.15398,15.04710,Rudarska cesta,,9,,Trbovlje,,Trbovlje,1420,Trbovlje
1430 HRASTNIK,NOVI DOM 11,46.14030,15.08513,Novi dom,,11,,Hrastnik,,Hrastnik,1430,Hrastnik
1431 DOL PRI HRASTNIKU,TRG BORCEV NOB 13,46.14123,15.11613,Trg borcev NOB,,13,,Dol pri Hrastniku,,Hrastnik,1431,Dol pri Hrastniku
1433 RADEČE,ULICA OF 8,46.06587,15.18065,Ulica OF,,8,,Radeče,,Radeče,1433,Radeče
2000 MARIBOR,BETETTOVA ULICA 11,46.54059,15.63068,Betettova ulica,,11,,Maribor,,Maribor,2000,Maribor
2000 MARIBOR,BETNAVSKA CESTA 13,46.54967,15.64086,Betnavska cesta,,13,,Maribor,,Maribor,2000,Maribor
2000 MARIBOR,BORŠTNIKOVA ULICA 79,46.53511,15.62851,Borštnikova ulica,,79,,Maribor,,Maribor,2000,Maribor
2000 MARIBOR,CANKARJEVA ULICA 23 A,46.56374,15.65253,Cankarjeva ulica,,23,A,Maribor,,Maribor,2000,Maribor
2000 MARIBOR,CANKARJEVA ULICA 6 D,46.56117,15.65419,Cankarjeva ulica,,6,D,Maribor,,Maribor,2000,Maribor
2000 MARIBOR,CESTA OSVOBODILNE FRONTE 44,46.54946,15.66849,Cesta Osvobodilne fronte,,44,,Maribor,,Maribor,2000,Maribor
2000 MARIBOR,CESTA XIV. DIVIZIJE 30,46.55159,15.66267,Cesta XIV. divizije,,30,,Maribor,,Maribor,2000,Maribor
2000 MARIBOR,DVOŘAKOVA ULICA 10,46.55362,15.64424,Dvořakova ulica,,10,,Maribor,,Maribor,2000,Maribor
2000 MARIBOR,GOSPEJNA ULICA 11,46.55957,15.64234,Gospejna ulica,,11,,Maribor,,Maribor,2000,Maribor
2000 MARIBOR,HRENOVA ULICA 6,46.55432,15.62367,Hrenova ulica,,6,,Maribor,,Maribor,2000,Maribor
2000 MARIBOR,JEZDARSKA ULICA 7,46.55122,15.64209,Jezdarska ulica,,7,,Maribor,,Maribor,2000,Maribor
2000 MARIBOR,KALOHOVA ULICA 18,46.55507,15.61747,Kalohova ulica,,18,,Maribor,,Maribor,2000,Maribor
2000 MARIBOR,KARDELJEVA CESTA 84,46.54116,15.63252,Kardeljeva cesta,,84,,Maribor,,Maribor,2000,Maribor
2000 MARIBOR,KETTEJEVA ULICA 14,46.54801,15.63859,Kettejeva ulica,,14,,Maribor,,Maribor,2000,Maribor
2000 MARIBOR,KNAFELČEVA ULICA 31,46.53891,15.63321,Knafelčeva ulica,,31,,Maribor,,Maribor,2000,Maribor
2000 MARIBOR,KOPITARJEVA ULICA 2,46.56326,15.65746,Kopitarjeva ulica,,2,,Maribor,,Maribor,2000,Maribor
2000 MARIBOR,KOROŠKA CESTA 113 C,46.56093,15.62844,Koroška cesta,,113,C,Maribor,,Maribor,2000,Maribor
2000 MARIBOR,KOROŠKA CESTA 52,46.55910,15.63717,Koroška cesta,,52,,Maribor,,Maribor,2000,Maribor
2000 MARIBOR,KOSOVA ULICA 9,46.54104,15.59950,Kosova ulica,,9,,Maribor,,Maribor,2000,Maribor
2000 MARIBOR,KREKOVA ULICA 14 A,46.56236,15.64548,Krekova ulica,,14,A,Maribor,,Maribor,2000,Maribor
2000 MARIBOR,LAVRIČEVA ULICA 1,46.55817,15.63600,Lavričeva ulica,,1,,Maribor,,Maribor,2000,Maribor
2000 MARIBOR,LJUBLJANSKA ULICA 5,46.55289,15.64858,Ljubljanska ulica,,5,,Maribor,,Maribor,2000,Maribor
2000 MARIBOR,LJUBLJANSKA ULICA 9,46.55337,15.64665,Ljubljanska ulica,,9,,Maribor,,Maribor,2000,Maribor
2000 MARIBOR,METELKOVA ULICA 48,46.54221,15.64158,Metelkova ulica,,48,,Maribor,,Maribor,2000,Maribor
2000 MARIBOR,NA SOSESKI 14,46.53872,15.63408,Na soseski,,14,,Maribor,,Maribor,2000,Maribor
2000 MARIBOR,NA TRATI 2,46.53586,15.68739,Na trati,,2,,Maribor,,Maribor,2000,Maribor
2000 MARIBOR,OBLAKOVA ULICA 4,46.54231,15.63117,Oblakova ulica,,4,,Maribor,,Maribor,2000,Maribor
2000 MARIBOR,PARTIZANSKA CESTA 59,46.56358,15.65790,Partizanska cesta,,59,,Maribor,,Maribor,2000,Maribor
2000 MARIBOR,POBREŠKA CESTA 6,46.55441,15.64665,Pobreška cesta,,6,,Maribor,,Maribor,2000,Maribor
2000 MARIBOR,POHORSKA ULICA 21 B,46.53831,15.60509,Pohorska ulica,,21,B,Maribor,,Maribor,2000,Maribor
2000 MARIBOR,PRVOMAJSKA ULICA 25,46.53329,15.66758,Prvomajska ulica,,25,,Maribor,,Maribor,2000,Maribor
2000 MARIBOR,PUPINOVA ULICA 2,46.55272,15.64503,Pupinova ulica,,2,,Maribor,,Maribor,2000,Maribor
2000 MARIBOR,RADVANJSKA CESTA 134,46.53554,15.62451,Radvanjska cesta,,134,,Maribor,,Maribor,2000,Maribor
2000 MARIBOR,RIBNIŠKA ULICA 5,46.56844,15.64870,Ribniška ulica,,5,,Maribor,,Maribor,2000,Maribor
2000 MARIBOR,TOLSTOJEVA ULICA 3,46.54793,15.67025,Tolstojeva ulica,,3,,Maribor,,Maribor,2000,Maribor
2000 MARIBOR,TOMŠIČEVA ULICA 23,46.56585,15.65337,Tomšičeva ulica,,23,,Maribor,,Maribor,2000,Maribor
2000 MARIBOR,TOMŠIČEVA ULICA 6,46.56540,15.65090,Tomšičeva ulica,,6,,Maribor,,Maribor,2000,Maribor
2000 MARIBOR,ULICA HEROJA NANDETA 31,46.53267,15.67335,Ulica heroja Nandeta,,31,,Maribor,,Maribor,2000,Maribor
2000 MARIBOR,ULICA HEROJA NANDETA 37,46.53310,15.67376,Ulica heroja Nandeta,,37,,Maribor,,Maribor,2000,Maribor
2000 MARIBOR,ULICA KNEZA KOCLJA 11,46.55769,15.65032,Ulica kneza Koclja,,11,,Maribor,,Maribor,2000,Maribor
2000 MARIBOR,ULICA PARIŠKE KOMUNE 42,46.54732,15.64697,Ulica Pariške komune,,42,,Maribor,,Maribor,2000,Maribor
2000 MARIBOR,ULICA STANETA SEVERJA 7,46.53749,15.63301,Ulica Staneta Severja,,7,,Maribor,,Maribor,2000,Maribor
2000 MARIBOR,ULICA TALCEV 9,46.55933,15.65183,Ulica talcev,,9,,Maribor,,Maribor,2000,Maribor
2000 MARIBOR,VALVASORJEVA ULICA 38,46.55444,15.63680,Valvasorjeva ulica,,38,,Maribor,,Maribor,2000,Maribor
2000 MARIBOR,VEZNA POT 1,46.57373,15.64297,Vezna pot,,1,,Ribniško selo,,Maribor,2000,Maribor
2000 MARIBOR,VOLODJEVA ULICA 17,46.53031,15.66820,Volodjeva ulica,,17,,Maribor,,Maribor,2000,Maribor
2000 MARIBOR,VRBANSKA CESTA 35,46.56527,15.63387,Vrbanska cesta,,35,,Maribor,,Maribor,2000,Maribor
2000 MARIBOR,ZRKOVSKA CESTA 67,46.55598,15.67174,Zrkovska cesta,,67,,Maribor,,Maribor,2000,Maribor
2000 MARIBOR,ŽELEZNIKOVA ULICA 4,46.55037,15.66738,Železnikova ulica,,4,,Maribor,,Maribor,2000,Maribor
2000 MARIBOR,ŽOLGARJEVA ULICA 14,46.54949,15.64170,Žolgarjeva ulica,,14,,Maribor,,Maribor,2000,Maribor
2000 MARIBOR,ŽOLGARJEVA ULICA 7,46.55030,15.64122,Žolgarjeva ulica,,7,,Maribor,,Maribor,2000,Maribor
2201 ZGORNJA KUNGOTA,PLINTOVEC 7 B,46.63896,15.61566,Plintovec,,7,B,Plintovec,,Kungota,2201,Zgornja Kungota
2204 MIKLAVŽ NA DRAVSKEM POLJU,PTUJSKA CESTA 110,46.50217,15.70260,Ptujska cesta,,110,,Miklavž na Dravskem polju,,Miklavž na Dravskem polju,2204,Miklavž na Dravskem polju
2204 MIKLAVŽ NA DRAVSKEM POLJU,PTUJSKA CESTA 13,46.51263,15.69050,Ptujska cesta,,13,,Miklavž na Dravskem polju,,Miklavž na Dravskem polju,2204,Miklavž na Dravskem polju
2211 PESNICA PRI MARIBORU,PESNICA PRI MARIBORU 42 C,46.60846,15.67654,Pesnica pri Mariboru,,42,C,Pesnica pri Mariboru,,Pesnica,2211,Pesnica pri Mariboru
2212 ŠENTILJ V SLOV. GORICAH,POD HRIBOM 12,46.67974,15.65495,Pod hribom,,12,,Šentilj v Slov. goricah,,Šentilj,2212,Šentilj v Slov. goricah
2214 SLADKI VRH,SLADKI VRH 5,46.69756,15.73680,Sladki Vrh,,5,,Sladki Vrh,,Šentilj,2214,Sladki Vrh
2229 MALEČNIK,MALEČNIK 14,46.55410,15.70257,Malečnik,,14,,Malečnik,,Maribor,2229,Malečnik
2230 LENART V SLOV. GORICAH,GREGORČIČEVA ULICA 1,46.57373,15.83203,Gregorčičeva ulica,,1,,Lenart v Slov. goricah,,Lenart,2230,Lenart v Slov. goricah
2230 LENART V SLOV. GORICAH,ILAUNIGOVA ULICA 15,46.57697,15.82809,Ilaunigova ulica,,15,,Lenart v Slov. goricah,,Lenart,2230,Lenart v Slov. goricah
2230 LENART V SLOV. GORICAH,MAISTROVA ULICA 22,46.57734,15.82896,Maistrova ulica,,22,,Lenart v Slov. goricah,,Lenart,2230,Lenart v Slov. goricah
2230 LENART V SLOV. GORICAH,RADEHOVA 5 C,46.56767,15.84591,Radehova,,5,C,Radehova,,Lenart,2230,Lenart v Slov. goricah
2233 SV. ANA V SLOV. GORICAH,KREMBERK 36 A,46.64786,15.84250,Kremberk,,36,A,Kremberk,,Sveta Ana,2233,Sv. Ana v Slov. goricah
2241 SPODNJI DUPLEK,CESTA K DRAVI 8,46.50113,15.74875,Cesta k Dravi,,8,,Spodnji Duplek,,Duplek,2241,Spodnji Duplek
2241 SPODNJI DUPLEK,KORENSKA CESTA 31,46.50402,15.75597,Korenska cesta,,31,,Spodnji Duplek,,Duplek,2241,Spodnji Duplek
2250 PTUJ,LANGUSOVA ULICA 8,46.43101,15.88301,Langusova ulica,,8,,Ptuj,,Ptuj,2250,Ptuj
2250 PTUJ,NA TRATAH 4,46.41683,15.87719,Na tratah,,4,,Ptuj,,Ptuj,2250,Ptuj
2250 PTUJ,OSOJNIKOVA CESTA 9,46.42061,15.87558,Osojnikova cesta,,9,,Ptuj,,Ptuj,2250,Ptuj
2250 PTUJ,POT V TOPLICE 9,46.42154,15.85575,Pot v toplice,,9,,Ptuj,,Ptuj,2250,Ptuj
2250 PTUJ,POTRČEVA CESTA 15,46.42472,15.87653,Potrčeva cesta,,15,,Ptuj,,Ptuj,2250,Ptuj
2250 PTUJ,POTRČEVA CESTA 17,46.42485,15.87672,Potrčeva cesta,,17,,Ptuj,,Ptuj,2250,Ptuj
2250 PTUJ,POTRČEVA CESTA 19 A,46.42513,15.87566,Potrčeva cesta,,19,A,Ptuj,,Ptuj,2250,Ptuj
2250 PTUJ,POTRČEVA CESTA 23,46.42609,15.87709,Potrčeva cesta,,23,,Ptuj,,Ptuj,2250,Ptuj
2250 PTUJ,POTRČEVA CESTA 33,46.42660,15.87898,Potrčeva cesta,,33,,Ptuj,,Ptuj,2250,Ptuj
2250 PTUJ,POTRČEVA CESTA 4 A,46.42174,15.87383,Potrčeva cesta,,4,A,Ptuj,,Ptuj,2250,Ptuj
2250 PTUJ,POTRČEVA CESTA 49,46.42764,15.88104,Potrčeva cesta,,49,,Ptuj,,Ptuj,2250,Ptuj
2250 PTUJ,RAJŠPOVA ULICA 16,46.41951,15.88151,Rajšpova ulica,,16,,Ptuj,,Ptuj,2250,Ptuj
2250 PTUJ,ROGOZNIŠKA CESTA 32,46.42610,15.88611,Rogozniška cesta,,32,,Ptuj,,Ptuj,2250,Ptuj
2250 PTUJ,ROGOZNIŠKA CESTA 32 A,46.42600,15.88643,Rogozniška cesta,,32,A,Ptuj,,Ptuj,2250,Ptuj
2250 PTUJ,SLOVENSKOGORIŠKA CESTA 39,46.43302,15.88830,Slovenskogoriška cesta,,39,,Ptuj,,Ptuj,2250,Ptuj
2250 PTUJ,VOLKMERJEVA CESTA 63,46.43203,15.86728,Volkmerjeva cesta,,63,,Ptuj,,Ptuj,2250,Ptuj
2252 DORNAVA,DORNAVA 135 A,46.43405,15.95139,Dornava,,135,A,Dornava,,Dornava,2252,Dornava
2253 DESTRNIK,DESTRNIK 9,46.49296,15.87572,Destrnik,,9,,Destrnik,,Destrnik,2253,Destrnik
2254 TRNOVSKA VAS,TRNOVSKA VAS 42 A,46.51993,15.88594,Trnovska vas,,42,A,Trnovska vas,,Trnovska vas,2254,Trnovska vas
2256 JURŠINCI,JURŠINCI 3,46.48566,15.96784,Juršinci,,3,,Juršinci,,Juršinci,2256,Juršinci
2270 ORMOŽ,ULICA DR. HROVATA 4,46.40724,16.14333,Ulica dr. Hrovata,,4,,Ormož,,Ormož,2270,Ormož
2272 GORIŠNICA,GORIŠNICA 65,46.41047,16.01167,Gorišnica,,65,,Gorišnica,,Gorišnica,2272,Gorišnica
2272 GORIŠNICA,MALA VAS 32 B,46.39088,16.00524,Mala vas,,32,B,Mala vas,,Gorišnica,2272,Gorišnica
2273 PODGORCI,PODGORCI 48,46.42049,16.04944,Podgorci,,48,,Podgorci,,Ormož,2273,Podgorci
2281 MARKOVCI,MARKOVCI 43,46.39430,15.93041,Markovci,,43,,Markovci,,Markovci,2281,Markovci
2282 CIRKULANE,CIRKULANE 28,46.34593,15.99901,Cirkulane,,28,,Cirkulane,,Cirkulane,2282,Cirkulane
2284 VIDEM PRI PTUJU,VIDEM PRI PTUJU 51,46.36906,15.90255,Videm pri Ptuju,,51,,Videm pri Ptuju,,Videm,2284,Videm pri Ptuju
2286 PODLEHNIK,PODLEHNIK 9,46.33608,15.87803,Podlehnik,,9,,Podlehnik,,Podlehnik,2286,Podlehnik
2310 SLOVENSKA BISTRICA,DEVINSKA ULICA 11,46.39787,15.57986,Devinska ulica,,11,,Slovenska Bistrica,,Slovenska Bistrica,2310,Slovenska Bistrica
2310 SLOVENSKA BISTRICA,LJUBLJANSKA CESTA 80,46.38414,15.56447,Ljubljanska cesta,,80,,Slovenska Bistrica,,Slovenska Bistrica,2310,Slovenska Bistrica
2310 SLOVENSKA BISTRICA,MROŽEVA ULICA 3,46.39615,15.55526,Mroževa ulica,,3,,Slovenska Bistrica,,Slovenska Bistrica,2310,Slovenska Bistrica
2310 SLOVENSKA BISTRICA,PARTIZANSKA ULICA 30,46.39552,15.56233,Partizanska ulica,,30,,Slovenska Bistrica,,Slovenska Bistrica,2310,Slovenska Bistrica
2310 SLOVENSKA BISTRICA,TRG ALFONZA ŠARHA 18,46.39443,15.57367,Trg Alfonza Šarha,,18,,Slovenska Bistrica,,Slovenska Bistrica,2310,Slovenska Bistrica
2310 SLOVENSKA BISTRICA,TRG SVOBODE 26,46.39244,15.57267,Trg svobode,,26,,Slovenska Bistrica,,Slovenska Bistrica,2310,Slovenska Bistrica
2310 SLOVENSKA BISTRICA,ULICA BORISA WINTERJA 10,46.38857,15.57340,Ulica Borisa Winterja,,10,,Slovenska Bistrica,,Slovenska Bistrica,2310,Slovenska Bistrica
2313 FRAM,CAFOVA ULICA 1,46.45644,15.62696,Cafova ulica,,1,,Fram,,Rače-Fram,2313,Fram
2314 ZGORNJA POLSKAVA,MLADINSKA ULICA 12,46.42702,15.61079,Mladinska ulica,,12,,Zgornja Polskava,,Slovenska Bistrica,2314,Zgornja Polskava
2317 OPLOTNICA,ULICA POHORSKEGA BATALJONA 11,46.38817,15.44733,Ulica Pohorskega bataljona,,11,,Oplotnica,,Oplotnica,2317,Oplotnica
2319 POLJČANE,BISTRIŠKA CESTA 62,46.31290,15.57823,Bistriška cesta,,62,,Poljčane,,Poljčane,2319,Poljčane
2319 POLJČANE,BISTRIŠKA CESTA 97,46.30821,15.57729,Bistriška cesta,,97,,Poljčane,,Poljčane,2319,Poljčane
2321 MAKOLE,MAKOLE 28,46.31735,15.66729,Makole,,28,,Makole,,Makole,2321,Makole
2322 MAJŠPERK,BREG 6 A,46.33947,15.73623,Breg,,6,A,Breg,,Majšperk,2322,Majšperk
2326 CIRKOVCE,CIRKOVCE 47,46.39472,15.72270,Cirkovce,,47,,Cirkovce,,Kidričevo,2326,Cirkovce
2327 RAČE,NOVA ULICA 5,46.45384,15.67405,Nova ulica,,5,,Rače,,Rače-Fram,2327,Rače
2331 PRAGERSKO,KOLODVORSKA ULICA 3,46.39521,15.66135,Kolodvorska ulica,,3,,Pragersko,,Slovenska Bistrica,2331,Pragersko
2341 LIMBUŠ,LACKOVA CESTA 135,46.54667,15.59819,Lackova cesta,,135,,Pekre,,Maribor,2341,Limbuš
2341 LIMBUŠ,LACKOVA CESTA 269,46.55387,15.58161,Lackova cesta,,269,,Limbuš,,Maribor,2341,Limbuš
2341 LIMBUŠ,ULICA LACKOVEGA ODREDA 6,46.55328,15.58435,Ulica Lackovega odreda,,6,,Limbuš,,Maribor,2341,Limbuš
2342 RUŠE,STADIONSKA ULICA 2,46.54266,15.50658,Stadionska ulica,,2,,Ruše,,Ruše,2342,Ruše
2342 RUŠE,STADIONSKA ULICA 4,46.54277,15.50623,Stadionska ulica,,4,,Ruše,,Ruše,2342,Ruše
2344 LOVRENC NA POHORJU,GORNJI TRG 37,46.53780,15.38462,Gornji trg,,37,,Lovrenc na Pohorju,,Lovrenc na Pohorju,2344,Lovrenc na Pohorju
2351 KAMNICA,CESTA V ROŠPOH 24 A,46.57287,15.61260,Cesta v Rošpoh,,24,A,Kamnica,,Maribor,2351,Kamnica
2351 KAMNICA,VRBANSKA CESTA 97,46.57321,15.61582,Vrbanska cesta,,97,,Kamnica,,Maribor,2351,Kamnica
2352 SELNICA OB DRAVI,SLOVENSKI TRG 4,46.55150,15.49303,Slovenski trg,,4,,Selnica ob Dravi,,Selnica ob Dravi,2352,Selnica ob Dravi
2352 SELNICA OB DRAVI,SPODNJI SLEMEN 11,46.56018,15.52055,Spodnji Slemen,,11,,Spodnji Slemen,,Selnica ob Dravi,2352,Selnica ob Dravi
2354 BRESTERNICA,CESTA NA ŽAVCERJA 15,46.56716,15.57100,Cesta na Žavcerja,,15,,Jelovec,,Maribor,2354,Bresternica
2360 RADLJE OB DRAVI,MARIBORSKA CESTA 37,46.61372,15.23075,Mariborska cesta,,37,,Radlje ob Dravi,,Radlje ob Dravi,2360,Radlje ob Dravi
2360 RADLJE OB DRAVI,PARTIZANSKA ULICA 38,46.61458,15.22869,Partizanska ulica,,38,,Radlje ob Dravi,,Radlje ob Dravi,2360,Radlje ob Dravi
2366 MUTA,GLAVNI TRG 47,46.61055,15.16488,Glavni trg,,47,,Muta,,Muta,2366,Muta
2367 VUZENICA,MLADINSKA ULICA 17,46.59873,15.16440,Mladinska ulica,,17,,Vuzenica,,Vuzenica,2367,Vuzenica
2370 DRAVOGRAD,MARIBORSKA CESTA 38,46.59024,15.02867,Mariborska cesta,,38,,Dravograd,,Dravograd,2370,Dravograd
2370 DRAVOGRAD,TRG 4. JULIJA 4,46.58962,15.02470,Trg 4. julija,,4,,Dravograd,,Dravograd,2370,Dravograd
2370 DRAVOGRAD,TRG 4. JULIJA 9,46.58921,15.02233,Trg 4. julija,,9,,Dravograd,,Dravograd,2370,Dravograd
2380 SLOVENJ GRADEC,GOSPOSVETSKA CESTA 1,46.50766,15.08173,Gosposvetska cesta,,1,,Slovenj Gradec,,Slovenj Gradec,2380,Slovenj Gradec
2380 SLOVENJ GRADEC,KOPALIŠKA ULICA 29,46.50613,15.08509,Kopališka ulica,,29,,Slovenj Gradec,,Slovenj Gradec,2380,Slovenj Gradec
2380 SLOVENJ GRADEC,OB SUHODOLNICI 31,46.50331,15.07270,Ob Suhodolnici,,31,,Slovenj Gradec,,Slovenj Gradec,2380,Slovenj Gradec
2380 SLOVENJ GRADEC,PARTIZANSKA POT 16,46.50693,15.08202,Partizanska pot,,16,,Slovenj Gradec,,Slovenj Gradec,2380,Slovenj Gradec
2380 SLOVENJ GRADEC,PREŠERNOVA ULICA 3 C,46.51484,15.08390,Prešernova ulica,,3,C,Slovenj Gradec,,Slovenj Gradec,2380,Slovenj Gradec
2381 PODGORJE PRI SLOVENJ GRADCU,PODGORJE 64 A,46.48078,15.07995,Podgorje,,64,A,Podgorje,,Slovenj Gradec,2381,Podgorje pri Slovenj Gradcu
2382 MISLINJA,ŠOLSKA CESTA 55,46.44475,15.19541,Šolska cesta,,55,,Mislinja,,Mislinja,2382,Mislinja
2390 RAVNE NA KOROŠKEM,GAČNIKOVA POT 3,46.54417,14.96289,Gačnikova pot,,3,,Ravne na Koroškem,,Ravne na Koroškem,2390,Ravne na Koroškem
2390 RAVNE NA KOROŠKEM,OB SUHI 11,46.54286,14.96765,Ob Suhi,,11,,Ravne na Koroškem,,Ravne na Koroškem,2390,Ravne na Koroškem
2390 RAVNE NA KOROŠKEM,OB SUHI 5,46.54372,14.96774,Ob Suhi,,5,,Ravne na Koroškem,,Ravne na Koroškem,2390,Ravne na Koroškem
2390 RAVNE NA KOROŠKEM,PARTIZANSKA CESTA 4,46.54452,14.96530,Partizanska cesta,,4,,Ravne na Koroškem,,Ravne na Koroškem,2390,Ravne na Koroškem
2390 RAVNE NA KOROŠKEM,TRG SVOBODE 18 A,46.54428,14.96559,Trg svobode,,18,A,Ravne na Koroškem,,Ravne na Koroškem,2390,Ravne na Koroškem
2391 PREVALJE,PRI BRANČURNIKU 10,46.54492,14.93243,Pri Brančurniku,,10,,Prevalje,,Prevalje,2391,Prevalje
2391 PREVALJE,TRG 32,46.54497,14.91429,Trg,,32,,Prevalje,,Prevalje,2391,Prevalje
2391 PREVALJE,TRG 58 A,46.54639,14.91692,Trg,,58,A,Prevalje,,Prevalje,2391,Prevalje
2392 MEŽICA,PARTIZANSKA CESTA 17,46.51905,14.85387,Partizanska cesta,,17,,Mežica,,Mežica,2392,Mežica
2392 MEŽICA,SMREČNIKOVO 20,46.52036,14.84696,Smrečnikovo,,20,,Mežica,,Mežica,2392,Mežica
3000 CELJE,AŠKERČEVA ULICA 14,46.23059,15.26804,Aškerčeva ulica,,14,,Celje,,Celje,3000,Celje
3000 CELJE,CANKARJEVA ULICA 6,46.22964,15.26602,Cankarjeva ulica,,6,,Celje,,Celje,3000,Celje
3000 CELJE,CESTA NA DOBROVO 114,46.25016,15.26509,Cesta na Dobrovo,,114,,Celje,,Celje,3000,Celje
3000 CELJE,CESTA V ZADOBROVO 12,46.25725,15.29632,Cesta v Zadobrovo,,12,,Trnovlje pri Celju,,Celje,3000,Celje
3000 CELJE,GREGORČIČEVA ULICA 5,46.23224,15.26227,Gregorčičeva ulica,,5,,Celje,,Celje,3000,Celje
3000 CELJE,GUBČEVA ULICA 10,46.22956,15.26637,Gubčeva ulica,,10,,Celje,,Celje,3000,Celje
3000 CELJE,JENKOVA ULICA 20,46.23594,15.26216,Jenkova ulica,,20,,Celje,,Celje,3000,Celje
3000 CELJE,JENKOVA ULICA 36,46.23621,15.26007,Jenkova ulica,,36,,Celje,,Celje,3000,Celje
3000 CELJE,LAVA 7,46.24025,15.25318,Lava,,7,,Celje,,Celje,3000,Celje
3000 CELJE,LJUBLJANSKA CESTA 14,46.23244,15.25968,Ljubljanska cesta,,14,,Celje,,Celje,3000,Celje
3000 CELJE,NAZORJEVA ULICA 14,46.23485,15.24024,Nazorjeva ulica,,14,,Celje,,Celje,3000,Celje
3000 CELJE,OB KOPRIVNICI 81,46.24988,15.25196,Ob Koprivnici,,81,,Celje,,Celje,3000,Celje
3000 CELJE,OBLAKOVA ULICA 5,46.23463,15.26257,Oblakova ulica,,5,,Celje,,Celje,3000,Celje
3000 CELJE,TRUBARJEVA ULICA 11,46.23108,15.25643,Trubarjeva ulica,,11,,Celje,,Celje,3000,Celje
3000 CELJE,ULICA BRATOV VOŠNJAKOV 12,46.24598,15.26429,Ulica bratov Vošnjakov,,12,,Celje,,Celje,3000,Celje
3201 ŠMARTNO V ROŽNI DOLINI,GORICA PRI ŠMARTNEM 13,46.27219,15.23887,Gorica pri Šmartnem,,13,,Gorica pri Šmartnem,,Celje,3201,Šmartno v Rožni dolini
3204 DOBRNA,DOBRNA 50,46.33966,15.22417,Dobrna,,50,,Dobrna,,Dobrna,3204,Dobrna
3205 VITANJE,NA VASI 11,46.38261,15.29604,Na vasi,,11,,Vitanje,,Vitanje,3205,Vitanje
3210 SLOVENSKE KONJICE,DOBRAVA PRI KONJICAH 3 B,46.34627,15.41290,Dobrava pri Konjicah,,3,B,Dobrava pri Konjicah,,Slovenske Konjice,3210,Slovenske Konjice
3210 SLOVENSKE KONJICE,MESTNI TRG 17,46.33998,15.42862,Mestni trg,,17,,Slovenske Konjice,,Slovenske Konjice,3210,Slovenske Konjice
3211 ŠKOFJA VAS,ZADOBROVA 49 B,46.25981,15.29581,Zadobrova,,49,B,Zadobrova,,Celje,3211,Škofja vas
3212 VOJNIK,CELJSKA CESTA 24 B,46.29098,15.30088,Celjska cesta,,24,B,Vojnik,,Vojnik,3212,Vojnik
3212 VOJNIK,CELJSKA CESTA 26,46.29015,15.30205,Celjska cesta,,26,,Vojnik,,Vojnik,3212,Vojnik
3212 VOJNIK,KERŠOVA ULICA 1,46.29133,15.30397,Keršova ulica,,1,,Vojnik,,Vojnik,3212,Vojnik
3214 ZREČE,DOBROVELJSKA CESTA 1,46.36625,15.39544,Dobroveljska cesta,,1,,Zreče,,Zreče,3214,Zreče
3214 ZREČE,KOVAŠKA CESTA 22,46.37959,15.38343,Kovaška cesta,,22,,Zreče,,Zreče,3214,Zreče
3214 ZREČE,KOVAŠKA CESTA 25 B,46.37116,15.39114,Kovaška cesta,,25,B,Zreče,,Zreče,3214,Zreče
3230 ŠENTJUR,CESTA LEONA DOBROTINŠKA 3 B,46.21453,15.39378,Cesta Leona Dobrotinška,,3,B,Šentjur,,Šentjur,3230,Šentjur
3230 ŠENTJUR,CESTA LEONA DOBROTINŠKA 5,46.21421,15.39394,Cesta Leona Dobrotinška,,5,,Šentjur,,Šentjur,3230,Šentjur
3230 ŠENTJUR,CESTA LEONA DOBROTINŠKA 6 A,46.21416,15.39336,Cesta Leona Dobrotinška,,6,A,Šentjur,,Šentjur,3230,Šentjur
3230 ŠENTJUR,ULICA DUŠANA KVEDRA 27,46.21817,15.39597,Ulica Dušana Kvedra,,27,,Šentjur,,Šentjur,3230,Šentjur
3240 ŠMARJE PRI JELŠAH,CELJSKA CESTA 14,46.22925,15.51630,Celjska cesta,,14,,Šmarje pri Jelšah,,Šmarje pri Jelšah,3240,Šmarje pri Jelšah
3240 ŠMARJE PRI JELŠAH,CELJSKA CESTA 16,46.22926,15.51610,Celjska cesta,,16,,Šmarje pri Jelšah,,Šmarje pri Jelšah,3240,Šmarje pri Jelšah
3240 ŠMARJE PRI JELŠAH,ROGAŠKA CESTA 21,46.22985,15.52162,Rogaška cesta,,21,,Šmarje pri Jelšah,,Šmarje pri Jelšah,3240,Šmarje pri Jelšah
3250 ROGAŠKA SLATINA,CELJSKA CESTA 10,46.23916,15.63420,Celjska cesta,,10,,Rogaška Slatina,,Rogaška Slatina,3250,Rogaška Slatina
3250 ROGAŠKA SLATINA,CELJSKA CESTA 7,46.23915,15.63321,Celjska cesta,,7,,Rogaška Slatina,,Rogaška Slatina,3250,Rogaška Slatina
3250 ROGAŠKA SLATINA,KIDRIČEVA ULICA 53,46.22564,15.64458,Kidričeva ulica,,53,,Rogaška Slatina,,Rogaška Slatina,3250,Rogaška Slatina
3250 ROGAŠKA SLATINA,LASTINE 17,46.22959,15.64148,Lastine,,17,,Rogaška Slatina,,Rogaška Slatina,3250,Rogaška Slatina
3250 ROGAŠKA SLATINA,OB PROGI 3,46.24403,15.62204,Ob progi,,3,,Rogaška Slatina,,Rogaška Slatina,3250,Rogaška Slatina
3250 ROGAŠKA SLATINA,SPODNJE NEGONJE 16 C,46.25074,15.62346,Spodnje Negonje,,16,C,Spodnje Negonje,,Rogaška Slatina,3250,Rogaška Slatina
3256 BISTRICA OB SOTLI,BISTRICA OB SOTLI 61,46.05571,15.66327,Bistrica ob Sotli,,61,,Bistrica ob Sotli,,Bistrica ob Sotli,3256,Bistrica ob Sotli
3261 LESIČNO,PILŠTANJ 20,46.10006,15.52495,Pilštanj,,20,,Pilštanj,,Kozje,3261,Lesično
3270 LAŠKO,KIDRIČEVA ULICA 5 B,46.15450,15.23730,Kidričeva ulica,,5,B,Laško,,Laško,3270,Laško
3270 LAŠKO,MESTNA ULICA 7,46.15460,15.23636,Mestna ulica,,7,,Laško,,Laško,3270,Laško
3270 LAŠKO,POŽENELOVA ULICA 22,46.16482,15.23049,Poženelova ulica,,22,,Laško,,Laško,3270,Laško
3301 PETROVČE,DOBRIŠA VAS 81,46.24659,15.18210,Dobriša vas,,81,,Dobriša vas,,Žalec,3301,Petrovče
3301 PETROVČE,PETROVČE 95,46.24465,15.18767,Petrovče,,95,,Petrovče,,Žalec,3301,Petrovče
3305 VRANSKO,VRANSKO 130 D,46.24591,14.95101,Vransko,,130,D,Vransko,,Vransko,3305,Vransko
3310 ŽALEC,MESTNI TRG 5,46.25295,15.16210,Mestni trg,,5,,Žalec,,Žalec,3310,Žalec
3310 ŽALEC,PREŠERNOVA ULICA 6,46.25093,15.16216,Prešernova ulica,,6,,Žalec,,Žalec,3310,Žalec
3311 ŠEMPETER V SAVINJSKI DOLINI,RIMSKA CESTA 70,46.25651,15.12077,Rimska cesta,,70,,Šempeter v Savinj. dolini,,Žalec,3311,Šempeter v Savinjski dolini
3312 PREBOLD,GRAŠČINSKA CESTA 11,46.23604,15.09094,Graščinska cesta,,11,,Prebold,,Prebold,3312,Prebold
3313 POLZELA,GLAVNI TRG 15,46.27950,15.07495,Glavni trg,,15,,Polzela,,Polzela,3313,Polzela
3313 POLZELA,OB ŽELEZNICI 26,46.27866,15.07283,Ob železnici,,26,,Polzela,,Polzela,3313,Polzela
3314 BRASLOVČE,BRASLOVČE 27,46.28760,15.03997,Braslovče,,27,,Braslovče,,Braslovče,3314,Braslovče
3320 VELENJE,CESTA BRATOV MRAVLJAKOV 13,46.36272,15.11965,Cesta bratov Mravljakov,,13,,Velenje,,Velenje,3320,Velenje
3320 VELENJE,EFENKOVA CESTA 61,46.36240,15.12419,Efenkova cesta,,61,,Velenje,,Velenje,3320,Velenje
3320 VELENJE,PREŠERNOVA CESTA 9 A,46.35935,15.10963,Prešernova cesta,,9,A,Velenje,,Velenje,3320,Velenje
3320 VELENJE,SONČNI GRIČ 7,46.35393,15.12586,Sončni grič,,7,,Velenje,,Velenje,3320,Velenje
3320 VELENJE,STANETOVA CESTA 27,46.36631,15.11286,Stanetova cesta,,27,,Velenje,,Velenje,3320,Velenje
3320 VELENJE,VODNIKOVA CESTA 1,46.36151,15.11636,Vodnikova cesta,,1,,Velenje,,Velenje,3320,Velenje
3325 ŠOŠTANJ,FLORJAN 165 C,46.38507,15.02767,Florjan,,165,C,Florjan,,Šoštanj,3325,Šoštanj
3325 ŠOŠTANJ,TRG JOŽETA LAMPRETA 1,46.37648,15.04850,Trg Jožeta Lampreta,,1,,Šoštanj,,Šoštanj,3325,Šoštanj
3327 ŠMARTNO OB PAKI,ŠMARTNO OB PAKI 146 B,46.33000,15.03759,Šmartno ob Paki,,146,B,Šmartno ob Paki,,Šmartno ob Paki,3327,Šmartno ob Paki
3330 MOZIRJE,PODVRH 24,46.33896,14.95551,Podvrh,,24,,Mozirje,,Mozirje,3330,Mozirje
3330 MOZIRJE,SAVINJSKA CESTA 6,46.33885,14.95935,Savinjska cesta,,6,,Mozirje,,Mozirje,3330,Mozirje
3330 MOZIRJE,ŠMIHELSKA CESTA 7,46.34067,14.96434,Šmihelska cesta,,7,,Mozirje,,Mozirje,3330,Mozirje
3331 NAZARJE,ZADREČKA CESTA 14,46.31723,14.94681,Zadrečka cesta,,14,,Nazarje,,Nazarje,3331,Nazarje
3334 LUČE,LUČE 106,46.35640,14.74415,Luče,,106,,Luče,,Luče,3334,Luče
3342 GORNJI GRAD,TLAKA 10,46.29728,14.80953,Tlaka,,10,,Gornji Grad,,Gornji Grad,3342,Gornji Grad
4000 KRANJ,GOSPOSVETSKA ULICA 10,46.24890,14.35325,Gosposvetska ulica,,10,,Kranj,,Kranj,4000,Kranj
4000 KRANJ,GOSPOSVETSKA ULICA 10 A,46.24862,14.35322,Gosposvetska ulica,,10,A,Kranj,,Kranj,4000,Kranj
4000 KRANJ,GOSPOSVETSKA ULICA 10 B,46.24826,14.35331,Gosposvetska ulica,,10,B,Kranj,,Kranj,4000,Kranj
4000 KRANJ,GREGORČIČEVA ULICA 10,46.24313,14.35717,Gregorčičeva ulica,,10,,Kranj,,Kranj,4000,Kranj
4000 KRANJ,KIDRIČEVA CESTA 38 A,46.24863,14.35402,Kidričeva cesta,,38,A,Kranj,,Kranj,4000,Kranj
4000 KRANJ,PANTE 11,46.23346,14.34361,Pante,,11,,Kranj,,Kranj,4000,Kranj
4000 KRANJ,STORŽIŠKA ULICA 4,46.21864,14.37676,Storžiška ulica,,4,,Kranj,,Kranj,4000,Kranj
4000 KRANJ,TEKSTILNA ULICA 17,46.24628,14.36588,Tekstilna ulica,,17,,Kranj,,Kranj,4000,Kranj
4000 KRANJ,ULICA JULETA GABROVŠKA 19,46.23974,14.36458,Ulica Juleta Gabrovška,,19,,Kranj,,Kranj,4000,Kranj
4000 KRANJ,VREČKOVA ULICA 3,46.23503,14.36105,Vrečkova ulica,,3,,Kranj,,Kranj,4000,Kranj
4000 KRANJ,ZASAVSKA CESTA 58 D,46.21782,14.36865,Zasavska cesta,,58,D,Kranj,,Kranj,4000,Kranj
4203 DUPLJE,ZGORNJE DUPLJE 101 A,46.30397,14.29648,Zgornje Duplje,,101,A,Zgornje Duplje,,Naklo,4203,Duplje
4205 PREDDVOR,BAŠELJ 26 B,46.31847,14.39961,Bašelj,,26,B,Bašelj,,Preddvor,4205,Preddvor
4205 PREDDVOR,BELSKA CESTA 42,46.30180,14.41638,Belska cesta,,42,,Preddvor,,Preddvor,4205,Preddvor
4205 PREDDVOR,ŠOLSKA ULICA 9,46.30451,14.42003,Šolska ulica,,9,,Preddvor,,Preddvor,4205,Preddvor
4207 CERKLJE NA GORENJSKEM,KRVAVŠKA CESTA 4,46.25433,14.48847,Krvavška cesta,,4,,Cerklje na Gorenjskem,,Cerklje na Gorenjskem,4207,Cerklje na Gorenjskem
4208 ŠENČUR,PIPANOVA CESTA 43,46.24860,14.41889,Pipanova cesta,,43,,Šenčur,,Šenčur,4208,Šenčur
4220 ŠKOFJA LOKA,FRANKOVO NASELJE 51,46.16964,14.32918,Frankovo naselje,,51,,Škofja Loka,,Škofja Loka,4220,Škofja Loka
4220 ŠKOFJA LOKA,HAFNERJEVO NASELJE 24,46.16977,14.33432,Hafnerjevo naselje,,24,,Škofja Loka,,Škofja Loka,4220,Škofja Loka
4220 ŠKOFJA LOKA,PODLUBNIK 307,46.17254,14.29175,Podlubnik,,307,,Škofja Loka,,Škofja Loka,4220,Škofja Loka
4220 ŠKOFJA LOKA,PODLUBNIK 341,46.17432,14.29072,Podlubnik,,341,,Škofja Loka,,Škofja Loka,4220,Škofja Loka
4220 ŠKOFJA LOKA,PUŠTAL 108,46.16085,14.31135,Puštal,,108,,Puštal,,Škofja Loka,4220,Škofja Loka
4220 ŠKOFJA LOKA,RETEČE 154,46.15978,14.36722,Reteče,,154,,Reteče,,Škofja Loka,4220,Škofja Loka
4220 ŠKOFJA LOKA,RETEČE 205,46.15779,14.37091,Reteče,,205,,Reteče,,Škofja Loka,4220,Škofja Loka
4220 ŠKOFJA LOKA,STARA CESTA 10,46.16618,14.31281,Stara cesta,,10,,Škofja Loka,,Škofja Loka,4220,Škofja Loka
4220 ŠKOFJA LOKA,STARA CESTA 21,46.16629,14.31470,Stara cesta,,21,,Škofja Loka,,Škofja Loka,4220,Škofja Loka
4220 ŠKOFJA LOKA,SV. DUH 162,46.18482,14.32198,Sv. Duh,,162,,Sv. Duh,,Škofja Loka,4220,Škofja Loka
4220 ŠKOFJA LOKA,VISOKO PRI POLJANAH 5,46.12637,14.21316,Visoko pri Poljanah,,5,,Visoko pri Poljanah,,Škofja Loka,4220,Škofja Loka
4224 GORENJA VAS,TRATA 7,46.10233,14.14218,Trata,,7,,Gorenja vas,,Gorenja vas-Poljane,4224,Gorenja vas
4224 GORENJA VAS,TRATA 7 A,46.10238,14.14240,Trata,,7,A,Gorenja vas,,Gorenja vas-Poljane,4224,Gorenja vas
4226 ŽIRI,JOBSTOVA CESTA 22,46.04573,14.10868,Jobstova cesta,,22,,Žiri,,Žiri,4226,Žiri
4226 ŽIRI,TRG SVOBODE 9,46.04754,14.11159,Trg svobode,,9,,Žiri,,Žiri,4226,Žiri
4228 ŽELEZNIKI,OTOKI 14,46.22414,14.16365,Otoki,,14,,Železniki,,Železniki,4228,Železniki
4228 ŽELEZNIKI,RACOVNIK 29,46.22219,14.15786,Racovnik,,29,,Železniki,,Železniki,4228,Železniki
4240 RADOVLJICA,GORENJSKA CESTA 8,46.34202,14.17349,Gorenjska cesta,,8,,Radovljica,,Radovljica,4240,Radovljica
4240 RADOVLJICA,KOPALIŠKA CESTA 7,46.34702,14.17201,Kopališka cesta,,7,,Radovljica,,Radovljica,4240,Radovljica
4240 RADOVLJICA,KRANJSKA CESTA 27,46.34662,14.17529,Kranjska cesta,,27,,Radovljica,,Radovljica,4240,Radovljica
4240 RADOVLJICA,PREŠERNOVA ULICA 6,46.34494,14.17058,Prešernova ulica,,6,,Radovljica,,Radovljica,4240,Radovljica
4240 RADOVLJICA,PREŠERNOVA ULICA 8,46.34525,14.17034,Prešernova ulica,,8,,Radovljica,,Radovljica,4240,Radovljica
4248 LESCE,BEGUNJSKA CESTA 7,46.36184,14.16170,Begunjska cesta,,7,,Lesce,,Radovljica,4248,Lesce
4248 LESCE,DOLINA 12,46.35462,14.15573,Dolina,,12,,Lesce,,Radovljica,4248,Lesce
4260 BLED,CESTA SVOBODE 47 A,46.35838,14.09453,Cesta svobode,,47,A,Bled,,Bled,4260,Bled
4260 BLED,GORENJSKA ULICA 37,46.34715,14.12389,Gorenjska ulica,,37,,Ribno,,Bled,4260,Bled
4260 BLED,KOLODVORSKA CESTA 3 C,46.37448,14.09175,Kolodvorska cesta,,3,C,Bled,,Bled,4260,Bled
4260 BLED,MLADINSKA CESTA 1,46.37140,14.10909,Mladinska cesta,,1,,Bled,,Bled,4260,Bled
4260 BLED,POT NA LISICE 4,46.36823,14.13080,Pot na Lisice,,4,,Bled,,Bled,4260,Bled
4260 BLED,PREŠERNOVA CESTA 52,46.37308,14.10420,Prešernova cesta,,52,,Bled,,Bled,4260,Bled
4260 BLED,SELIŠKA CESTA 3,46.37275,14.10960,Seliška cesta,,3,,Bled,,Bled,4260,Bled
4270 JESENICE,CESTA MARŠALA TITA 112,46.44300,14.03697,Cesta maršala Tita,,112,,Jesenice,,Jesenice,4270,Jesenice
4270 JESENICE,CESTA MARŠALA TITA 78,46.44000,14.04461,Cesta maršala Tita,,78,,Jesenice,,Jesenice,4270,Jesenice
4274 ŽIROVNICA,SELO PRI ŽIROVNICI 8 A,46.40034,14.14153,Selo pri Žirovnici,,8,A,Selo pri Žirovnici,,Žirovnica,4274,Žirovnica
4280 KRANJSKA GORA,KOROŠKA ULICA 2,46.48538,13.78242,Koroška ulica,,2,,Kranjska Gora,,Kranjska Gora,4280,Kranjska Gora
4290 TRŽIČ,BEGUNJSKA CESTA 2,46.35659,14.29278,Begunjska cesta,,2,,Bistrica pri Tržiču,,Tržič,4290,Tržič
4290 TRŽIČ,BLEJSKA CESTA 10,46.36361,14.30654,Blejska cesta,,10,,Tržič,,Tržič,4290,Tržič
4290 TRŽIČ,PREDILNIŠKA CESTA 6,46.36187,14.30768,Predilniška cesta,,6,,Tržič,,Tržič,4290,Tržič
5000 NOVA GORICA,REJČEVA ULICA 4,45.95794,13.64553,Rejčeva ulica,,4,,Nova Gorica,,Nova Gorica,5000,Nova Gorica
5000 NOVA GORICA,STRELIŠKA POT 2,45.95104,13.63447,Streliška pot,,2,,Nova Gorica,,Nova Gorica,5000,Nova Gorica
5000 NOVA GORICA,ULICA GRADNIKOVE BRIGADE 7,45.95843,13.64623,Ulica Gradnikove brigade,,7,,Nova Gorica,,Nova Gorica,5000,Nova Gorica
5000 NOVA GORICA,ULICA TOLMINSKIH PUNTARJEV 4,45.95594,13.64904,Ulica tolminskih puntarjev,,4,,Nova Gorica,,Nova Gorica,5000,Nova Gorica
5210 DESKLE,SREBRNIČEVA ULICA 31,46.05307,13.61428,Srebrničeva ulica,,31,,Deskle,,Kanal,5210,Deskle
5213 KANAL,MORSKO 1,46.08033,13.63544,Morsko,,1,,Morsko,,Kanal,5213,Kanal
5220 TOLMIN,DIJAŠKA ULICA 12,46.18062,13.73435,Dijaška ulica,,12,,Tolmin,,Tolmin,5220,Tolmin
5220 TOLMIN,PREŠERNOVA ULICA 6 A,46.18376,13.73472,Prešernova ulica,,6,A,Tolmin,,Tolmin,5220,Tolmin
5220 TOLMIN,TRG MARŠALA TITA 7,46.18300,13.73269,Trg maršala Tita,,7,,Tolmin,,Tolmin,5220,Tolmin
5222 KOBARID,GREGORČIČEVA ULICA 17,46.24740,13.58074,Gregorčičeva ulica,,17,,Kobarid,,Kobarid,5222,Kobarid
5230 BOVEC,MALA VAS 56,46.34016,13.55752,Mala vas,,56,,Bovec,,Bovec,5230,Bovec
5270 AJDOVŠČINA,TOVARNIŠKA CESTA 2 B,45.88681,13.90359,Tovarniška cesta,,2,B,Ajdovščina,,Ajdovščina,5270,Ajdovščina
5270 AJDOVŠČINA,TOVARNIŠKA CESTA 3,45.88598,13.90542,Tovarniška cesta,,3,,Ajdovščina,,Ajdovščina,5270,Ajdovščina
5270 AJDOVŠČINA,VIPAVSKA CESTA 4 A,45.88449,13.91053,Vipavska cesta,,4,A,Ajdovščina,,Ajdovščina,5270,Ajdovščina
5271 VIPAVA,GLAVNI TRG 16 C,45.84600,13.96138,Glavni trg,,16,C,Vipava,,Vipava,5271,Vipava
5280 IDRIJA,ULICA OTONA ŽUPANČIČA 3,46.00220,14.03036,Ulica Otona Župančiča,,3,,Idrija,,Idrija,5280,Idrija
5290 ŠEMPETER PRI GORICI,CESTA PREKOMORSKIH BRIGAD 25,45.93053,13.63792,Cesta Prekomorskih brigad,,25,,Šempeter pri Gorici,,Šempeter-Vrtojba,5290,Šempeter pri Gorici
5290 ŠEMPETER PRI GORICI,CESTA PREKOMORSKIH BRIGAD 3,45.93034,13.63913,Cesta Prekomorskih brigad,,3,,Šempeter pri Gorici,,Šempeter-Vrtojba,5290,Šempeter pri Gorici
5290 ŠEMPETER PRI GORICI,ULICA PADLIH BORCEV 13 A,45.93020,13.64083,Ulica padlih borcev,,13,A,Šempeter pri Gorici,,Šempeter-Vrtojba,5290,Šempeter pri Gorici
5292 RENČE,TRG 41,45.88958,13.66932,Trg,,41,,Renče,,Renče-Vogrsko,5292,Renče
6000 KOPER - CAPODISTRIA,BEBLERJEVA ULICA 7,45.54048,13.70814,Beblerjeva ulica,Via Aleš Bebler,7,,Koper,Capodistria,Koper,6000,Koper - Capodistria
6000 KOPER - CAPODISTRIA,BENČIČEVA ULICA 2 D,45.53848,13.71159,Benčičeva ulica,Via Dragomir Benčič,2,D,Koper,Capodistria,Koper,6000,Koper - Capodistria
6000 KOPER - CAPODISTRIA,CESTA NA MARKOVEC 1,45.53529,13.72805,Cesta na Markovec,Strada di Monte Marco,1,,Koper,Capodistria,Koper,6000,Koper - Capodistria
6000 KOPER - CAPODISTRIA,CESTA NA MARKOVEC 31,45.53704,13.71563,Cesta na Markovec,Strada di Monte Marco,31,,Koper,Capodistria,Koper,6000,Koper - Capodistria
6000 KOPER - CAPODISTRIA,CESTA ZORE PERELLO-GODINA 1,45.54256,13.72830,Cesta Zore Perello-Godina,Strada Zora Perello-Godina,1,,Koper,Capodistria,Koper,6000,Koper - Capodistria
6000 KOPER - CAPODISTRIA,DELLAVALLEJEVA ULICA 3,45.54870,13.73094,Dellavallejeva ulica,Via Luciano Dellavalle,3,,Koper,Capodistria,Koper,6000,Koper - Capodistria
6000 KOPER - CAPODISTRIA,DOLGA REBER 35 B,45.54450,13.70170,Dolga reber,Costa Lunga,35,B,Koper,Capodistria,Koper,6000,Koper - Capodistria
6000 KOPER - CAPODISTRIA,DOLINSKA CESTA 17 C,45.52901,13.73041,Dolinska cesta,Strada della Valle,17,C,Koper,Capodistria,Koper,6000,Koper - Capodistria
6000 KOPER - CAPODISTRIA,GLAGOLJAŠKA ULICA 1 C,45.54925,13.72716,Glagoljaška ulica,Via dei Glagoliti,1,C,Koper,Capodistria,Koper,6000,Koper - Capodistria
6000 KOPER - CAPODISTRIA,ISTRSKA CESTA 89 B,45.54636,13.70418,Istrska cesta,Strada dell'Istria,89,B,Koper,Capodistria,Koper,6000,Koper - Capodistria
6000 KOPER - CAPODISTRIA,OBRTNIŠKA ULICA 30,45.53069,13.73563,Obrtniška ulica,Via degli Artigiani,30,,Koper,Capodistria,Koper,6000,Koper - Capodistria
6000 KOPER - CAPODISTRIA,POT V GAJ 2,45.54423,13.71155,Pot v gaj,Vicolo al boschetto,2,,Koper,Capodistria,Koper,6000,Koper - Capodistria
6000 KOPER - CAPODISTRIA,PRISOJNA POT 10,45.54649,13.70532,Prisojna pot,Vicolo Assolato,10,,Koper,Capodistria,Koper,6000,Koper - Capodistria
6000 KOPER - CAPODISTRIA,ROZMANOVA ULICA 13,45.53894,13.72060,Rozmanova ulica,Via Stane Rozman,13,,Koper,Capodistria,Koper,6000,Koper - Capodistria
6000 KOPER - CAPODISTRIA,STANIČEV TRG 1,45.54603,13.72777,Staničev trg,Piazzetta Valentin Stanič,1,,Koper,Capodistria,Koper,6000,Koper - Capodistria
6000 KOPER - CAPODISTRIA,ULICA 15.MAJA 19,45.53713,13.72967,Ulica 15.maja,Via XV maggio,19,,Koper,Capodistria,Koper,6000,Koper - Capodistria
6000 KOPER - CAPODISTRIA,ULICA PRI VELIKIH VRATIH 18,45.54563,13.72888,Ulica Pri velikih vratih,Via Porta Maggiore,18,,Koper,Capodistria,Koper,6000,Koper - Capodistria
6000 KOPER - CAPODISTRIA,ULICA SERGEJA MAŠERE 7,45.54072,13.71264,Ulica Sergeja Mašere,Via Sergej Mašera,7,,Koper,Capodistria,Koper,6000,Koper - Capodistria
6000 KOPER - CAPODISTRIA,VLAČIČEVA ULICA 2 A,45.54580,13.72799,Vlačičeva ulica,Calle Matija Vlačič,2,A,Koper,Capodistria,Koper,6000,Koper - Capodistria
6000 KOPER - CAPODISTRIA,VOJKOVO NABREŽJE 23,45.54627,13.73404,Vojkovo nabrežje,Riva Janko Premrl-Vojko,23,,Koper,Capodistria,Koper,6000,Koper - Capodistria
6000 KOPER - CAPODISTRIA,VOJKOVO NABREŽJE 27,45.54662,13.73465,Vojkovo nabrežje,Riva Janko Premrl-Vojko,27,,Koper,Capodistria,Koper,6000,Koper - Capodistria
6000 KOPER - CAPODISTRIA,VOJKOVO NABREŽJE 32,45.54807,13.73774,Vojkovo nabrežje,Riva Janko Premrl-Vojko,32,,Koper,Capodistria,Koper,6000,Koper - Capodistria
6210 SEŽANA,LEVSTIKOVA ULICA 2,45.70870,13.87106,Levstikova ulica,,2,,Sežana,,Sežana,6210,Sežana
6210 SEŽANA,PARTIZANSKA CESTA 24,45.70858,13.87152,Partizanska cesta,,24,,Sežana,,Sežana,6210,Sežana
6210 SEŽANA,PARTIZANSKA CESTA 63,45.70583,13.86426,Partizanska cesta,,63,,Sežana,,Sežana,6210,Sežana
6230 POSTOJNA,CANKARJEVA ULICA 6,45.77464,14.21517,Cankarjeva ulica,,6,,Postojna,,Postojna,6230,Postojna
6230 POSTOJNA,GREGORČIČEV DREVORED 11,45.77434,14.21615,Gregorčičev drevored,,11,,Postojna,,Postojna,6230,Postojna
6230 POSTOJNA,JAMSKA CESTA 23,45.77731,14.20921,Jamska cesta,,23,,Postojna,,Postojna,6230,Postojna
6230 POSTOJNA,PREČNA ULICA 2,45.77205,14.21042,Prečna ulica,,2,,Postojna,,Postojna,6230,Postojna
6230 POSTOJNA,PREČNA ULICA 4,45.77151,14.21020,Prečna ulica,,4,,Postojna,,Postojna,6230,Postojna
6240 KOZINA,BOROVA ULICA 2,45.60732,13.94328,Borova ulica,,2,,Hrpelje,,Hrpelje-Kozina,6240,Kozina
6244 PODGRAD,PODGRAD 12 B,45.52063,14.14665,Podgrad,,12,B,Podgrad,,Ilirska Bistrica,6244,Podgrad
6250 ILIRSKA BISTRICA,GREGORČIČEVA CESTA 8,45.56848,14.24324,Gregorčičeva cesta,,8,,Ilirska Bistrica,,Ilirska Bistrica,6250,Ilirska Bistrica
6257 PIVKA,KOLODVORSKA CESTA 24,45.68043,14.19460,Kolodvorska cesta,,24,,Pivka,,Pivka,6257,Pivka
6257 PIVKA,PREČNA ULICA 3,45.68385,14.19357,Prečna ulica,,3,,Pivka,,Pivka,6257,Pivka
6258 PRESTRANEK,ULICA PADLIH BORCEV 22,45.72884,14.18469,Ulica padlih borcev,,22,,Prestranek,,Postojna,6258,Prestranek
6271 DEKANI,DEKANI 191,45.54809,13.81190,Dekani,,191,,Dekani,,Koper,6271,Dekani
6271 DEKANI,DEKANI 209,45.54898,13.81275,Dekani,,209,,Dekani,,Koper,6271,Dekani
6273 MAREZIGE,ČENTUR 23,45.50993,13.77048,Čentur,,23,,Čentur,,Koper,6273,Marezige
6280 ANKARAN - ANCARANO,FRENKOVA ULICA 7,45.58296,13.73466,Frenkova ulica,Via Franc Planinc-Frenk,7,,Ankaran,Ancarano,Ankaran,6280,Ankaran - Ancarano
6280 ANKARAN - ANCARANO,KOLOMBAN 38 F,45.58875,13.74737,Kolomban,Colombano,38,F,Kolomban,Colombano,Koper,6280,Ankaran - Ancarano
6310 IZOLA - ISOLA,JUŽNA CESTA 4 B,45.53109,13.66517,Južna cesta,Strada Meridionale,4,B,Izola,Isola,Izola,6310,Izola - Isola
6310 IZOLA - ISOLA,KAJUHOVA ULICA 1 B,45.53446,13.66402,Kajuhova ulica,Via Kajuh,1,B,Izola,Isola,Izola,6310,Izola - Isola
6310 IZOLA - ISOLA,KAJUHOVA ULICA 34,45.53002,13.66787,Kajuhova ulica,Via Kajuh,34,,Izola,Isola,Izola,6310,Izola - Isola
6310 IZOLA - ISOLA,POLJE 40,45.54442,13.68709,Polje,Polje,40,,Izola,Isola,Izola,6310,Izola - Isola
6310 IZOLA - ISOLA,PREŠERNOVA CESTA 53,45.53019,13.65195,Prešernova cesta,Strada France Prešeren,53,,Izola,Isola,Izola,6310,Izola - Isola
6310 IZOLA - ISOLA,ULICA OKTOBRSKE REVOLUCIJE 11,45.53464,13.66078,Ulica oktobrske revolucije,Via Rivoluzione d'Ottobre,11,,Izola,Isola,Izola,6310,Izola - Isola
6310 IZOLA - ISOLA,ŠARED 51,45.51187,13.65781,Šared,,51,,Šared,,Izola,6310,Izola - Isola
6320 PORTOROŽ - PORTOROSE,BELOKRIŠKA CESTA 44 C,45.51793,13.58636,Belokriška cesta,Strada di Croce Bianca,44,C,Portorož,Portorose,Piran,6320,Portorož - Portorose
6320 PORTOROŽ - PORTOROSE,CESTA SOLINARJEV 1,45.50452,13.60205,Cesta solinarjev,Strada dei Salinari,1,,Lucija,Lucia,Piran,6320,Portorož - Portorose
6320 PORTOROŽ - PORTOROSE,FAZAN 1,45.50642,13.60720,Fazan,Fasano,1,,Lucija,Lucia,Piran,6320,Portorož - Portorose
6320 PORTOROŽ - PORTOROSE,OBALA 105,45.50549,13.60232,Obala,Lungomare,105,,Lucija,Lucia,Piran,6320,Portorož - Portorose
6320 PORTOROŽ - PORTOROSE,OBALA 114,45.50349,13.60337,Obala,Lungomare,114,,Lucija,Lucia,Piran,6320,Portorož - Portorose
6320 PORTOROŽ - PORTOROSE,PREČNA POT 4 D,45.51588,13.58730,Prečna pot,Traversale,4,D,Portorož,Portorose,Piran,6320,Portorož - Portorose
6320 PORTOROŽ - PORTOROSE,SEČA 197 A,45.50205,13.60181,Seča,Sezza,197,A,Seča,Sezza,Piran,6320,Portorož - Portorose
8000 NOVO MESTO,KANDIJSKA CESTA 4,45.80129,15.16270,Kandijska cesta,,4,,Novo mesto,,Novo mesto,8000,Novo mesto
8000 NOVO MESTO,KANDIJSKA CESTA 62,45.79919,15.17787,Kandijska cesta,,62,,Novo mesto,,Novo mesto,8000,Novo mesto
8000 NOVO MESTO,KOČEVARJEVA ULICA 40,45.81626,15.15821,Kočevarjeva ulica,,40,,Novo mesto,,Novo mesto,8000,Novo mesto
8000 NOVO MESTO,LJUBLJANSKA CESTA 26,45.81489,15.15479,Ljubljanska cesta,,26,,Novo mesto,,Novo mesto,8000,Novo mesto
8000 NOVO MESTO,MUŠIČEVA ULICA 2,45.79951,15.17239,Mušičeva ulica,,2,,Novo mesto,,Novo mesto,8000,Novo mesto
8000 NOVO MESTO,TURKOVA ULICA 8,45.83041,15.15729,Turkova ulica,,8,,Novo mesto,,Novo mesto,8000,Novo mesto
8000 NOVO MESTO,ŠMARJEŠKA CESTA 4,45.81476,15.17800,Šmarješka cesta,,4,,Novo mesto,,Novo mesto,8000,Novo mesto
8000 NOVO MESTO,ŠMIHELSKA CESTA 1,45.79995,15.16385,Šmihelska cesta,,1,,Novo mesto,,Novo mesto,8000,Novo mesto
8210 TREBNJE,GOLIEV TRG 3,45.90830,15.00666,Goliev trg,,3,,Trebnje,,Trebnje,8210,Trebnje
8210 TREBNJE,GUBČEVA CESTA 41 A,45.90835,15.01221,Gubčeva cesta,,41,A,Trebnje,,Trebnje,8210,Trebnje
8210 TREBNJE,GUBČEVA CESTA 9 A,45.90828,15.00976,Gubčeva cesta,,9,A,Trebnje,,Trebnje,8210,Trebnje
8210 TREBNJE,KIDRIČEVA ULICA 11,45.90991,15.00628,Kidričeva ulica,,11,,Trebnje,,Trebnje,8210,Trebnje
8210 TREBNJE,OBRTNIŠKA ULICA 6,45.90719,15.02266,Obrtniška ulica,,6,,Trebnje,,Trebnje,8210,Trebnje
8210 TREBNJE,ŠTEFAN PRI TREBNJEM 40,45.90867,14.98839,Štefan pri Trebnjem,,40,,Štefan pri Trebnjem,,Trebnje,8210,Trebnje
8213 VELIKI GABER,CESTA 25,45.94446,14.89143,Cesta,,25,,Cesta,,Trebnje,8213,Veliki Gaber
8216 MIRNA PEČ,TRG 27,45.85842,15.08385,Trg,,27,,Mirna Peč,,Mirna Peč,8216,Mirna Peč
8220 ŠMARJEŠKE TOPLICE,ŠMARJETA 66,45.88826,15.24703,Šmarjeta,,66,,Šmarjeta,,Šmarješke Toplice,8220,Šmarješke Toplice
8232 ŠENTRUPERT,ŠENTRUPERT 124,45.97680,15.08850,Šentrupert,,124,,Šentrupert,,Šentrupert,8232,Šentrupert
8250 BREŽICE,PLETERŠNIKOVA ULICA 1,45.90908,15.59631,Pleteršnikova ulica,,1,,Brežice,,Brežice,8250,Brežice
8250 BREŽICE,ULICA STANKA ŠKALERJA 29,45.90939,15.59756,Ulica Stanka Škalerja,,29,,Brežice,,Brežice,8250,Brežice
8250 BREŽICE,ČERNELČEVA CESTA 15,45.90849,15.59354,Černelčeva cesta,,15,,Brežice,,Brežice,8250,Brežice
8250 BREŽICE,ČERNELČEVA CESTA 8,45.90811,15.59415,Černelčeva cesta,,8,,Brežice,,Brežice,8250,Brežice
8259 BIZELJSKO,BIZELJSKA CESTA 104,46.02057,15.69163,Bizeljska cesta,,104,,Bizeljsko,,Brežice,8259,Bizeljsko
8270 KRŠKO,CANKARJEVA ULICA 3 A,45.95739,15.49688,Cankarjeva ulica,,3,A,Krško,,Krško,8270,Krško
8270 KRŠKO,CESTA KRŠKIH ŽRTEV 112,45.95115,15.48664,Cesta krških žrtev,,112,,Krško,,Krško,8270,Krško
8270 KRŠKO,CESTA KRŠKIH ŽRTEV 132 C,45.94307,15.48349,Cesta krških žrtev,,132,C,Krško,,Krško,8270,Krško
8270 KRŠKO,CESTA KRŠKIH ŽRTEV 43,45.96424,15.48640,Cesta krških žrtev,,43,,Krško,,Krško,8270,Krško
8270 KRŠKO,POT NA POLŠCO 21,45.96386,15.49039,Pot na Polšco,,21,,Krško,,Krško,8270,Krško
8270 KRŠKO,ULICA ILIJE GREGORIČA 18 A,45.95890,15.50201,Ulica Ilije Gregoriča,,18,A,Krško,,Krško,8270,Krško
8270 KRŠKO,ŠOLSKA ULICA 1,45.95989,15.49411,Šolska ulica,,1,,Krško,,Krško,8270,Krško
8272 ZDOLE,PLETERJE 24,45.97319,15.53447,Pleterje,,24,,Pleterje,,Krško,8272,Zdole
8275 ŠKOCJAN,ŠKOCJAN 67,45.90725,15.28993,Škocjan,,67,,Škocjan,,Škocjan,8275,Škocjan
8290 SEVNICA,DROŽANJSKA CESTA 90,46.01346,15.31147,Drožanjska cesta,,90,,Sevnica,,Sevnica,8290,Sevnica
8290 SEVNICA,TRG SVOBODE 14,46.01060,15.30248,Trg svobode,,14,,Sevnica,,Sevnica,8290,Sevnica
8290 SEVNICA,TRG SVOBODE 9,46.00977,15.30294,Trg svobode,,9,,Sevnica,,Sevnica,8290,Sevnica
8296 KRMELJ,KRMELJ 53,45.98651,15.18517,Krmelj,,53,,Krmelj,,Sevnica,8296,Krmelj
8310 ŠENTJERNEJ,PRVOMAJSKA CESTA 5,45.84414,15.33949,Prvomajska cesta,,5,,Šentjernej,,Šentjernej,8310,Šentjernej
8310 ŠENTJERNEJ,TRUBARJEVA CESTA 5,45.84409,15.33708,Trubarjeva cesta,,5,,Šentjernej,,Šentjernej,8310,Šentjernej
8311 KOSTANJEVICA NA KRKI,LJUBLJANSKA CESTA 16,45.84460,15.41834,Ljubljanska cesta,,16,,Kostanjevica na Krki,,Kostanjevica na Krki,8311,Kostanjevica na Krki
8330 METLIKA,CESTA BRATSTVA IN ENOTNOSTI 71,45.64848,15.31814,Cesta bratstva in enotnosti,,71,,Metlika,,Metlika,8330,Metlika
8340 ČRNOMELJ,DELAVSKA POT 4,45.57549,15.18753,Delavska pot,,4,,Črnomelj,,Črnomelj,8340,Črnomelj
8340 ČRNOMELJ,ULICA NA PRISTAVAH 1,45.57823,15.19245,Ulica na Pristavah,,1,,Črnomelj,,Črnomelj,8340,Črnomelj
8340 ČRNOMELJ,ULICA OTONA ŽUPANČIČA 3,45.57421,15.19108,Ulica Otona Župančiča,,3,,Črnomelj,,Črnomelj,8340,Črnomelj
8340 ČRNOMELJ,ZADRUŽNA CESTA 33,45.57914,15.19513,Zadružna cesta,,33,,Črnomelj,,Črnomelj,8340,Črnomelj
8350 DOLENJSKE TOPLICE,POD CVINGERJEM 33,45.75434,15.05436,Pod Cvingerjem,,33,,Dolenjske Toplice,,Dolenjske Toplice,8350,Dolenjske Toplice
8350 DOLENJSKE TOPLICE,ULICA MAKSA HENIGMANA 57,45.75493,15.06221,Ulica Maksa Henigmana,,57,,Dolenjske Toplice,,Dolenjske Toplice,8350,Dolenjske Toplice
8351 STRAŽA PRI NOVEM MESTU,ULICA TALCEV 17,45.78181,15.07112,Ulica talcev,,17,,Straža,,Straža,8351,Straža pri Novem mestu
8360 ŽUŽEMBERK,JURČIČEVA ULICA 32,45.83205,14.93017,Jurčičeva ulica,,32,,Žužemberk,,Žužemberk,8360,Žužemberk
9000 MURSKA SOBOTA,CANKARJEVA ULICA 113,46.65595,16.15589,Cankarjeva ulica,,113,,Murska Sobota,,Murska Sobota,9000,Murska Sobota
9000 MURSKA SOBOTA,CVETKOVA ULICA 10,46.66089,16.16751,Cvetkova ulica,,10,,Murska Sobota,,Murska Sobota,9000,Murska Sobota
9000 MURSKA SOBOTA,DOLGA ULICA 82,46.66544,16.14308,Dolga ulica,,82,,Černelavci,,Murska Sobota,9000,Murska Sobota
9000 MURSKA SOBOTA,GRAJSKA ULICA 24,46.66402,16.16066,Grajska ulica,,24,,Murska Sobota,,Murska Sobota,9000,Murska Sobota
9000 MURSKA SOBOTA,KOCLJEVA ULICA 10,46.66002,16.16316,Kocljeva ulica,,10,,Murska Sobota,,Murska Sobota,9000,Murska Sobota
9000 MURSKA SOBOTA,KOCLJEVA ULICA 9,46.65945,16.16360,Kocljeva ulica,,9,,Murska Sobota,,Murska Sobota,9000,Murska Sobota
9000 MURSKA SOBOTA,LENDAVSKA ULICA 17 A,46.66438,16.16739,Lendavska ulica,,17,A,Murska Sobota,,Murska Sobota,9000,Murska Sobota
9000 MURSKA SOBOTA,LENDAVSKA ULICA 18,46.66410,16.16828,Lendavska ulica,,18,,Murska Sobota,,Murska Sobota,9000,Murska Sobota
9000 MURSKA SOBOTA,MLADINSKA ULICA 10,46.61794,16.14409,Mladinska ulica,,10,,Bakovci,,Murska Sobota,9000,Murska Sobota
9000 MURSKA SOBOTA,PLESE 2,46.65833,16.17610,Plese,,2,,Murska Sobota,,Murska Sobota,9000,Murska Sobota
9000 MURSKA SOBOTA,TRSTENJAKOVA ULICA 34,46.65416,16.16627,Trstenjakova ulica,,34,,Murska Sobota,,Murska Sobota,9000,Murska Sobota
9000 MURSKA SOBOTA,ULICA DR. VRBNJAKA 1,46.65007,16.19052,Ulica dr. Vrbnjaka,,1,,Rakičan,,Murska Sobota,9000,Murska Sobota
9000 MURSKA SOBOTA,ULICA DR. VRBNJAKA 6,46.65013,16.18727,Ulica dr. Vrbnjaka,,6,,Rakičan,,Murska Sobota,9000,Murska Sobota
9000 MURSKA SOBOTA,ULICA PREKMURSKE ČETE 12,46.65297,16.15597,Ulica Prekmurske čete,,12,,Murska Sobota,,Murska Sobota,9000,Murska Sobota
9000 MURSKA SOBOTA,ULICA STANETA ROZMANA 11 A,46.66162,16.16734,Ulica Staneta Rozmana,,11,A,Murska Sobota,,Murska Sobota,9000,Murska Sobota
9000 MURSKA SOBOTA,ULICA STANETA ROZMANA 16,46.66145,16.16862,Ulica Staneta Rozmana,,16,,Murska Sobota,,Murska Sobota,9000,Murska Sobota
9000 MURSKA SOBOTA,ULICA ZORANA VELNARJA 2,46.65481,16.15333,Ulica Zorana Velnarja,,2,,Murska Sobota,,Murska Sobota,9000,Murska Sobota
9201 PUCONCI,PUCONCI 251,46.69401,16.17399,Puconci,,251,,Puconci,,Puconci,9201,Puconci
9220 LENDAVA - LENDVA,KIDRIČEVA ULICA 34,46.55821,16.45692,Kidričeva ulica,Kidrič utca,34,,Lendava,Lendva,Lendava,9220,Lendava - Lendva
9220 LENDAVA - LENDVA,MLINSKA ULICA 6,46.56183,16.45256,Mlinska ulica,Malom utca,6,,Lendava,Lendva,Lendava,9220,Lendava - Lendva
9220 LENDAVA - LENDVA,MLINSKA ULICA 6 E,46.56214,16.45301,Mlinska ulica,Malom utca,6,E,Lendava,Lendva,Lendava,9220,Lendava - Lendva
9220 LENDAVA - LENDVA,TRIMLINI 56 A,46.54414,16.46532,Trimlini,Hármasmalom,56,A,Trimlini,Hármasmalom,Lendava,9220,Lendava - Lendva
9221 MARTJANCI,MARTJANCI 35,46.68503,16.19115,Martjanci,,35,,Martjanci,,Moravske Toplice,9221,Martjanci
9223 DOBROVNIK - DOBRONAK,DOBROVNIK 12 A,46.65094,16.35190,Dobrovnik,Dobronak,12,A,Dobrovnik,Dobronak,Dobrovnik,9223,Dobrovnik - Dobronak
9226 MORAVSKE TOPLICE,ULICA OB IGRIŠČU 3,46.68736,16.21683,Ulica ob igrišču,,3,,Moravske Toplice,,Moravske Toplice,9226,Moravske Toplice
9231 BELTINCI,KOCLJEVO NASELJE 9,46.60880,16.23201,Kocljevo naselje,,9,,Beltinci,,Beltinci,9231,Beltinci
9231 BELTINCI,PANONSKA ULICA 35 B,46.60893,16.23851,Panonska ulica,,35,B,Beltinci,,Beltinci,9231,Beltinci
9240 LJUTOMER,CESTA I. SLOVENSKEGA TABORA 2,46.52172,16.19326,Cesta I. slovenskega tabora,,2,,Ljutomer,,Ljutomer,9240,Ljutomer
9241 VERŽEJ,MAISTROVA ULICA 7,46.58358,16.16056,Maistrova ulica,,7,,Veržej,,Veržej,9241,Veržej
9242 KRIŽEVCI PRI LJUTOMERU,KRIŽEVCI PRI LJUTOMERU 1 B,46.56093,16.14015,Križevci pri Ljutomeru,,1,B,Križevci pri Ljutomeru,,Križevci,9242,Križevci pri Ljutomeru
9242 KRIŽEVCI PRI LJUTOMERU,KRIŽEVCI PRI LJUTOMERU 34 A,46.56666,16.13705,Križevci pri Ljutomeru,,34,A,Križevci pri Ljutomeru,,Križevci,9242,Križevci pri Ljutomeru
9243 MALA NEDELJA,MORAVCI V SLOV. GORICAH 34 B,46.51465,16.05219,Moravci v Slov. goricah,,34,B,Moravci v Slov. goricah,,Ljutomer,9243,Mala Nedelja
9246 RAZKRIŽJE,ŠAFARSKO 24 D,46.52012,16.28685,Šafarsko,,24,D,Šafarsko,,Razkrižje,9246,Razkrižje
9250 GORNJA RADGONA,PARTIZANSKA CESTA 40,46.67340,15.99302,Partizanska cesta,,40,,Gornja Radgona,,Gornja Radgona,9250,Gornja Radgona
9250 GORNJA RADGONA,POLICE 96,46.66371,15.96145,Police,,96,,Police,,Gornja Radgona,9250,Gornja Radgona
9251 TIŠINA,TIŠINA 30,46.65356,16.08631,Tišina,,30,,Tišina,,Tišina,9251,Tišina
9252 RADENCI,MLADINSKA ULICA 18,46.64462,16.03732,Mladinska ulica,,18,,Radenci,,Radenci,9252,Radenci
9252 RADENCI,PANONSKA CESTA 15,46.64352,16.03964,Panonska cesta,,15,,Radenci,,Radenci,9252,Radenci
9252 RADENCI,PANONSKA CESTA 17,46.64428,16.03994,Panonska cesta,,17,,Radenci,,Radenci,9252,Radenci
9252 RADENCI,RADGONSKA CESTA 2,46.64125,16.04391,Radgonska cesta,,2,,Radenci,,Radenci,9252,Radenci
9261 CANKOVA,CANKOVA 65 B,46.71858,16.01850,Cankova,,65,B,Cankova,,Cankova,9261,Cankova
9262 ROGAŠOVCI,ROGAŠOVCI 14 A,46.80513,16.03630,Rogašovci,,14,A,Rogašovci,,Rogašovci,9262,Rogašovci
9264 GRAD,GRAD 187,46.80149,16.09203,Grad,,187,,Grad,,Grad,9264,Grad
